<?xml version="1.0" encoding="UTF-8" standalone="no" ?><gpx xmlns="http://www.topografix.com/GPX/1/1" xmlns:gpxx="http://www.garmin.com/xmlschemas/GpxExtensions/v3" xmlns:gpxtrkx="http://www.garmin.com/xmlschemas/TrackStatsExtension/v1" xmlns:wptx1="http://www.garmin.com/xmlschemas/WaypointExtension/v1" xmlns:gpxtpx="http://www.garmin.com/xmlschemas/TrackPointExtension/v1" creator="GPSMAP 64st" version="1.1" xmlns:xsi="http://www.w3.org/2001/XMLSchema-instance" xsi:schemaLocation="http://www.topografix.com/GPX/1/1 http://www.topografix.com/GPX/1/1/gpx.xsd http://www.garmin.com/xmlschemas/GpxExtensions/v3 http://www8.garmin.com/xmlschemas/GpxExtensionsv3.xsd http://www.garmin.com/xmlschemas/TrackStatsExtension/v1 http://www8.garmin.com/xmlschemas/TrackStatsExtension.xsd http://www.garmin.com/xmlschemas/WaypointExtension/v1 http://www8.garmin.com/xmlschemas/WaypointExtensionv1.xsd http://www.garmin.com/xmlschemas/TrackPointExtension/v1 http://www.garmin.com/xmlschemas/TrackPointExtensionv1.xsd"><metadata><link href="http://www.garmin.com"><text>Garmin International</text></link><time>2026-08-25T16:05:45Z</time></metadata><trk><name>2026-08-25 18:05:40</name><extensions><gpxx:TrackExtension><gpxx:DisplayColor>Red</gpxx:DisplayColor></gpxx:TrackExtension><gpxtrkx:TrackStatsExtension><gpxtrkx:Distance>3655.000</gpxtrkx:Distance><gpxtrkx:TotalElapsedTime>3292</gpxtrkx:TotalElapsedTime><gpxtrkx:MovingTime>2944</gpxtrkx:MovingTime><gpxtrkx:StoppedTime>346</gpxtrkx:StoppedTime><gpxtrkx:MovingSpeed>1.242</gpxtrkx:MovingSpeed><gpxtrkx:MaxSpeed>2.347</gpxtrkx:MaxSpeed><gpxtrkx:MaxElevation>227.835</gpxtrkx:MaxElevation><gpxtrkx:MinElevation>132.395</gpxtrkx:MinElevation><gpxtrkx:Ascent>102.000</gpxtrkx:Ascent><gpxtrkx:Descent>97.965</gpxtrkx:Descent><gpxtrkx:AvgAscentRate>0.091</gpxtrkx:AvgAscentRate><gpxtrkx:MaxAscentRate>0.204</gpxtrkx:MaxAscentRate><gpxtrkx:AvgDescentRate>0.067</gpxtrkx:AvgDescentRate><gpxtrkx:MaxDescentRate>-0.233</gpxtrkx:MaxDescentRate></gpxtrkx:TrackStatsExtension></extensions><trkseg><trkpt lat="43.9653967135" lon="21.2666550837"><ele>150.70</ele><time>2026-08-25T15:10:53Z</time></trkpt><trkpt lat="43.9654286485" lon="21.2666276749"><ele>147.65</ele><time>2026-08-25T15:11:07Z</time></trkpt><trkpt lat="43.9654300734" lon="21.2666329555"><ele>144.15</ele><time>2026-08-25T15:11:15Z</time></trkpt><trkpt lat="43.9654387906" lon="21.2666394096"><ele>141.02</ele><time>2026-08-25T15:11:22Z</time></trkpt><trkpt lat="43.9654895011" lon="21.2665915489"><ele>137.87</ele><time>2026-08-25T15:11:31Z</time></trkpt><trkpt lat="43.9655165747" lon="21.2665329594"><ele>134.84</ele><time>2026-08-25T15:11:43Z</time></trkpt><trkpt lat="43.9655185025" lon="21.2665441912"><ele>132.49</ele><time>2026-08-25T15:12:13Z</time></trkpt><trkpt lat="43.9655563049" lon="21.2665276788"><ele>132.50</ele><time>2026-08-25T15:12:34Z</time></trkpt><trkpt lat="43.9655444026" lon="21.2665211409"><ele>132.85</ele><time>2026-08-25T15:13:02Z</time></trkpt><trkpt lat="43.9655395411" lon="21.2665329594"><ele>132.66</ele><time>2026-08-25T15:13:11Z</time></trkpt><trkpt lat="43.9655400440" lon="21.2665307801"><ele>132.94</ele><time>2026-08-25T15:13:37Z</time></trkpt><trkpt lat="43.9655497670" lon="21.2665106636"><ele>132.92</ele><time>2026-08-25T15:13:48Z</time></trkpt><trkpt lat="43.9655397926" lon="21.2664851826"><ele>133.10</ele><time>2026-08-25T15:14:06Z</time></trkpt><trkpt lat="43.9655787684" lon="21.2664938997"><ele>133.00</ele><time>2026-08-25T15:14:34Z</time></trkpt><trkpt lat="43.9654652774" lon="21.2665863521"><ele>134.02</ele><time>2026-08-25T15:14:54Z</time></trkpt><trkpt lat="43.9652931131" lon="21.2667108234"><ele>136.44</ele><time>2026-08-25T15:15:09Z</time></trkpt><trkpt lat="43.9652251359" lon="21.2668175250"><ele>137.81</ele><time>2026-08-25T15:15:18Z</time></trkpt><trkpt lat="43.9651838131" lon="21.2668605242"><ele>138.43</ele><time>2026-08-25T15:15:22Z</time></trkpt><trkpt lat="43.9651294146" lon="21.2669283338"><ele>139.07</ele><time>2026-08-25T15:15:28Z</time></trkpt><trkpt lat="43.9649129100" lon="21.2670463510"><ele>141.56</ele><time>2026-08-25T15:15:44Z</time></trkpt><trkpt lat="43.9648620319" lon="21.2670704070"><ele>141.93</ele><time>2026-08-25T15:15:48Z</time></trkpt><trkpt lat="43.9647012670" lon="21.2671414018"><ele>144.20</ele><time>2026-08-25T15:16:04Z</time></trkpt><trkpt lat="43.9645853452" lon="21.2671578303"><ele>146.53</ele><time>2026-08-25T15:16:18Z</time></trkpt><trkpt lat="43.9645357244" lon="21.2671730854"><ele>148.33</ele><time>2026-08-25T15:16:24Z</time></trkpt><trkpt lat="43.9644830022" lon="21.2671766896"><ele>149.39</ele><time>2026-08-25T15:16:29Z</time></trkpt><trkpt lat="43.9643514063" lon="21.2671926152"><ele>151.69</ele><time>2026-08-25T15:16:44Z</time></trkpt><trkpt lat="43.9640776534" lon="21.2672812119"><ele>154.38</ele><time>2026-08-25T15:17:04Z</time></trkpt><trkpt lat="43.9639134519" lon="21.2673177570"><ele>155.64</ele><time>2026-08-25T15:17:19Z</time></trkpt><trkpt lat="43.9638315607" lon="21.2673229538"><ele>156.07</ele><time>2026-08-25T15:17:28Z</time></trkpt><trkpt lat="43.9636822790" lon="21.2673748378"><ele>157.06</ele><time>2026-08-25T15:17:45Z</time></trkpt><trkpt lat="43.9635754935" lon="21.2674382050"><ele>158.55</ele><time>2026-08-25T15:18:08Z</time></trkpt><trkpt lat="43.9634294808" lon="21.2675089482"><ele>160.63</ele><time>2026-08-25T15:18:31Z</time></trkpt><trkpt lat="43.9632464200" lon="21.2676713895"><ele>162.83</ele><time>2026-08-25T15:18:49Z</time></trkpt><trkpt lat="43.9632575680" lon="21.2677010614"><ele>163.29</ele><time>2026-08-25T15:19:03Z</time></trkpt><trkpt lat="43.9631114714" lon="21.2678147200"><ele>165.43</ele><time>2026-08-25T15:19:21Z</time></trkpt><trkpt lat="43.9629677217" lon="21.2679192424"><ele>168.25</ele><time>2026-08-25T15:19:37Z</time></trkpt><trkpt lat="43.9628279954" lon="21.2680563703"><ele>171.38</ele><time>2026-08-25T15:19:56Z</time></trkpt><trkpt lat="43.9626942202" lon="21.2681447994"><ele>173.80</ele><time>2026-08-25T15:20:13Z</time></trkpt><trkpt lat="43.9626457728" lon="21.2681677658"><ele>174.90</ele><time>2026-08-25T15:20:17Z</time></trkpt><trkpt lat="43.9625197928" lon="21.2682188954"><ele>176.33</ele><time>2026-08-25T15:20:29Z</time></trkpt><trkpt lat="43.9624213055" lon="21.2683101743"><ele>177.70</ele><time>2026-08-25T15:20:41Z</time></trkpt><trkpt lat="43.9623704273" lon="21.2683070730"><ele>178.56</ele><time>2026-08-25T15:20:57Z</time></trkpt><trkpt lat="43.9623578545" lon="21.2682767306"><ele>178.39</ele><time>2026-08-25T15:21:00Z</time></trkpt><trkpt lat="43.9622151945" lon="21.2680917419"><ele>180.86</ele><time>2026-08-25T15:21:16Z</time></trkpt><trkpt lat="43.9622031245" lon="21.2680826057"><ele>181.10</ele><time>2026-08-25T15:21:17Z</time></trkpt><trkpt lat="43.9621131867" lon="21.2679762393"><ele>181.66</ele><time>2026-08-25T15:21:31Z</time></trkpt><trkpt lat="43.9620773122" lon="21.2679482438"><ele>182.13</ele><time>2026-08-25T15:21:34Z</time></trkpt><trkpt lat="43.9620294515" lon="21.2678843737"><ele>182.39</ele><time>2026-08-25T15:21:39Z</time></trkpt><trkpt lat="43.9619750530" lon="21.2678098585"><ele>183.12</ele><time>2026-08-25T15:21:45Z</time></trkpt><trkpt lat="43.9619520027" lon="21.2676518597"><ele>184.96</ele><time>2026-08-25T15:21:56Z</time></trkpt><trkpt lat="43.9618268609" lon="21.2674713973"><ele>186.12</ele><time>2026-08-25T15:22:11Z</time></trkpt><trkpt lat="43.9618149586" lon="21.2674500234"><ele>186.42</ele><time>2026-08-25T15:22:13Z</time></trkpt><trkpt lat="43.9617882203" lon="21.2673910148"><ele>186.74</ele><time>2026-08-25T15:22:17Z</time></trkpt><trkpt lat="43.9617365040" lon="21.2672407273"><ele>189.49</ele><time>2026-08-25T15:22:31Z</time></trkpt><trkpt lat="43.9617254399" lon="21.2670200318"><ele>191.95</ele><time>2026-08-25T15:22:50Z</time></trkpt><trkpt lat="43.9617419522" lon="21.2666633818"><ele>193.56</ele><time>2026-08-25T15:23:10Z</time></trkpt><trkpt lat="43.9617360011" lon="21.2665980868"><ele>193.80</ele><time>2026-08-25T15:23:14Z</time></trkpt><trkpt lat="43.9617336541" lon="21.2665321212"><ele>194.02</ele><time>2026-08-25T15:23:18Z</time></trkpt><trkpt lat="43.9617161360" lon="21.2662821729"><ele>195.82</ele><time>2026-08-25T15:23:33Z</time></trkpt><trkpt lat="43.9615701232" lon="21.2661193125"><ele>198.09</ele><time>2026-08-25T15:23:49Z</time></trkpt><trkpt lat="43.9614030719" lon="21.2660383433"><ele>200.48</ele><time>2026-08-25T15:24:02Z</time></trkpt><trkpt lat="43.9613555465" lon="21.2660213280"><ele>201.11</ele><time>2026-08-25T15:24:06Z</time></trkpt><trkpt lat="43.9612244535" lon="21.2659223378"><ele>203.40</ele><time>2026-08-25T15:24:20Z</time></trkpt><trkpt lat="43.9610944502" lon="21.2657907419"><ele>206.20</ele><time>2026-08-25T15:24:35Z</time></trkpt><trkpt lat="43.9610880800" lon="21.2657785043"><ele>206.24</ele><time>2026-08-25T15:24:36Z</time></trkpt><trkpt lat="43.9610201865" lon="21.2657173164"><ele>207.42</ele><time>2026-08-25T15:24:44Z</time></trkpt><trkpt lat="43.9608886745" lon="21.2655796017"><ele>209.75</ele><time>2026-08-25T15:25:00Z</time></trkpt><trkpt lat="43.9607700706" lon="21.2654539570"><ele>212.86</ele><time>2026-08-25T15:25:14Z</time></trkpt><trkpt lat="43.9607246406" lon="21.2653920148"><ele>213.06</ele><time>2026-08-25T15:25:27Z</time></trkpt><trkpt lat="43.9606139157" lon="21.2652128097"><ele>214.79</ele><time>2026-08-25T15:25:44Z</time></trkpt><trkpt lat="43.9604622871" lon="21.2649745960"><ele>215.89</ele><time>2026-08-25T15:26:03Z</time></trkpt><trkpt lat="43.9602603670" lon="21.2647940498"><ele>217.89</ele><time>2026-08-25T15:26:24Z</time></trkpt><trkpt lat="43.9601513185" lon="21.2647644617"><ele>218.77</ele><time>2026-08-25T15:26:34Z</time></trkpt><trkpt lat="43.9599364903" lon="21.2648105621"><ele>220.94</ele><time>2026-08-25T15:26:54Z</time></trkpt><trkpt lat="43.9597688522" lon="21.2650050223"><ele>223.94</ele><time>2026-08-25T15:27:12Z</time></trkpt><trkpt lat="43.9596116077" lon="21.2652059365"><ele>226.49</ele><time>2026-08-25T15:27:30Z</time></trkpt><trkpt lat="43.9594018925" lon="21.2653251272"><ele>227.51</ele><time>2026-08-25T15:27:48Z</time></trkpt><trkpt lat="43.9592661057" lon="21.2653429806"><ele>227.42</ele><time>2026-08-25T15:28:00Z</time></trkpt><trkpt lat="43.9592392836" lon="21.2653453276"><ele>227.36</ele><time>2026-08-25T15:28:02Z</time></trkpt><trkpt lat="43.9591166563" lon="21.2653919309"><ele>227.21</ele><time>2026-08-25T15:28:12Z</time></trkpt><trkpt lat="43.9590663649" lon="21.2654084433"><ele>227.41</ele><time>2026-08-25T15:28:16Z</time></trkpt><trkpt lat="43.9590231143" lon="21.2654121313"><ele>227.32</ele><time>2026-08-25T15:28:20Z</time></trkpt><trkpt lat="43.9588890877" lon="21.2654525321"><ele>226.77</ele><time>2026-08-25T15:28:30Z</time></trkpt><trkpt lat="43.9587255567" lon="21.2654660270"><ele>226.36</ele><time>2026-08-25T15:28:42Z</time></trkpt><trkpt lat="43.9586667158" lon="21.2654550467"><ele>226.15</ele><time>2026-08-25T15:28:46Z</time></trkpt><trkpt lat="43.9586238004" lon="21.2654346786"><ele>226.26</ele><time>2026-08-25T15:29:00Z</time></trkpt><trkpt lat="43.9585822262" lon="21.2654301524"><ele>226.63</ele><time>2026-08-25T15:29:21Z</time></trkpt><trkpt lat="43.9585865010" lon="21.2654266320"><ele>227.21</ele><time>2026-08-25T15:29:40Z</time></trkpt><trkpt lat="43.9585894346" lon="21.2654027436"><ele>226.68</ele><time>2026-08-25T15:30:04Z</time></trkpt><trkpt lat="43.9585946314" lon="21.2654042523"><ele>226.95</ele><time>2026-08-25T15:30:25Z</time></trkpt><trkpt lat="43.9585935418" lon="21.2653953675"><ele>227.12</ele><time>2026-08-25T15:30:46Z</time></trkpt><trkpt lat="43.9585922845" lon="21.2654014025"><ele>227.09</ele><time>2026-08-25T15:31:08Z</time></trkpt><trkpt lat="43.9585422445" lon="21.2654086947"><ele>227.25</ele><time>2026-08-25T15:31:27Z</time></trkpt><trkpt lat="43.9584466908" lon="21.2654215191"><ele>227.03</ele><time>2026-08-25T15:31:38Z</time></trkpt><trkpt lat="43.9584580064" lon="21.2654233631"><ele>227.16</ele><time>2026-08-25T15:31:56Z</time></trkpt><trkpt lat="43.9584362134" lon="21.2654371094"><ele>227.32</ele><time>2026-08-25T15:32:15Z</time></trkpt><trkpt lat="43.9583973214" lon="21.2654210161"><ele>227.10</ele><time>2026-08-25T15:32:26Z</time></trkpt><trkpt lat="43.9582042862" lon="21.2654422224"><ele>226.95</ele><time>2026-08-25T15:32:42Z</time></trkpt><trkpt lat="43.9580377378" lon="21.2654236984"><ele>226.96</ele><time>2026-08-25T15:32:55Z</time></trkpt><trkpt lat="43.9578510728" lon="21.2653676234"><ele>226.37</ele><time>2026-08-25T15:33:09Z</time></trkpt><trkpt lat="43.9577494841" lon="21.2652626820"><ele>225.61</ele><time>2026-08-25T15:33:18Z</time></trkpt><trkpt lat="43.9576397650" lon="21.2650877517"><ele>224.83</ele><time>2026-08-25T15:33:32Z</time></trkpt><trkpt lat="43.9575083368" lon="21.2649038527"><ele>223.92</ele><time>2026-08-25T15:33:48Z</time></trkpt><trkpt lat="43.9573977794" lon="21.2647318561"><ele>222.82</ele><time>2026-08-25T15:34:02Z</time></trkpt><trkpt lat="43.9573462307" lon="21.2645990029"><ele>222.55</ele><time>2026-08-25T15:34:11Z</time></trkpt><trkpt lat="43.9572738949" lon="21.2644090690"><ele>222.18</ele><time>2026-08-25T15:34:23Z</time></trkpt><trkpt lat="43.9571561292" lon="21.2642034609"><ele>221.76</ele><time>2026-08-25T15:34:38Z</time></trkpt><trkpt lat="43.9569901675" lon="21.2640899699"><ele>221.40</ele><time>2026-08-25T15:34:53Z</time></trkpt><trkpt lat="43.9569378644" lon="21.2640332244"><ele>221.81</ele><time>2026-08-25T15:34:58Z</time></trkpt><trkpt lat="43.9568375330" lon="21.2639002874"><ele>221.19</ele><time>2026-08-25T15:35:10Z</time></trkpt><trkpt lat="43.9567189291" lon="21.2638067454"><ele>220.33</ele><time>2026-08-25T15:35:23Z</time></trkpt><trkpt lat="43.9565819688" lon="21.2637228426"><ele>220.04</ele><time>2026-08-25T15:35:35Z</time></trkpt><trkpt lat="43.9565168414" lon="21.2637062464"><ele>219.85</ele><time>2026-08-25T15:35:40Z</time></trkpt><trkpt lat="43.9564945456" lon="21.2637077551"><ele>220.05</ele><time>2026-08-25T15:35:42Z</time></trkpt><trkpt lat="43.9563295897" lon="21.2636582181"><ele>219.69</ele><time>2026-08-25T15:35:55Z</time></trkpt><trkpt lat="43.9563170169" lon="21.2636505067"><ele>219.84</ele><time>2026-08-25T15:35:56Z</time></trkpt><trkpt lat="43.9561839961" lon="21.2635914981"><ele>219.68</ele><time>2026-08-25T15:36:08Z</time></trkpt><trkpt lat="43.9560416713" lon="21.2634750735"><ele>219.78</ele><time>2026-08-25T15:36:23Z</time></trkpt><trkpt lat="43.9560259134" lon="21.2634360977"><ele>219.80</ele><time>2026-08-25T15:36:26Z</time></trkpt><trkpt lat="43.9560187049" lon="21.2633422203"><ele>219.66</ele><time>2026-08-25T15:36:31Z</time></trkpt><trkpt lat="43.9560207166" lon="21.2630855665"><ele>219.41</ele><time>2026-08-25T15:36:45Z</time></trkpt><trkpt lat="43.9560153522" lon="21.2628414854"><ele>219.48</ele><time>2026-08-25T15:36:59Z</time></trkpt><trkpt lat="43.9560003486" lon="21.2627569120"><ele>219.49</ele><time>2026-08-25T15:37:04Z</time></trkpt><trkpt lat="43.9559545834" lon="21.2626732606"><ele>219.62</ele><time>2026-08-25T15:37:11Z</time></trkpt><trkpt lat="43.9559451956" lon="21.2626199517"><ele>220.09</ele><time>2026-08-25T15:37:14Z</time></trkpt><trkpt lat="43.9558868576" lon="21.2624523975"><ele>220.41</ele><time>2026-08-25T15:37:26Z</time></trkpt><trkpt lat="43.9558572695" lon="21.2623650581"><ele>220.84</ele><time>2026-08-25T15:37:32Z</time></trkpt><trkpt lat="43.9556887094" lon="21.2621519901"><ele>223.69</ele><time>2026-08-25T15:37:52Z</time></trkpt><trkpt lat="43.9555318840" lon="21.2621360645"><ele>225.24</ele><time>2026-08-25T15:38:06Z</time></trkpt><trkpt lat="43.9553386811" lon="21.2621767167"><ele>225.71</ele><time>2026-08-25T15:38:24Z</time></trkpt><trkpt lat="43.9551422093" lon="21.2621534150"><ele>226.29</ele><time>2026-08-25T15:38:43Z</time></trkpt><trkpt lat="43.9549427200" lon="21.2621220667"><ele>226.20</ele><time>2026-08-25T15:39:02Z</time></trkpt><trkpt lat="43.9547393750" lon="21.2620726973"><ele>225.21</ele><time>2026-08-25T15:39:16Z</time></trkpt><trkpt lat="43.9545351919" lon="21.2619385030"><ele>224.14</ele><time>2026-08-25T15:39:35Z</time></trkpt><trkpt lat="43.9544979762" lon="21.2619172130"><ele>223.99</ele><time>2026-08-25T15:39:39Z</time></trkpt><trkpt lat="43.9542833995" lon="21.2618087512"><ele>224.07</ele><time>2026-08-25T15:39:57Z</time></trkpt><trkpt lat="43.9541441761" lon="21.2617453001"><ele>223.93</ele><time>2026-08-25T15:40:10Z</time></trkpt><trkpt lat="43.9540468622" lon="21.2617142871"><ele>223.55</ele><time>2026-08-25T15:40:17Z</time></trkpt><trkpt lat="43.9540094789" lon="21.2617026363"><ele>223.22</ele><time>2026-08-25T15:40:20Z</time></trkpt><trkpt lat="43.9538019430" lon="21.2616035622"><ele>221.09</ele><time>2026-08-25T15:40:37Z</time></trkpt><trkpt lat="43.9537140168" lon="21.2615490798"><ele>220.56</ele><time>2026-08-25T15:40:44Z</time></trkpt><trkpt lat="43.9535168745" lon="21.2613778375"><ele>219.17</ele><time>2026-08-25T15:41:02Z</time></trkpt><trkpt lat="43.9534850232" lon="21.2613427173"><ele>218.68</ele><time>2026-08-25T15:41:05Z</time></trkpt><trkpt lat="43.9533617254" lon="21.2612619158"><ele>217.71</ele><time>2026-08-25T15:41:16Z</time></trkpt><trkpt lat="43.9532782417" lon="21.2612255383"><ele>217.33</ele><time>2026-08-25T15:41:24Z</time></trkpt><trkpt lat="43.9531448018" lon="21.2611696310"><ele>216.62</ele><time>2026-08-25T15:41:38Z</time></trkpt><trkpt lat="43.9530494995" lon="21.2610781845"><ele>215.86</ele><time>2026-08-25T15:41:48Z</time></trkpt><trkpt lat="43.9529419597" lon="21.2609621789"><ele>214.33</ele><time>2026-08-25T15:42:00Z</time></trkpt><trkpt lat="43.9529225137" lon="21.2609393802"><ele>214.02</ele><time>2026-08-25T15:42:02Z</time></trkpt><trkpt lat="43.9528661035" lon="21.2608262245"><ele>213.42</ele><time>2026-08-25T15:42:11Z</time></trkpt><trkpt lat="43.9528412931" lon="21.2608007435"><ele>213.12</ele><time>2026-08-25T15:42:14Z</time></trkpt><trkpt lat="43.9528159797" lon="21.2607600074"><ele>212.90</ele><time>2026-08-25T15:42:17Z</time></trkpt><trkpt lat="43.9527750760" lon="21.2605502084"><ele>211.40</ele><time>2026-08-25T15:42:31Z</time></trkpt><trkpt lat="43.9527582284" lon="21.2603844143"><ele>210.30</ele><time>2026-08-25T15:42:42Z</time></trkpt><trkpt lat="43.9527514391" lon="21.2603407446"><ele>210.13</ele><time>2026-08-25T15:42:45Z</time></trkpt><trkpt lat="43.9527953602" lon="21.2602150999"><ele>209.08</ele><time>2026-08-25T15:42:59Z</time></trkpt><trkpt lat="43.9528043289" lon="21.2601755373"><ele>208.91</ele><time>2026-08-25T15:43:06Z</time></trkpt><trkpt lat="43.9528272115" lon="21.2601428479"><ele>209.00</ele><time>2026-08-25T15:43:09Z</time></trkpt><trkpt lat="43.9528552908" lon="21.2600954901"><ele>208.21</ele><time>2026-08-25T15:43:13Z</time></trkpt><trkpt lat="43.9529674407" lon="21.2600130960"><ele>206.34</ele><time>2026-08-25T15:43:25Z</time></trkpt><trkpt lat="43.9531121124" lon="21.2600142695"><ele>205.65</ele><time>2026-08-25T15:43:43Z</time></trkpt><trkpt lat="43.9532306325" lon="21.2600401696"><ele>204.74</ele><time>2026-08-25T15:44:02Z</time></trkpt><trkpt lat="43.9533102605" lon="21.2600560952"><ele>204.16</ele><time>2026-08-25T15:44:20Z</time></trkpt><trkpt lat="43.9534851070" lon="21.2600714341"><ele>202.27</ele><time>2026-08-25T15:44:42Z</time></trkpt><trkpt lat="43.9536428545" lon="21.2601113319"><ele>201.32</ele><time>2026-08-25T15:44:55Z</time></trkpt><trkpt lat="43.9537230693" lon="21.2601166964"><ele>201.22</ele><time>2026-08-25T15:45:02Z</time></trkpt><trkpt lat="43.9540211298" lon="21.2601327058"><ele>200.34</ele><time>2026-08-25T15:45:25Z</time></trkpt><trkpt lat="43.9540619496" lon="21.2601375673"><ele>200.04</ele><time>2026-08-25T15:45:30Z</time></trkpt><trkpt lat="43.9542423282" lon="21.2601442728"><ele>199.55</ele><time>2026-08-25T15:45:46Z</time></trkpt><trkpt lat="43.9544301666" lon="21.2601405010"><ele>198.97</ele><time>2026-08-25T15:46:06Z</time></trkpt><trkpt lat="43.9544824697" lon="21.2601597793"><ele>198.68</ele><time>2026-08-25T15:46:10Z</time></trkpt><trkpt lat="43.9545984752" lon="21.2602134235"><ele>198.48</ele><time>2026-08-25T15:46:23Z</time></trkpt><trkpt lat="43.9546542987" lon="21.2602463644"><ele>198.38</ele><time>2026-08-25T15:46:29Z</time></trkpt><trkpt lat="43.9547282271" lon="21.2602735218"><ele>198.45</ele><time>2026-08-25T15:46:34Z</time></trkpt><trkpt lat="43.9549657702" lon="21.2603873480"><ele>199.44</ele><time>2026-08-25T15:46:54Z</time></trkpt><trkpt lat="43.9550635032" lon="21.2605053652"><ele>199.07</ele><time>2026-08-25T15:47:07Z</time></trkpt><trkpt lat="43.9551137108" lon="21.2605755217"><ele>198.25</ele><time>2026-08-25T15:47:28Z</time></trkpt><trkpt lat="43.9551618230" lon="21.2606021762"><ele>197.93</ele><time>2026-08-25T15:48:10Z</time></trkpt><trkpt lat="43.9552386850" lon="21.2606736738"><ele>196.30</ele><time>2026-08-25T15:48:27Z</time></trkpt><trkpt lat="43.9554269426" lon="21.2607895117"><ele>195.36</ele><time>2026-08-25T15:48:46Z</time></trkpt><trkpt lat="43.9554581232" lon="21.2607834768"><ele>195.25</ele><time>2026-08-25T15:48:49Z</time></trkpt><trkpt lat="43.9557009470" lon="21.2607075367"><ele>194.87</ele><time>2026-08-25T15:49:09Z</time></trkpt><trkpt lat="43.9558668248" lon="21.2606014218"><ele>194.73</ele><time>2026-08-25T15:49:24Z</time></trkpt><trkpt lat="43.9559989236" lon="21.2605482806"><ele>194.88</ele><time>2026-08-25T15:49:34Z</time></trkpt><trkpt lat="43.9561124146" lon="21.2604958098"><ele>194.59</ele><time>2026-08-25T15:49:44Z</time></trkpt><trkpt lat="43.9562350418" lon="21.2604849972"><ele>193.96</ele><time>2026-08-25T15:49:53Z</time></trkpt><trkpt lat="43.9562951401" lon="21.2604928762"><ele>193.53</ele><time>2026-08-25T15:49:57Z</time></trkpt><trkpt lat="43.9563379716" lon="21.2604839914"><ele>193.17</ele><time>2026-08-25T15:50:00Z</time></trkpt><trkpt lat="43.9564769436" lon="21.2605075445"><ele>191.85</ele><time>2026-08-25T15:50:12Z</time></trkpt><trkpt lat="43.9566165023" lon="21.2605498731"><ele>189.98</ele><time>2026-08-25T15:50:25Z</time></trkpt><trkpt lat="43.9567355253" lon="21.2606251426"><ele>188.74</ele><time>2026-08-25T15:50:35Z</time></trkpt><trkpt lat="43.9568716474" lon="21.2606862467"><ele>187.38</ele><time>2026-08-25T15:50:48Z</time></trkpt><trkpt lat="43.9568803646" lon="21.2606927007"><ele>187.37</ele><time>2026-08-25T15:50:49Z</time></trkpt><trkpt lat="43.9570243657" lon="21.2609006558"><ele>186.08</ele><time>2026-08-25T15:51:07Z</time></trkpt><trkpt lat="43.9570714720" lon="21.2609488517"><ele>185.76</ele><time>2026-08-25T15:51:13Z</time></trkpt><trkpt lat="43.9572329074" lon="21.2611155678"><ele>185.67</ele><time>2026-08-25T15:51:26Z</time></trkpt><trkpt lat="43.9573235158" lon="21.2612489238"><ele>184.64</ele><time>2026-08-25T15:51:38Z</time></trkpt><trkpt lat="43.9573547803" lon="21.2612749916"><ele>184.59</ele><time>2026-08-25T15:51:41Z</time></trkpt><trkpt lat="43.9574137889" lon="21.2613230199"><ele>184.19</ele><time>2026-08-25T15:51:46Z</time></trkpt><trkpt lat="43.9574843645" lon="21.2613806035"><ele>183.75</ele><time>2026-08-25T15:51:53Z</time></trkpt><trkpt lat="43.9575600531" lon="21.2615009677"><ele>183.00</ele><time>2026-08-25T15:52:04Z</time></trkpt><trkpt lat="43.9577024616" lon="21.2616302166"><ele>182.10</ele><time>2026-08-25T15:52:19Z</time></trkpt><trkpt lat="43.9578761347" lon="21.2618131936"><ele>180.39</ele><time>2026-08-25T15:52:38Z</time></trkpt><trkpt lat="43.9580705110" lon="21.2619709410"><ele>179.05</ele><time>2026-08-25T15:52:56Z</time></trkpt><trkpt lat="43.9581339620" lon="21.2620555982"><ele>178.67</ele><time>2026-08-25T15:53:05Z</time></trkpt><trkpt lat="43.9583048690" lon="21.2621519063"><ele>178.26</ele><time>2026-08-25T15:53:20Z</time></trkpt><trkpt lat="43.9583437610" lon="21.2621532474"><ele>178.09</ele><time>2026-08-25T15:53:24Z</time></trkpt><trkpt lat="43.9585065376" lon="21.2621687539"><ele>177.11</ele><time>2026-08-25T15:53:36Z</time></trkpt><trkpt lat="43.9585206192" lon="21.2621703465"><ele>176.96</ele><time>2026-08-25T15:53:37Z</time></trkpt><trkpt lat="43.9585745987" lon="21.2621599529"><ele>176.23</ele><time>2026-08-25T15:53:41Z</time></trkpt><trkpt lat="43.9586842339" lon="21.2621731963"><ele>174.78</ele><time>2026-08-25T15:53:50Z</time></trkpt><trkpt lat="43.9588318393" lon="21.2621991802"><ele>173.67</ele><time>2026-08-25T15:54:01Z</time></trkpt><trkpt lat="43.9588605054" lon="21.2621990964"><ele>173.26</ele><time>2026-08-25T15:54:03Z</time></trkpt><trkpt lat="43.9589929394" lon="21.2622283492"><ele>172.18</ele><time>2026-08-25T15:54:15Z</time></trkpt><trkpt lat="43.9591269661" lon="21.2622452807"><ele>170.77</ele><time>2026-08-25T15:54:29Z</time></trkpt><trkpt lat="43.9592477493" lon="21.2622713484"><ele>169.80</ele><time>2026-08-25T15:54:39Z</time></trkpt><trkpt lat="43.9593573008" lon="21.2622542493"><ele>169.06</ele><time>2026-08-25T15:54:48Z</time></trkpt><trkpt lat="43.9593957737" lon="21.2622535788"><ele>168.73</ele><time>2026-08-25T15:54:51Z</time></trkpt><trkpt lat="43.9594914112" lon="21.2622220628"><ele>167.87</ele><time>2026-08-25T15:54:58Z</time></trkpt><trkpt lat="43.9595225919" lon="21.2622292712"><ele>167.46</ele><time>2026-08-25T15:55:01Z</time></trkpt><trkpt lat="43.9596504997" lon="21.2622234877"><ele>165.79</ele><time>2026-08-25T15:55:12Z</time></trkpt><trkpt lat="43.9597628172" lon="21.2622749526"><ele>165.06</ele><time>2026-08-25T15:55:22Z</time></trkpt><trkpt lat="43.9598742966" lon="21.2622539978"><ele>164.39</ele><time>2026-08-25T15:55:34Z</time></trkpt><trkpt lat="43.9599618874" lon="21.2622716837"><ele>163.47</ele><time>2026-08-25T15:55:46Z</time></trkpt><trkpt lat="43.9600290265" lon="21.2622962426"><ele>162.93</ele><time>2026-08-25T15:55:53Z</time></trkpt><trkpt lat="43.9601253346" lon="21.2622949015"><ele>161.66</ele><time>2026-08-25T15:56:01Z</time></trkpt><trkpt lat="43.9601484686" lon="21.2622917164"><ele>161.35</ele><time>2026-08-25T15:56:03Z</time></trkpt><trkpt lat="43.9602669887" lon="21.2623087317"><ele>159.69</ele><time>2026-08-25T15:56:14Z</time></trkpt><trkpt lat="43.9602773823" lon="21.2623111624"><ele>159.70</ele><time>2026-08-25T15:56:15Z</time></trkpt><trkpt lat="43.9603442699" lon="21.2623016071"><ele>157.85</ele><time>2026-08-25T15:56:21Z</time></trkpt><trkpt lat="43.9603648894" lon="21.2622978352"><ele>158.05</ele><time>2026-08-25T15:56:23Z</time></trkpt><trkpt lat="43.9605251513" lon="21.2623084802"><ele>154.85</ele><time>2026-08-25T15:56:38Z</time></trkpt><trkpt lat="43.9606496226" lon="21.2623002660"><ele>151.72</ele><time>2026-08-25T15:56:52Z</time></trkpt><trkpt lat="43.9606873412" lon="21.2622869387"><ele>151.44</ele><time>2026-08-25T15:56:55Z</time></trkpt><trkpt lat="43.9607805479" lon="21.2622831669"><ele>149.98</ele><time>2026-08-25T15:57:03Z</time></trkpt><trkpt lat="43.9608321805" lon="21.2622739468"><ele>149.59</ele><time>2026-08-25T15:57:07Z</time></trkpt><trkpt lat="43.9608965535" lon="21.2622641400"><ele>149.06</ele><time>2026-08-25T15:57:12Z</time></trkpt><trkpt lat="43.9609814622" lon="21.2622631341"><ele>148.07</ele><time>2026-08-25T15:57:19Z</time></trkpt><trkpt lat="43.9610446617" lon="21.2622441910"><ele>147.45</ele><time>2026-08-25T15:57:25Z</time></trkpt><trkpt lat="43.9611232840" lon="21.2622309476"><ele>146.64</ele><time>2026-08-25T15:57:32Z</time></trkpt><trkpt lat="43.9612080250" lon="21.2622353900"><ele>146.14</ele><time>2026-08-25T15:57:46Z</time></trkpt><trkpt lat="43.9612167422" lon="21.2622326240"><ele>146.15</ele><time>2026-08-25T15:57:47Z</time></trkpt><trkpt lat="43.9613407943" lon="21.2622200511"><ele>144.89</ele><time>2026-08-25T15:57:59Z</time></trkpt><trkpt lat="43.9615082648" lon="21.2621927261"><ele>143.68</ele><time>2026-08-25T15:58:13Z</time></trkpt><trkpt lat="43.9615491685" lon="21.2621936481"><ele>143.33</ele><time>2026-08-25T15:58:16Z</time></trkpt><trkpt lat="43.9615691174" lon="21.2621939834"><ele>143.04</ele><time>2026-08-25T15:58:18Z</time></trkpt><trkpt lat="43.9616176486" lon="21.2621544208"><ele>142.31</ele><time>2026-08-25T15:58:25Z</time></trkpt><trkpt lat="43.9616379328" lon="21.2621492241"><ele>141.93</ele><time>2026-08-25T15:58:27Z</time></trkpt><trkpt lat="43.9616711251" lon="21.2621504813"><ele>141.95</ele><time>2026-08-25T15:58:29Z</time></trkpt><trkpt lat="43.9618530963" lon="21.2621224020"><ele>140.35</ele><time>2026-08-25T15:58:43Z</time></trkpt><trkpt lat="43.9619103447" lon="21.2621279340"><ele>140.10</ele><time>2026-08-25T15:58:48Z</time></trkpt><trkpt lat="43.9620490652" lon="21.2621562649"><ele>139.72</ele><time>2026-08-25T15:58:59Z</time></trkpt><trkpt lat="43.9621913061" lon="21.2621544208"><ele>139.28</ele><time>2026-08-25T15:59:12Z</time></trkpt><trkpt lat="43.9622255042" lon="21.2621666584"><ele>139.48</ele><time>2026-08-25T15:59:15Z</time></trkpt><trkpt lat="43.9622830041" lon="21.2621591147"><ele>139.13</ele><time>2026-08-25T15:59:20Z</time></trkpt><trkpt lat="43.9624518156" lon="21.2622051314"><ele>138.80</ele><time>2026-08-25T15:59:32Z</time></trkpt><trkpt lat="43.9625037834" lon="21.2622090708"><ele>138.12</ele><time>2026-08-25T15:59:36Z</time></trkpt><trkpt lat="43.9625404961" lon="21.2622157764"><ele>138.06</ele><time>2026-08-25T15:59:41Z</time></trkpt><trkpt lat="43.9625596069" lon="21.2622311991"><ele>138.01</ele><time>2026-08-25T15:59:46Z</time></trkpt><trkpt lat="43.9625898656" lon="21.2622516509"><ele>137.80</ele><time>2026-08-25T15:59:49Z</time></trkpt><trkpt lat="43.9627091400" lon="21.2623263337"><ele>137.20</ele><time>2026-08-25T15:59:59Z</time></trkpt><trkpt lat="43.9627604373" lon="21.2623795588"><ele>136.87</ele><time>2026-08-25T16:00:04Z</time></trkpt><trkpt lat="43.9628870040" lon="21.2625197880"><ele>136.75</ele><time>2026-08-25T16:00:15Z</time></trkpt><trkpt lat="43.9630110562" lon="21.2626708299"><ele>136.49</ele><time>2026-08-25T16:00:27Z</time></trkpt><trkpt lat="43.9631401375" lon="21.2627934571"><ele>136.11</ele><time>2026-08-25T16:00:38Z</time></trkpt><trkpt lat="43.9632304944" lon="21.2629197724"><ele>135.81</ele><time>2026-08-25T16:00:49Z</time></trkpt><trkpt lat="43.9632839710" lon="21.2629847322"><ele>135.73</ele><time>2026-08-25T16:00:55Z</time></trkpt><trkpt lat="43.9633963723" lon="21.2630957086"><ele>135.50</ele><time>2026-08-25T16:01:06Z</time></trkpt><trkpt lat="43.9635062590" lon="21.2632287294"><ele>135.33</ele><time>2026-08-25T16:01:19Z</time></trkpt><trkpt lat="43.9635148086" lon="21.2632361054"><ele>135.34</ele><time>2026-08-25T16:01:20Z</time></trkpt><trkpt lat="43.9635429718" lon="21.2632804457"><ele>135.37</ele><time>2026-08-25T16:01:24Z</time></trkpt><trkpt lat="43.9636536129" lon="21.2634143047"><ele>135.40</ele><time>2026-08-25T16:01:37Z</time></trkpt><trkpt lat="43.9637332410" lon="21.2634900771"><ele>135.36</ele><time>2026-08-25T16:01:44Z</time></trkpt><trkpt lat="43.9637531899" lon="21.2635106128"><ele>135.24</ele><time>2026-08-25T16:01:46Z</time></trkpt><trkpt lat="43.9638239332" lon="21.2635787576"><ele>135.24</ele><time>2026-08-25T16:01:53Z</time></trkpt><trkpt lat="43.9638821874" lon="21.2636231817"><ele>134.84</ele><time>2026-08-25T16:01:57Z</time></trkpt><trkpt lat="43.9639371727" lon="21.2636685278"><ele>135.19</ele><time>2026-08-25T16:02:01Z</time></trkpt><trkpt lat="43.9640353248" lon="21.2638006266"><ele>135.04</ele><time>2026-08-25T16:02:12Z</time></trkpt><trkpt lat="43.9641071577" lon="21.2638997845"><ele>134.93</ele><time>2026-08-25T16:02:20Z</time></trkpt><trkpt lat="43.9641837683" lon="21.2639849447"><ele>134.91</ele><time>2026-08-25T16:02:27Z</time></trkpt><trkpt lat="43.9642348979" lon="21.2640560232"><ele>135.06</ele><time>2026-08-25T16:02:32Z</time></trkpt><trkpt lat="43.9643505681" lon="21.2641949113"><ele>135.39</ele><time>2026-08-25T16:02:45Z</time></trkpt><trkpt lat="43.9644643106" lon="21.2642954942"><ele>135.44</ele><time>2026-08-25T16:02:55Z</time></trkpt><trkpt lat="43.9646552503" lon="21.2644841708"><ele>135.92</ele><time>2026-08-25T16:03:11Z</time></trkpt><trkpt lat="43.9646837488" lon="21.2645157706"><ele>135.78</ele><time>2026-08-25T16:03:14Z</time></trkpt><trkpt lat="43.9647668973" lon="21.2646274175"><ele>135.36</ele><time>2026-08-25T16:03:24Z</time></trkpt><trkpt lat="43.9649296738" lon="21.2647992466"><ele>135.21</ele><time>2026-08-25T16:03:38Z</time></trkpt><trkpt lat="43.9649737626" lon="21.2648367137"><ele>135.16</ele><time>2026-08-25T16:03:42Z</time></trkpt><trkpt lat="43.9650351182" lon="21.2649129890"><ele>135.27</ele><time>2026-08-25T16:03:48Z</time></trkpt><trkpt lat="43.9651247207" lon="21.2650795374"><ele>135.23</ele><time>2026-08-25T16:03:59Z</time></trkpt><trkpt lat="43.9652183466" lon="21.2652590778"><ele>135.35</ele><time>2026-08-25T16:04:11Z</time></trkpt><trkpt lat="43.9652600884" lon="21.2653234508"><ele>135.44</ele><time>2026-08-25T16:04:16Z</time></trkpt><trkpt lat="43.9652916882" lon="21.2653616723"><ele>135.50</ele><time>2026-08-25T16:04:19Z</time></trkpt><trkpt lat="43.9653391298" lon="21.2654624227"><ele>135.68</ele><time>2026-08-25T16:04:25Z</time></trkpt><trkpt lat="43.9653905947" lon="21.2655406259"><ele>136.07</ele><time>2026-08-25T16:04:32Z</time></trkpt><trkpt lat="43.9655367751" lon="21.2656984571"><ele>136.89</ele><time>2026-08-25T16:04:46Z</time></trkpt><trkpt lat="43.9655569755" lon="21.2657219265"><ele>136.77</ele><time>2026-08-25T16:04:48Z</time></trkpt><trkpt lat="43.9656119607" lon="21.2657498382"><ele>136.83</ele><time>2026-08-25T16:04:52Z</time></trkpt><trkpt lat="43.9657095261" lon="21.2658463977"><ele>136.80</ele><time>2026-08-25T16:04:59Z</time></trkpt><trkpt lat="43.9657257870" lon="21.2659181468"><ele>136.74</ele><time>2026-08-25T16:05:04Z</time></trkpt><trkpt lat="43.9657637570" lon="21.2660843600"><ele>136.64</ele><time>2026-08-25T16:05:20Z</time></trkpt><trkpt lat="43.9657653496" lon="21.2660975195"><ele>136.37</ele><time>2026-08-25T16:05:21Z</time></trkpt><trkpt lat="43.9656832907" lon="21.2662573624"><ele>136.86</ele><time>2026-08-25T16:05:37Z</time></trkpt></trkseg></trk></gpx>