{"type":"FeatureCollection","features":[{"type":"Feature","properties":{"stroke":"#0000FF","stroke-width":2},"geometry":{"type":"LineString","coordinates":[[21.2666550837,43.9653967135],[21.2666276749,43.9654286485],[21.2666329555,43.9654300734],[21.2666394096,43.9654387906],[21.2665915489,43.9654895011],[21.2665329594,43.9655165747],[21.2665441912,43.9655185025],[21.2665276788,43.9655563049],[21.2665211409,43.9655444026],[21.2665329594,43.9655395411],[21.2665307801,43.965540044],[21.2665106636,43.965549767],[21.2664851826,43.9655397926],[21.2664938997,43.9655787684],[21.2665863521,43.9654652774],[21.2667108234,43.9652931131],[21.266817525,43.9652251359],[21.2668605242,43.9651838131],[21.2669283338,43.9651294146],[21.267046351,43.96491291],[21.267070407,43.9648620319],[21.2671414018,43.964701267],[21.2671578303,43.9645853452],[21.2671730854,43.9645357244],[21.2671766896,43.9644830022],[21.2671926152,43.9643514063],[21.2672812119,43.9640776534],[21.267317757,43.9639134519],[21.2673229538,43.9638315607],[21.2673748378,43.963682279],[21.267438205,43.9635754935],[21.2675089482,43.9634294808],[21.2676713895,43.96324642],[21.2677010614,43.963257568],[21.26781472,43.9631114714],[21.2679192424,43.9629677217],[21.2680563703,43.9628279954],[21.2681447994,43.9626942202],[21.2681677658,43.9626457728],[21.2682188954,43.9625197928],[21.2683101743,43.9624213055],[21.268307073,43.9623704273],[21.2682767306,43.9623578545],[21.2680917419,43.9622151945],[21.2680826057,43.9622031245],[21.2679762393,43.9621131867],[21.2679482438,43.9620773122],[21.2678843737,43.9620294515],[21.2678098585,43.961975053],[21.2676518597,43.9619520027],[21.2674713973,43.9618268609],[21.2674500234,43.9618149586],[21.2673910148,43.9617882203],[21.2672407273,43.961736504],[21.2670200318,43.9617254399],[21.2666633818,43.9617419522],[21.2665980868,43.9617360011],[21.2665321212,43.9617336541],[21.2662821729,43.961716136],[21.2661193125,43.9615701232],[21.2660383433,43.9614030719],[21.266021328,43.9613555465],[21.2659223378,43.9612244535],[21.2657907419,43.9610944502],[21.2657785043,43.96108808],[21.2657173164,43.9610201865],[21.2655796017,43.9608886745],[21.265453957,43.9607700706],[21.2653920148,43.9607246406],[21.2652128097,43.9606139157],[21.264974596,43.9604622871],[21.2647940498,43.960260367],[21.2647644617,43.9601513185],[21.2648105621,43.9599364903],[21.2650050223,43.9597688522],[21.2652059365,43.9596116077],[21.2653251272,43.9594018925],[21.2653429806,43.9592661057],[21.2653453276,43.9592392836],[21.2653919309,43.9591166563],[21.2654084433,43.9590663649],[21.2654121313,43.9590231143],[21.2654525321,43.9588890877],[21.265466027,43.9587255567],[21.2654550467,43.9586667158],[21.2654346786,43.9586238004],[21.2654301524,43.9585822262],[21.265426632,43.958586501],[21.2654027436,43.9585894346],[21.2654042523,43.9585946314],[21.2653953675,43.9585935418],[21.2654014025,43.9585922845],[21.2654086947,43.9585422445],[21.2654215191,43.9584466908],[21.2654233631,43.9584580064],[21.2654371094,43.9584362134],[21.2654210161,43.9583973214],[21.2654422224,43.9582042862],[21.2654236984,43.9580377378],[21.2653676234,43.9578510728],[21.265262682,43.9577494841],[21.2650877517,43.957639765],[21.2649038527,43.9575083368],[21.2647318561,43.9573977794],[21.2645990029,43.9573462307],[21.264409069,43.9572738949],[21.2642034609,43.9571561292],[21.2640899699,43.9569901675],[21.2640332244,43.9569378644],[21.2639002874,43.956837533],[21.2638067454,43.9567189291],[21.2637228426,43.9565819688],[21.2637062464,43.9565168414],[21.2637077551,43.9564945456],[21.2636582181,43.9563295897],[21.2636505067,43.9563170169],[21.2635914981,43.9561839961],[21.2634750735,43.9560416713],[21.2634360977,43.9560259134],[21.2633422203,43.9560187049],[21.2630855665,43.9560207166],[21.2628414854,43.9560153522],[21.262756912,43.9560003486],[21.2626732606,43.9559545834],[21.2626199517,43.9559451956],[21.2624523975,43.9558868576],[21.2623650581,43.9558572695],[21.2621519901,43.9556887094],[21.2621360645,43.955531884],[21.2621767167,43.9553386811],[21.262153415,43.9551422093],[21.2621220667,43.95494272],[21.2620726973,43.954739375],[21.261938503,43.9545351919],[21.261917213,43.9544979762],[21.2618087512,43.9542833995],[21.2617453001,43.9541441761],[21.2617142871,43.9540468622],[21.2617026363,43.9540094789],[21.2616035622,43.953801943],[21.2615490798,43.9537140168],[21.2613778375,43.9535168745],[21.2613427173,43.9534850232],[21.2612619158,43.9533617254],[21.2612255383,43.9532782417],[21.261169631,43.9531448018],[21.2610781845,43.9530494995],[21.2609621789,43.9529419597],[21.2609393802,43.9529225137],[21.2608262245,43.9528661035],[21.2608007435,43.9528412931],[21.2607600074,43.9528159797],[21.2605502084,43.952775076],[21.2603844143,43.9527582284],[21.2603407446,43.9527514391],[21.2602150999,43.9527953602],[21.2601755373,43.9528043289],[21.2601428479,43.9528272115],[21.2600954901,43.9528552908],[21.260013096,43.9529674407],[21.2600142695,43.9531121124],[21.2600401696,43.9532306325],[21.2600560952,43.9533102605],[21.2600714341,43.953485107],[21.2601113319,43.9536428545],[21.2601166964,43.9537230693],[21.2601327058,43.9540211298],[21.2601375673,43.9540619496],[21.2601442728,43.9542423282],[21.260140501,43.9544301666],[21.2601597793,43.9544824697],[21.2602134235,43.9545984752],[21.2602463644,43.9546542987],[21.2602735218,43.9547282271],[21.260387348,43.9549657702],[21.2605053652,43.9550635032],[21.2605755217,43.9551137108],[21.2606021762,43.955161823],[21.2606736738,43.955238685],[21.2607895117,43.9554269426],[21.2607834768,43.9554581232],[21.2607075367,43.955700947],[21.2606014218,43.9558668248],[21.2605482806,43.9559989236],[21.2604958098,43.9561124146],[21.2604849972,43.9562350418],[21.2604928762,43.9562951401],[21.2604839914,43.9563379716],[21.2605075445,43.9564769436],[21.2605498731,43.9566165023],[21.2606251426,43.9567355253],[21.2606862467,43.9568716474],[21.2606927007,43.9568803646],[21.2609006558,43.9570243657],[21.2609488517,43.957071472],[21.2611155678,43.9572329074],[21.2612489238,43.9573235158],[21.2612749916,43.9573547803],[21.2613230199,43.9574137889],[21.2613806035,43.9574843645],[21.2615009677,43.9575600531],[21.2616302166,43.9577024616],[21.2618131936,43.9578761347],[21.261970941,43.958070511],[21.2620555982,43.958133962],[21.2621519063,43.958304869],[21.2621532474,43.958343761],[21.2621687539,43.9585065376],[21.2621703465,43.9585206192],[21.2621599529,43.9585745987],[21.2621731963,43.9586842339],[21.2621991802,43.9588318393],[21.2621990964,43.9588605054],[21.2622283492,43.9589929394],[21.2622452807,43.9591269661],[21.2622713484,43.9592477493],[21.2622542493,43.9593573008],[21.2622535788,43.9593957737],[21.2622220628,43.9594914112],[21.2622292712,43.9595225919],[21.2622234877,43.9596504997],[21.2622749526,43.9597628172],[21.2622539978,43.9598742966],[21.2622716837,43.9599618874],[21.2622962426,43.9600290265],[21.2622949015,43.9601253346],[21.2622917164,43.9601484686],[21.2623087317,43.9602669887],[21.2623111624,43.9602773823],[21.2623016071,43.9603442699],[21.2622978352,43.9603648894],[21.2623084802,43.9605251513],[21.262300266,43.9606496226],[21.2622869387,43.9606873412],[21.2622831669,43.9607805479],[21.2622739468,43.9608321805],[21.26226414,43.9608965535],[21.2622631341,43.9609814622],[21.262244191,43.9610446617],[21.2622309476,43.961123284],[21.26223539,43.961208025],[21.262232624,43.9612167422],[21.2622200511,43.9613407943],[21.2621927261,43.9615082648],[21.2621936481,43.9615491685],[21.2621939834,43.9615691174],[21.2621544208,43.9616176486],[21.2621492241,43.9616379328],[21.2621504813,43.9616711251],[21.262122402,43.9618530963],[21.262127934,43.9619103447],[21.2621562649,43.9620490652],[21.2621544208,43.9621913061],[21.2621666584,43.9622255042],[21.2621591147,43.9622830041],[21.2622051314,43.9624518156],[21.2622090708,43.9625037834],[21.2622157764,43.9625404961],[21.2622311991,43.9625596069],[21.2622516509,43.9625898656],[21.2623263337,43.96270914],[21.2623795588,43.9627604373],[21.262519788,43.962887004],[21.2626708299,43.9630110562],[21.2627934571,43.9631401375],[21.2629197724,43.9632304944],[21.2629847322,43.963283971],[21.2630957086,43.9633963723],[21.2632287294,43.963506259],[21.2632361054,43.9635148086],[21.2632804457,43.9635429718],[21.2634143047,43.9636536129],[21.2634900771,43.963733241],[21.2635106128,43.9637531899],[21.2635787576,43.9638239332],[21.2636231817,43.9638821874],[21.2636685278,43.9639371727],[21.2638006266,43.9640353248],[21.2638997845,43.9641071577],[21.2639849447,43.9641837683],[21.2640560232,43.9642348979],[21.2641949113,43.9643505681],[21.2642954942,43.9644643106],[21.2644841708,43.9646552503],[21.2645157706,43.9646837488],[21.2646274175,43.9647668973],[21.2647992466,43.9649296738],[21.2648367137,43.9649737626],[21.264912989,43.9650351182],[21.2650795374,43.9651247207],[21.2652590778,43.9652183466],[21.2653234508,43.9652600884],[21.2653616723,43.9652916882],[21.2654624227,43.9653391298],[21.2655406259,43.9653905947],[21.2656984571,43.9655367751],[21.2657219265,43.9655569755],[21.2657498382,43.9656119607],[21.2658463977,43.9657095261],[21.2659181468,43.965725787],[21.26608436,43.965763757],[21.2660975195,43.9657653496],[21.2662573624,43.9656832907]]}},{"type":"Feature","properties":{"timestamp":1787670653000,"name":"0"},"geometry":{"type":"Point","coordinates":[21.2666550837,43.9653967135]}},{"type":"Feature","properties":{"timestamp":1787671998000,"name":"1"},"geometry":{"type":"Point","coordinates":[21.265262682,43.9577494841]}},{"type":"Feature","properties":{"timestamp":1787673124000,"name":"2"},"geometry":{"type":"Point","coordinates":[21.2615009677,43.9575600531]}},{"type":"Feature","properties":{"timestamp":1787673920000,"name":"3"},"geometry":{"type":"Point","coordinates":[21.26608436,43.965763757]}}]}