{"type":"FeatureCollection",
 "properties":{},
 "features":
 [{"type":"Feature",
   "properties":{},
   "geometry":
   {"type":"LineString",
    "coordinates":
    [[19.9800234, 45.1552555], [19.9801582, 45.155309100000004],
     [19.980303000000003, 45.1553696],
     [19.980458600000002, 45.155432000000005]]}},
  {"type":"Feature",
   "properties":{},
   "geometry":
   {"type":"LineString",
    "coordinates":
    [[19.9874374, 45.1500038], [19.986075500000002, 45.1502106],
     [19.9859465, 45.150245600000005],
     [19.985826000000003, 45.150281500000006],
     [19.9854145, 45.1504696], [19.9852695, 45.1505444],
     [19.985206400000003, 45.1506191],
     [19.985072300000002, 45.1508442],
     [19.985033400000003, 45.1509232],
     [19.984942200000003, 45.1509823], [19.9848041, 45.1510589],
     [19.984703500000002, 45.15111], [19.984645800000003, 45.1511828],
     [19.9845721, 45.151318100000005], [19.984214, 45.151728600000006],
     [19.9840437, 45.1518893], [19.9837762, 45.1520329],
     [19.983742300000003, 45.1520511], [19.9836789, 45.1520851],
     [19.982470600000003, 45.152782200000004],
     [19.9820575, 45.153005400000005], [19.981631, 45.1532229],
     [19.9814057, 45.153366600000005],
     [19.981196500000003, 45.1534726], [19.980754, 45.1536806],
     [19.9806145, 45.153796], [19.980526, 45.153943600000005],
     [19.980498, 45.154009300000006],
     [19.980445500000002, 45.154132700000005],
     [19.9802712, 45.1544675], [19.9801907, 45.154609400000005],
     [19.9801183, 45.154732300000006], [19.9800834, 45.1548439],
     [19.980078000000002, 45.154983900000005],
     [19.9800736, 45.155067900000006],
     [19.980070700000002, 45.1551229], [19.9800234, 45.1552555]]}},
  {"type":"Feature",
   "properties":{},
   "geometry":
   {"type":"LineString",
    "coordinates":
    [[20.010331700000002, 45.150785500000005],
     [20.009827400000002, 45.1506775],
     [20.0094092, 45.150623100000004], [20.0089347, 45.1505487],
     [20.0083993, 45.1505086],
     [20.007787800000003, 45.150580500000004],
     [20.0070099, 45.150720500000006], [20.0063287, 45.1508188],
     [20.0059709, 45.1509024], [20.0054543, 45.1510231],
     [20.004559500000003, 45.151135100000005],
     [20.0028471, 45.1513107], [20.0027195, 45.1513642],
     [20.0022249, 45.151571700000005],
     [20.000708500000002, 45.152059200000004],
     [19.9999933, 45.1522224], [19.999253, 45.1523472],
     [19.9986414, 45.152388800000004], [19.9979297, 45.1523191],
     [19.9978154, 45.1523333], [19.9962489, 45.152048400000005],
     [19.9952164, 45.1518944],
     [19.994746900000003, 45.151844100000005],
     [19.9942184, 45.1518346], [19.9935292, 45.151726800000006],
     [19.992789900000002, 45.1514113], [19.9921516, 45.1510405],
     [19.9913512, 45.150807500000006], [19.9907392, 45.1506788],
     [19.990466100000003, 45.1505956],
     [19.989784800000002, 45.1502022],
     [19.988971600000003, 45.1500209], [19.9885275, 45.1500138],
     [19.9882533, 45.1501019], [19.987880500000003, 45.1501],
     [19.9874374, 45.1500038]]}},
  {"type":"Feature",
   "properties":{},
   "geometry":
   {"type":"LineString",
    "coordinates":
    [[20.0192468, 45.154583], [20.0189764, 45.154474500000006],
     [20.016482, 45.1536271], [20.016046900000003, 45.153493700000006],
     [20.0155089, 45.1533402], [20.015153, 45.153199900000004],
     [20.014795000000003, 45.1530253], [20.0122994, 45.1521028],
     [20.0121626, 45.152015500000005], [20.0117194, 45.1516335],
     [20.0113516, 45.1512303], [20.011176000000003, 45.1510855],
     [20.011027600000002, 45.1510041],
     [20.010637300000003, 45.1508861],
     [20.010331700000002, 45.150785500000005]]}},
  {"type":"Feature",
   "properties":{},
   "geometry":
   {"type":"LineString",
    "coordinates":
    [[20.018205000000002, 45.1560475], [20.0192468, 45.154583]]}},
  {"type":"Feature",
   "properties":{},
   "geometry":
   {"type":"LineString",
    "coordinates":
    [[20.018205000000002, 45.1560475],
     [20.019278500000002, 45.1572984],
     [20.019385500000002, 45.157370900000004],
     [20.0195559, 45.157453600000004],
     [20.0197499, 45.157530200000004],
     [20.019962900000003, 45.157582100000006],
     [20.020169000000003, 45.1575986],
     [20.020879800000003, 45.157597800000005],
     [20.0213252, 45.1575939],
     [20.021637000000002, 45.157574100000005],
     [20.0218887, 45.1575417], [20.0230357, 45.1572394]]}},
  {"type":"Feature",
   "properties":{},
   "geometry":
   {"type":"LineString",
    "coordinates":
    [[20.022807800000002, 45.161295700000004],
     [20.022814, 45.161081700000004], [20.0228416, 45.1608845],
     [20.022880200000003, 45.160399500000004],
     [20.0231421, 45.159751500000006], [20.0232283, 45.1594676],
     [20.0233321, 45.159198], [20.023377200000002, 45.1587982],
     [20.0233133, 45.1585424], [20.0233141, 45.1584519],
     [20.023364700000002, 45.158370100000006],
     [20.023572400000003, 45.158229000000006],
     [20.0236257, 45.158116400000004],
     [20.0236218, 45.157938800000004],
     [20.0236075, 45.157864700000005], [20.0235527, 45.1577915],
     [20.023418900000003, 45.157696400000006],
     [20.0232268, 45.1574966], [20.0230357, 45.1572394]]}},
  {"type":"Feature",
   "properties":{},
   "geometry":
   {"type":"LineString",
    "coordinates":
    [[20.0230089, 45.161607000000004],
     [20.0229298, 45.161526800000004],
     [20.022807800000002, 45.161295700000004]]}},
  {"type":"Feature",
   "properties":{},
   "geometry":
   {"type":"LineString",
    "coordinates":
    [[20.0213049, 45.165857700000004], [20.0216013, 45.1657226],
     [20.0219688, 45.1656338], [20.0221504, 45.165529400000004],
     [20.0223915, 45.165367800000006], [20.0224529, 45.1653267],
     [20.0225954, 45.1649497], [20.0226657, 45.1647388],
     [20.0226107, 45.1644659], [20.0226478, 45.1640998],
     [20.022761300000003, 45.163639], [20.022855500000002, 45.1630893],
     [20.0230754, 45.1625603], [20.0230107, 45.1618214],
     [20.0230089, 45.161607000000004]]}},
  {"type":"Feature",
   "properties":{},
   "geometry":
   {"type":"LineString",
    "coordinates":
    [[20.020129500000003, 45.165720900000004],
     [20.0205667, 45.1657444], [20.0208288, 45.165711300000005],
     [20.0209675, 45.165761100000005],
     [20.0210459, 45.165800700000005],
     [20.0211668, 45.165817800000006],
     [20.0213049, 45.165857700000004]]}},
  {"type":"Feature",
   "properties":{},
   "geometry":
   {"type":"LineString",
    "coordinates":
    [[20.020129500000003, 45.165720900000004],
     [20.0205667, 45.1657444], [20.0208288, 45.165711300000005],
     [20.0209675, 45.165761100000005],
     [20.0210459, 45.165800700000005],
     [20.0211668, 45.165817800000006],
     [20.0213049, 45.165857700000004]]}},
  {"type":"Feature",
   "properties":{},
   "geometry":
   {"type":"LineString",
    "coordinates":
    [[20.0213049, 45.165857700000004],
     [20.021399900000002, 45.1659093]]}},
  {"type":"Feature",
   "properties":{},
   "geometry":
   {"type":"LineString",
    "coordinates":
    [[20.021399900000002, 45.1659093],
     [20.021586900000003, 45.166169100000005]]}},
  {"type":"Feature",
   "properties":{},
   "geometry":
   {"type":"LineString",
    "coordinates":
    [[20.021586900000003, 45.166169100000005],
     [20.0216885, 45.1662332], [20.0219527, 45.1663155],
     [20.0220412, 45.1664034], [20.022029800000002, 45.1664795]]}},
  {"type":"Feature",
   "properties":{},
   "geometry":
   {"type":"LineString",
    "coordinates":
    [[20.022029800000002, 45.1664795], [20.0219366, 45.1665311],
     [20.021789100000003, 45.1665812],
     [20.021700600000003, 45.1666323],
     [20.0216563, 45.166704100000004], [20.0216576, 45.1667788],
     [20.021684500000003, 45.1668535],
     [20.0217193, 45.166973600000006],
     [20.0217341, 45.167094600000006],
     [20.021716700000002, 45.1671816], [20.0216791, 45.1672913],
     [20.021612700000002, 45.167405200000005]]}},
  {"type":"Feature",
   "properties":{},
   "geometry":
   {"type":"LineString",
    "coordinates":
    [[20.021612700000002, 45.167405200000005],
     [20.0219768, 45.167264800000005], [20.0222021, 45.1670218],
     [20.0227788, 45.166639800000006],
     [20.023181100000002, 45.166506500000004],
     [20.0244378, 45.166457300000005], [20.0244737, 45.1664186],
     [20.0245912, 45.166172100000004],
     [20.024588400000003, 45.1658696],
     [20.0247199, 45.165606700000005],
     [20.024878100000002, 45.1654119], [20.0250334, 45.1652712],
     [20.0252357, 45.165314200000005],
     [20.025512000000003, 45.165246100000005],
     [20.025661300000003, 45.165141500000004],
     [20.025906300000003, 45.1650172], [20.0261342, 45.1649624],
     [20.0263703, 45.164833800000004],
     [20.0265714, 45.164697600000004],
     [20.0267029, 45.164646600000005], [20.0269389, 45.1646409],
     [20.027329700000003, 45.164494700000006],
     [20.0274834, 45.164389400000005],
     [20.027644300000002, 45.1643686], [20.0277865, 45.1643005],
     [20.027867, 45.164101900000006],
     [20.028084200000002, 45.163999800000006],
     [20.028213, 45.163878800000006], [20.028263900000002, 45.1636613],
     [20.028432900000002, 45.163551600000005],
     [20.028655500000003, 45.163544],
     [20.029082000000002, 45.163449500000006],
     [20.0294816, 45.163432500000006],
     [20.029886700000002, 45.163513800000004],
     [20.0302595, 45.163634800000004],
     [20.030399000000003, 45.163634800000004],
     [20.0309193, 45.1635043], [20.0310883, 45.1634381],
     [20.0314987, 45.163207400000005],
     [20.0318018, 45.163209300000005], [20.0320807, 45.163232],
     [20.0323248, 45.163209300000005],
     [20.032619800000003, 45.163090100000005],
     [20.032831700000003, 45.163084500000004],
     [20.03299, 45.163035300000004], [20.0331885, 45.163022100000006],
     [20.033617600000003, 45.1628878],
     [20.033896600000002, 45.1628764], [20.0340709, 45.1629275],
     [20.034229200000002, 45.1628916],
     [20.0344115, 45.162935100000006], [20.0347656, 45.1629445],
     [20.0352323, 45.163022100000006],
     [20.035768700000002, 45.1630145], [20.0361979, 45.1628443],
     [20.036627000000003, 45.162832900000005],
     [20.036997200000002, 45.162931300000004],
     [20.0372592, 45.162936300000005], [20.0377742, 45.162838],
     [20.038310600000003, 45.162830400000004],
     [20.0386078, 45.1629202]]}},
  {"type":"Feature",
   "properties":{},
   "geometry":
   {"type":"LineString",
    "coordinates":
    [[20.0229079, 45.1680038], [20.023240100000002, 45.1678444],
     [20.023466000000003, 45.1678403], [20.023626, 45.1677459],
     [20.023746300000003, 45.167623000000006],
     [20.0237903, 45.1674457], [20.0238988, 45.1673051],
     [20.0239429, 45.1671618], [20.024042100000003, 45.1671088],
     [20.024516900000002, 45.1670086],
     [20.025061400000002, 45.166931000000005],
     [20.0251901, 45.1667609],
     [20.025534200000003, 45.166624000000006],
     [20.025616600000003, 45.166532000000004],
     [20.025858, 45.166637900000005], [20.0261664, 45.1667003],
     [20.0266814, 45.1666417], [20.0271428, 45.166533900000005],
     [20.0276417, 45.166290000000004],
     [20.028231700000003, 45.1661141],
     [20.028478500000002, 45.165966600000004],
     [20.028888900000002, 45.1656697],
     [20.0293479, 45.165428000000006],
     [20.029961800000002, 45.165403000000005],
     [20.0302809, 45.1652688], [20.0305572, 45.165244200000004],
     [20.0311553, 45.164939700000005],
     [20.031442300000002, 45.1648489],
     [20.0316784, 45.164837600000006],
     [20.032078000000002, 45.1649151],
     [20.032466900000003, 45.1648943],
     [20.033427200000002, 45.1648773], [20.0338295, 45.1649113],
     [20.034076300000002, 45.1648924],
     [20.034379400000002, 45.1648149],
     [20.034634200000003, 45.164682500000005],
     [20.0348192, 45.164527400000004], [20.0351813, 45.1643686],
     [20.03553, 45.1642778], [20.0358734, 45.164255100000005],
     [20.0361818, 45.1642986], [20.036399300000003, 45.1643631],
     [20.036557300000002, 45.164185100000005], [20.036733, 45.1640528],
     [20.0368953, 45.1640036], [20.0371044, 45.1639988],
     [20.037488, 45.164049000000006], [20.037750900000002, 45.1639658],
     [20.037995000000002, 45.163806900000004],
     [20.038311500000002, 45.1637142],
     [20.038810400000003, 45.1635062], [20.0391322, 45.163527],
     [20.039342400000002, 45.1634784],
     [20.039163000000002, 45.163294900000004],
     [20.0388658, 45.163048800000006], [20.0386078, 45.1629202]]}},
  {"type":"Feature",
   "properties":{},
   "geometry":
   {"type":"LineString",
    "coordinates":
    [[20.0213921, 45.1680714], [20.021600000000003, 45.1681035],
     [20.0217877, 45.168136000000004],
     [20.0219594, 45.168121500000005], [20.0221489, 45.1681654],
     [20.022440800000002, 45.168148900000006],
     [20.0227922, 45.1680657], [20.0229079, 45.1680038]]}},
  {"type":"Feature",
   "properties":{},
   "geometry":
   {"type":"LineString",
    "coordinates":
    [[20.0212903, 45.1686734], [20.0212982, 45.1685687],
     [20.021247300000002, 45.168404200000005],
     [20.021228500000003, 45.1682756],
     [20.021228500000003, 45.1681924],
     [20.021278000000002, 45.1680745], [20.0213921, 45.1680714]]}},
  {"type":"Feature",
   "properties":{},
   "geometry":
   {"type":"LineString",
    "coordinates":
    [[20.0212903, 45.1686734], [20.021201700000002, 45.1686916],
     [20.020688, 45.1688363], [20.0203715, 45.168843800000005],
     [20.0197653, 45.1689942], [20.0191778, 45.169139300000005]]}},
  {"type":"Feature",
   "properties":{},
   "geometry":
   {"type":"LineString",
    "coordinates":
    [[20.0191778, 45.169139300000005],
     [20.0187573, 45.169230000000006], [20.0186053, 45.1692277]]}},
  {"type":"Feature",
   "properties":{},
   "geometry":
   {"type":"LineString",
    "coordinates":
    [[20.0186053, 45.1692277], [20.0184207, 45.169178900000006],
     [20.0178529, 45.1691658]]}},
  {"type":"Feature",
   "properties":{},
   "geometry":
   {"type":"LineString",
    "coordinates":
    [[20.0178529, 45.1691658], [20.0174358, 45.169296700000004],
     [20.0171207, 45.1693638], [20.0169222, 45.1694272],
     [20.016754600000002, 45.169489600000006],
     [20.016607, 45.169518000000004],
     [20.016416600000003, 45.169518000000004],
     [20.016239600000002, 45.1695312],
     [20.016070600000003, 45.169519900000004],
     [20.015949900000003, 45.169518000000004],
     [20.015803700000003, 45.169527],
     [20.015620000000002, 45.169549200000006]]}},
  {"type":"Feature",
   "properties":{},
   "geometry":
   {"type":"LineString",
    "coordinates":
    [[20.012822200000002, 45.1699965],
     [20.012972700000002, 45.1699737],
     [20.0135195, 45.169954700000005], [20.0139518, 45.1698838],
     [20.014304600000003, 45.1698704], [20.0146617, 45.1699446],
     [20.0149383, 45.1699296], [20.0150943, 45.1699094],
     [20.0151989, 45.1698546], [20.0153062, 45.169811100000004],
     [20.0154161, 45.169796000000005],
     [20.0155663, 45.169727900000005], [20.0156072, 45.1696291],
     [20.015620000000002, 45.169549200000006]]}},
  {"type":"Feature",
   "properties":{},
   "geometry":
   {"type":"LineString",
    "coordinates":
    [[20.012822200000002, 45.1699965],
     [20.012813700000002, 45.169793000000006],
     [20.012696400000003, 45.1694631],
     [20.012548900000002, 45.1692608],
     [20.012323600000002, 45.1690849],
     [20.012185900000002, 45.1687742],
     [20.012027200000002, 45.1685299]]}},
  {"type":"Feature",
   "properties":{},
   "geometry":
   {"type":"LineString",
    "coordinates":
    [[20.010485600000003, 45.1677854],
     [20.010505000000002, 45.167824100000004],
     [20.0105942, 45.1679333], [20.0106706, 45.168055300000006],
     [20.0107028, 45.168119600000004],
     [20.010785300000002, 45.1682288],
     [20.010848300000003, 45.168291700000005],
     [20.010893300000003, 45.1683394], [20.010961, 45.168390900000006],
     [20.0110804, 45.1684392], [20.011179600000002, 45.1684666],
     [20.011359300000002, 45.1684902],
     [20.011496100000002, 45.1685053], [20.0116537, 45.168512],
     [20.0118931, 45.1685242], [20.012027200000002, 45.1685299]]}},
  {"type":"Feature",
   "properties":{},
   "geometry":
   {"type":"LineString",
    "coordinates":
    [[20.008537500000003, 45.1681861],
     [20.008734800000003, 45.168159300000006], [20.009007, 45.1680884],
     [20.0091492, 45.1680402], [20.0093785, 45.1679532],
     [20.0095019, 45.1679078], [20.0095837, 45.167887],
     [20.0096856, 45.1678785], [20.0098103, 45.1678851],
     [20.009973900000002, 45.167911600000004],
     [20.0100745, 45.1679144], [20.010157600000003, 45.1679107],
     [20.010293100000002, 45.167870900000004],
     [20.010485600000003, 45.1677854]]}},
  {"type":"Feature",
   "properties":{},
   "geometry":
   {"type":"LineString",
    "coordinates":
    [[20.008537500000003, 45.1681861],
     [20.008281800000002, 45.168231000000006],
     [20.007979900000002, 45.1683097],
     [20.007864400000003, 45.1683681],
     [20.0077223, 45.168477800000005], [20.0076006, 45.1685875],
     [20.007512300000002, 45.1686649],
     [20.0074183, 45.168706900000004],
     [20.007101300000002, 45.1688192], [20.0068901, 45.1688981],
     [20.0067445, 45.1689736], [20.006638600000002, 45.1690477],
     [20.0065496, 45.1690788], [20.0064651, 45.1690953],
     [20.0063637, 45.169084500000004],
     [20.006179500000002, 45.169115000000005],
     [20.0060453, 45.1691925], [20.0059468, 45.169210500000005],
     [20.0058097, 45.169221400000005],
     [20.005653600000002, 45.1692021], [20.0055148, 45.1691519],
     [20.0054783, 45.169117400000005], [20.005445, 45.169065100000005],
     [20.005390000000002, 45.16904], [20.0052814, 45.169016400000004],
     [20.0051875, 45.169007900000004], [20.0050943, 45.1690136],
     [20.004925, 45.1690509], [20.004796300000002, 45.1691608],
     [20.0046386, 45.169259600000004], [20.004411, 45.1693705],
     [20.0042037, 45.1694298],
     [20.003931400000003, 45.169446900000004], [20.0036641, 45.169476],
     [20.002983, 45.1694912], [20.002729600000002, 45.1694582],
     [20.002583100000003, 45.1694395],
     [20.002458400000002, 45.1694593], [20.0022407, 45.1695106],
     [20.0016538, 45.1695951], [20.0010982, 45.169618400000004],
     [20.000326, 45.169659800000005], [19.9997732, 45.169703500000004],
     [19.999463300000002, 45.1696572],
     [19.999113700000002, 45.1696277], [19.9985316, 45.1697241],
     [19.9981236, 45.1698018], [19.997659600000002, 45.169902],
     [19.9975607, 45.169935900000006],
     [19.997415500000002, 45.170032500000005],
     [19.9972706, 45.170119500000006], [19.9968687, 45.1702025],
     [19.9964982, 45.1703502], [19.9960148, 45.1705406],
     [19.995643100000002, 45.1707526], [19.9954724, 45.1708969],
     [19.995425, 45.1709302], [19.9949237, 45.1712762],
     [19.9945153, 45.1715494],
     [19.994355900000002, 45.171614500000004]]}},
  {"type":"Feature",
   "properties":{},
   "geometry":
   {"type":"LineString",
    "coordinates":
    [[19.989611500000002, 45.1694049], [19.9905216, 45.1693167],
     [19.991182900000002, 45.169243400000006],
     [19.9917868, 45.169087000000005], [19.9918862, 45.1690923],
     [19.992139, 45.1691787], [19.9928431, 45.1696064],
     [19.993355400000002, 45.169979700000006],
     [19.9939272, 45.1707344], [19.994249500000002, 45.1713383],
     [19.994355900000002, 45.171614500000004]]}},
  {"type":"Feature",
   "properties":{},
   "geometry":
   {"type":"LineString",
    "coordinates":
    [[19.989611500000002, 45.1694049], [19.9895695, 45.1692016],
     [19.989521200000002, 45.1690163],
     [19.9895244, 45.168945400000005]]}},
  {"type":"Feature",
   "properties":{},
   "geometry":
   {"type":"LineString",
    "coordinates":
    [[19.9895244, 45.168945400000005], [19.9895266, 45.1688952],
     [19.989945000000002, 45.1688461],
     [19.990170300000003, 45.168781800000005],
     [19.9904815, 45.168562400000006],
     [19.990824800000002, 45.168422500000005],
     [19.991125200000003, 45.1683317],
     [19.991506100000002, 45.1681407], [19.991785, 45.1679894],
     [19.991956700000003, 45.1677625],
     [19.9922356, 45.167754900000006],
     [19.9925682, 45.167823000000006],
     [19.9929223, 45.167633900000006],
     [19.9930208, 45.167514000000004]]}},
  {"type":"Feature",
   "properties":{},
   "geometry":
   {"type":"LineString",
    "coordinates":
    [[19.9930208, 45.167514000000004],
     [19.9929668, 45.167315300000006], [19.9927078, 45.166899],
     [19.992621800000002, 45.166780800000005],
     [19.9925497, 45.1666724], [19.992477100000002, 45.166567],
     [19.9924505, 45.1665251]]}},
  {"type":"Feature",
   "properties":{},
   "geometry":
   {"type":"LineString",
    "coordinates":
    [[19.990895700000003, 45.1646725], [19.9912744, 45.1648963],
     [19.991569000000002, 45.1653864], [19.992071900000003, 45.166003],
     [19.9924505, 45.1665251]]}},
  {"type":"Feature",
   "properties":{},
   "geometry":
   {"type":"LineString",
    "coordinates":
    [[19.990895700000003, 45.1646725],
     [19.990828500000003, 45.164669200000006],
     [19.989738900000003, 45.1643144],
     [19.989334500000002, 45.1641105], [19.9882902, 45.1635908],
     [19.9875434, 45.1630856], [19.9865296, 45.1625686],
     [19.9860632, 45.1622969], [19.9857963, 45.1621802],
     [19.9851542, 45.1619967], [19.9846337, 45.1618823],
     [19.9844377, 45.1618323]]}},
  {"type":"Feature",
   "properties":{},
   "geometry":
   {"type":"LineString",
    "coordinates":
    [[19.9844377, 45.1618323], [19.984235, 45.1617036],
     [19.9841336, 45.1615344], [19.9841404, 45.1614343],
     [19.984214700000003, 45.1613557],
     [19.984654000000003, 45.1611436],
     [19.984714500000003, 45.161082300000004], [19.9847448, 45.160983],
     [19.984522600000002, 45.1606302]]}},
  {"type":"Feature",
   "properties":{},
   "geometry":
   {"type":"LineString",
    "coordinates":
    [[19.9819764, 45.160908400000004],
     [19.984207400000003, 45.160604600000006],
     [19.984522600000002, 45.1606302]]}},
  {"type":"Feature",
   "properties":{},
   "geometry":
   {"type":"LineString",
    "coordinates":
    [[19.9819764, 45.160908400000004],
     [19.9821166, 45.160654300000004],
     [19.982595800000002, 45.1599719],
     [19.9830907, 45.159331400000006]]}},
  {"type":"Feature",
   "properties":{},
   "geometry":
   {"type":"LineString",
    "coordinates":
    [[19.9830907, 45.159331400000006],
     [19.9828881, 45.159255900000005],
     [19.982641400000002, 45.159165200000004],
     [19.9823892, 45.1590744],
     [19.982126400000002, 45.158979800000004],
     [19.981960100000002, 45.158892800000004],
     [19.981718700000002, 45.158794500000006],
     [19.9814183, 45.1587188], [19.981155400000002, 45.1586091],
     [19.9808175, 45.1584956],
     [19.980565300000002, 45.158385900000006],
     [19.9805439, 45.158193000000004],
     [19.9806458, 45.157988700000004],
     [19.980731600000002, 45.157803400000006],
     [19.9807048, 45.1576067], [19.9808121, 45.157307800000005],
     [19.9807209, 45.157156500000006], [19.9806673, 45.1570279],
     [19.9807692, 45.156808500000004],
     [19.9808282, 45.156623100000004],
     [19.9803186, 45.156468100000005]]}},
  {"type":"Feature",
   "properties":{},
   "geometry":
   {"type":"LineString",
    "coordinates":
    [[19.9803186, 45.156468100000005], [19.9803937, 45.1562903],
     [19.9805117, 45.156021700000004], [19.980619, 45.1558098],
     [19.9807424, 45.155613100000004],
     [19.9807424, 45.155514800000006],
     [19.980458600000002, 45.155432000000005]]}}]}
