{"type":"FeatureCollection",
 "properties":{},
 "features":
 [{"type":"Feature",
   "properties":{},
   "geometry":
   {"type":"LineString",
    "coordinates":
    [[19.8934725, 45.191249600000006], [19.8934864, 45.1911471]]}},
  {"type":"Feature",
   "properties":{},
   "geometry":
   {"type":"LineString",
    "coordinates":
    [[19.8934864, 45.1911471], [19.8934223, 45.191066600000006],
     [19.8933581, 45.190963], [19.8932425, 45.190811800000006],
     [19.893076500000003, 45.1906668],
     [19.892861500000002, 45.190513100000004],
     [19.892739900000002, 45.190431700000005],
     [19.892419800000003, 45.1902879], [19.892243, 45.1902015],
     [19.891838800000002, 45.190056500000004],
     [19.8916325, 45.1899789],
     [19.891478000000003, 45.189931900000005],
     [19.8911821, 45.189850500000006], [19.890998, 45.1898124],
     [19.890796, 45.189809800000006], [19.8905506, 45.189822500000005],
     [19.8903708, 45.189837700000005]]}},
  {"type":"Feature",
   "properties":{},
   "geometry":
   {"type":"LineString",
    "coordinates":
    [[19.890198400000003, 45.1887847],
     [19.8902968, 45.188997300000004],
     [19.890330000000002, 45.1891289], [19.8903445, 45.1892605],
     [19.890385300000002, 45.1896057],
     [19.8903708, 45.189837700000005]]}},
  {"type":"Feature",
   "properties":{},
   "geometry":
   {"type":"LineString",
    "coordinates":
    [[19.884586000000002, 45.187749700000005],
     [19.8851061, 45.188149100000004], [19.8852751, 45.1882436],
     [19.885769800000002, 45.188382600000004],
     [19.8863999, 45.1884883], [19.8870906, 45.1885745],
     [19.8874439, 45.1886147], [19.8880227, 45.1886832],
     [19.888575000000003, 45.1887078], [19.8888903, 45.1887218],
     [19.888940700000003, 45.1887241], [19.8894054, 45.1887448],
     [19.8894819, 45.1887391], [19.8895492, 45.188726800000005],
     [19.8896537, 45.188699], [19.889854500000002, 45.1886604],
     [19.8899012, 45.1886663], [19.889957300000003, 45.1886759],
     [19.8900596, 45.188712100000004],
     [19.890198400000003, 45.1887847]]}},
  {"type":"Feature",
   "properties":{},
   "geometry":
   {"type":"LineString",
    "coordinates":
    [[19.8843345, 45.187514],
     [19.884586000000002, 45.187749700000005]]}},
  {"type":"Feature",
   "properties":{},
   "geometry":
   {"type":"LineString",
    "coordinates":
    [[19.882337200000002, 45.186396], [19.882943100000002, 45.1865649],
     [19.8835471, 45.186877800000005], [19.8843345, 45.187514]]}},
  {"type":"Feature",
   "properties":{},
   "geometry":
   {"type":"LineString",
    "coordinates":
    [[19.878685400000002, 45.1836093],
     [19.879777400000002, 45.1847389], [19.8799375, 45.1850262],
     [19.880514, 45.185339400000004],
     [19.880610100000002, 45.185439200000005],
     [19.8806797, 45.1856719], [19.8808049, 45.1858208],
     [19.880890400000002, 45.1858729], [19.8815022, 45.1860931],
     [19.882337200000002, 45.186396]]}},
  {"type":"Feature",
   "properties":{},
   "geometry":
   {"type":"LineString",
    "coordinates":
    [[19.878685400000002, 45.1836093],
     [19.878423100000003, 45.1833601], [19.8784251, 45.1832476]]}},
  {"type":"Feature",
   "properties":{},
   "geometry":
   {"type":"LineString",
    "coordinates":
    [[19.8784251, 45.1832476], [19.8784917, 45.183012700000006],
     [19.878506, 45.182659900000004]]}},
  {"type":"Feature",
   "properties":{},
   "geometry":
   {"type":"LineString",
    "coordinates":
    [[19.8756033, 45.1788644], [19.8756489, 45.179030700000006],
     [19.875844800000003, 45.179223], [19.876003, 45.1793465],
     [19.876142400000003, 45.1793654],
     [19.876389200000002, 45.179480700000006],
     [19.8764718, 45.1795509], [19.8765179, 45.179698200000004],
     [19.8766184, 45.1798], [19.876721800000002, 45.1799326],
     [19.876901500000002, 45.1801065],
     [19.877019500000003, 45.1802408],
     [19.877110700000003, 45.1805092],
     [19.877177800000002, 45.1806435],
     [19.877277000000003, 45.180755000000005],
     [19.8774769, 45.1808654], [19.8776611, 45.1809281],
     [19.877738400000002, 45.1809932],
     [19.877769100000002, 45.1810649],
     [19.8778055, 45.181216400000004],
     [19.877799600000003, 45.181391500000004],
     [19.877843000000002, 45.1815755], [19.8779422, 45.1818138],
     [19.8779985, 45.1820274], [19.8781541, 45.1822108],
     [19.8782244, 45.1823969], [19.878307500000002, 45.182493],
     [19.8784309, 45.182568700000004],
     [19.878506, 45.182659900000004]]}},
  {"type":"Feature",
   "properties":{},
   "geometry":
   {"type":"LineString",
    "coordinates":
    [[19.8756033, 45.1788644], [19.8752439, 45.178906000000005],
     [19.8749837, 45.1789646], [19.8748282, 45.179113900000004],
     [19.8748147, 45.1792217], [19.8749515, 45.1793994],
     [19.8750508, 45.1795318], [19.87515, 45.179611200000004],
     [19.875222400000002, 45.1796717],
     [19.8752761, 45.179739700000006],
     [19.875313600000002, 45.179853200000004],
     [19.8752949, 45.179996900000006], [19.8752332, 45.1801217],
     [19.875131200000002, 45.180201100000005],
     [19.875032, 45.180218100000005], [19.8749435, 45.1801784],
     [19.874797100000002, 45.180082600000006],
     [19.8746699, 45.179962800000006],
     [19.8744285, 45.179821000000004], [19.8742783, 45.1797605],
     [19.8735809, 45.179284100000004], [19.873257000000002, 45.178986],
     [19.873021, 45.1788025], [19.8727346, 45.1786662],
     [19.8724372, 45.1786557], [19.8722305, 45.178633600000005],
     [19.8719872, 45.178512600000005], [19.8717381, 45.1783331],
     [19.871668500000002, 45.1781894], [19.8716632, 45.1780344],
     [19.871668500000002, 45.1779323],
     [19.871545100000002, 45.1778415],
     [19.871166900000002, 45.177663800000005],
     [19.870775300000002, 45.1774993], [19.870711, 45.177421800000005],
     [19.8707244, 45.177336700000005], [19.8708156, 45.1772762],
     [19.8709658, 45.1772365], [19.8711804, 45.1771751]]}},
  {"type":"Feature",
   "properties":{},
   "geometry":
   {"type":"LineString",
    "coordinates":
    [[19.8711804, 45.1771751], [19.8713011, 45.1771041],
     [19.8713708, 45.177043600000005],
     [19.871394900000002, 45.176960400000006],
     [19.871365400000002, 45.176915],
     [19.8712689, 45.176850800000004]]}},
  {"type":"Feature",
   "properties":{},
   "geometry":
   {"type":"LineString",
    "coordinates":
    [[19.8712689, 45.176850800000004], [19.8711589, 45.1767222],
     [19.8710275, 45.176535], [19.8709738, 45.1764329],
     [19.870928900000003, 45.1761497]]}},
  {"type":"Feature",
   "properties":{},
   "geometry":
   {"type":"LineString",
    "coordinates":
    [[19.870928900000003, 45.1761497],
     [19.8709312, 45.176127300000005],
     [19.8708905, 45.175989900000005],
     [19.8708703, 45.175862900000006],
     [19.871002100000002, 45.175731000000006],
     [19.871250500000002, 45.1756575],
     [19.8715024, 45.175550900000005],
     [19.871653600000002, 45.1754139]]}},
  {"type":"Feature",
   "properties":{},
   "geometry":
   {"type":"LineString",
    "coordinates":
    [[19.870928900000003, 45.1761497],
     [19.8709312, 45.176127300000005],
     [19.8708905, 45.175989900000005],
     [19.8708703, 45.175862900000006],
     [19.871002100000002, 45.175731000000006],
     [19.871250500000002, 45.1756575],
     [19.8715024, 45.175550900000005],
     [19.871653600000002, 45.1754139]]}},
  {"type":"Feature",
   "properties":{},
   "geometry":
   {"type":"LineString",
    "coordinates":
    [[19.8695978, 45.176476400000006], [19.8697641, 45.1763251],
     [19.8699304, 45.1762571], [19.8700914, 45.176200300000005],
     [19.8703408, 45.1761568], [19.8707029, 45.176177700000004],
     [19.870928900000003, 45.1761497]]}},
  {"type":"Feature",
   "properties":{},
   "geometry":
   {"type":"LineString",
    "coordinates":
    [[19.869047300000002, 45.171234000000005],
     [19.8691499, 45.1713352], [19.8692505, 45.171376800000004],
     [19.8693162, 45.171391], [19.869451700000003, 45.17139],
     [19.869622, 45.1714222], [19.8697333, 45.171463800000005],
     [19.8698312, 45.1715479], [19.8699693, 45.1718022],
     [19.8705031, 45.1722078], [19.8705541, 45.1722854],
     [19.8706439, 45.1724291], [19.8706359, 45.172504700000005],
     [19.8705849, 45.172583200000005],
     [19.8701973, 45.172850700000005],
     [19.8697266, 45.173135300000006],
     [19.8694664, 45.173334800000006], [19.8692733, 45.1735929],
     [19.8692277, 45.1736893], [19.8691955, 45.1740429],
     [19.869221, 45.174150700000006],
     [19.869203600000002, 45.174229200000006],
     [19.869082900000002, 45.174348300000005],
     [19.8687344, 45.1745816], [19.8685328, 45.1747973],
     [19.868270000000003, 45.1750358],
     [19.868118900000002, 45.1752109],
     [19.8679533, 45.175525500000006], [19.867820100000003, 45.175693],
     [19.867782000000002, 45.1759281], [19.867849, 45.1761266],
     [19.867991200000002, 45.176300600000005],
     [19.8681468, 45.1764348], [19.8683184, 45.1765312],
     [19.868486, 45.1765278], [19.868588000000003, 45.1764981],
     [19.8686912, 45.1764923], [19.868927300000003, 45.1765029],
     [19.869166, 45.176466000000005],
     [19.8695978, 45.176476400000006]]}},
  {"type":"Feature",
   "properties":{},
   "geometry":
   {"type":"LineString",
    "coordinates":
    [[19.869047300000002, 45.171234000000005],
     [19.8692478, 45.171125800000006], [19.8696032, 45.1709702],
     [19.8699519, 45.1708549], [19.8701048, 45.1708227],
     [19.8702416, 45.170766], [19.8703033, 45.170709300000006],
     [19.870565600000003, 45.1703528], [19.8706108, 45.1702686],
     [19.8707287, 45.170091600000006], [19.8708022, 45.1700044],
     [19.8709068, 45.1699281], [19.8711369, 45.1698028],
     [19.871350800000002, 45.1696687], [19.8714634, 45.1696188],
     [19.8715562, 45.1695495], [19.8716891, 45.1693811],
     [19.8718584, 45.1692418], [19.871953700000002, 45.1691196],
     [19.872046100000002, 45.1689428], [19.8721605, 45.1687919],
     [19.8722803, 45.1686684], [19.872442300000003, 45.1685299],
     [19.8725966, 45.1683621],
     [19.872745700000003, 45.168202400000006]]}},
  {"type":"Feature",
   "properties":{},
   "geometry":
   {"type":"LineString",
    "coordinates":
    [[19.872745700000003, 45.168202400000006],
     [19.8726998, 45.168104400000004], [19.8726077, 45.1680192],
     [19.872492, 45.1679565], [19.8723637, 45.167890500000006],
     [19.8722238, 45.1678255], [19.872074700000002, 45.1677576],
     [19.8719538, 45.167668000000006], [19.8718501, 45.1675872],
     [19.8717381, 45.1674931], [19.871631100000002, 45.167392],
     [19.871561200000002, 45.1672862],
     [19.871533600000003, 45.167179100000006], [19.871551, 45.1670662],
     [19.871599800000002, 45.1669678], [19.871656, 45.1668341],
     [19.8717371, 45.1666952], [19.8718103, 45.166576600000006],
     [19.8718878, 45.1664612], [19.8719891, 45.1663725],
     [19.872092600000002, 45.166230500000005],
     [19.8721755, 45.1660963], [19.872214, 45.1659822],
     [19.8722554, 45.1658741], [19.8723014, 45.1657102],
     [19.872307300000003, 45.1655815],
     [19.872298800000003, 45.1654853], [19.872294, 45.165357900000004],
     [19.8723503, 45.1652348], [19.872412, 45.1651393],
     [19.8724648, 45.1650489],
     [19.872542900000003, 45.164917800000005], [19.872643, 45.1647529],
     [19.8727516, 45.1646537], [19.872878200000002, 45.1645813],
     [19.873047200000002, 45.1645199],
     [19.873190700000002, 45.164469800000006],
     [19.873344900000003, 45.1644461], [19.8734401, 45.1644111],
     [19.8736131, 45.164278800000005],
     [19.8736949, 45.164191800000005], [19.873798, 45.164079300000004],
     [19.8739166, 45.1639733], [19.8740302, 45.16391],
     [19.8741281, 45.163892000000004],
     [19.8742392, 45.163892000000004], [19.8743796, 45.1639147],
     [19.874534500000003, 45.1639451],
     [19.8747025, 45.163934700000006], [19.874841, 45.163887700000004],
     [19.8748702, 45.1638778], [19.874969500000002, 45.1638114],
     [19.8750483, 45.163723000000005], [19.8751202, 45.1635974],
     [19.875173500000002, 45.163486500000005],
     [19.8752508, 45.1633945], [19.875325800000002, 45.1633073],
     [19.875430400000003, 45.1631755], [19.8755545, 45.1630356],
     [19.8756774, 45.162938800000006],
     [19.875828000000002, 45.162833000000006],
     [19.8759136, 45.162733100000004], [19.8760042, 45.1626582],
     [19.876127800000003, 45.1625669], [19.876251, 45.162448700000006],
     [19.876308100000003, 45.162359800000004],
     [19.8763651, 45.1622788],
     [19.876406600000003, 45.162165300000005]]}},
  {"type":"Feature",
   "properties":{},
   "geometry":
   {"type":"LineString",
    "coordinates":
    [[19.876406600000003, 45.162165300000005],
     [19.8763624, 45.161976200000005],
     [19.876268500000002, 45.161804100000005],
     [19.876083400000002, 45.1616377], [19.8758756, 45.1614741]]}},
  {"type":"Feature",
   "properties":{},
   "geometry":
   {"type":"LineString",
    "coordinates":
    [[19.8758756, 45.1614741], [19.875547, 45.1612973],
     [19.8753163, 45.1611252], [19.8749945, 45.160779100000006],
     [19.874678000000003, 45.1604973], [19.8744634, 45.1599677],
     [19.874321700000003, 45.1596307], [19.8742832, 45.1594405]]}},
  {"type":"Feature",
   "properties":{},
   "geometry":
   {"type":"LineString",
    "coordinates":
    [[19.8742832, 45.1594405], [19.8742166, 45.1593625],
     [19.8740628, 45.159224]]}},
  {"type":"Feature",
   "properties":{},
   "geometry":
   {"type":"LineString",
    "coordinates":
    [[19.8740628, 45.159224], [19.8744073, 45.1590634],
     [19.8751059, 45.159041], [19.8754397, 45.158965300000006],
     [19.8757616, 45.1588159], [19.876080700000003, 45.1586797],
     [19.8762256, 45.1585605], [19.8766129, 45.1582841],
     [19.8770859, 45.157999000000004],
     [19.8775498, 45.157546200000006], [19.8781031, 45.1575089],
     [19.878799, 45.157475500000004], [19.8789668, 45.157456],
     [19.8792055, 45.157325500000006], [19.8794635, 45.1571432],
     [19.8797366, 45.156981200000004], [19.880029, 45.1569529],
     [19.8803267, 45.156947200000005],
     [19.880667300000002, 45.156828000000004],
     [19.880836300000002, 45.1567505],
     [19.881134000000003, 45.1566692],
     [19.8818099, 45.156283300000005],
     [19.8823866, 45.156162300000005], [19.8827085, 45.1559788],
     [19.882848000000003, 45.1559485], [19.8833951, 45.1559618],
     [19.8837733, 45.155891800000006],
     [19.8841596, 45.155852100000004],
     [19.884419700000002, 45.1558748],
     [19.884816700000002, 45.155753700000005],
     [19.8851225, 45.1556894], [19.885439, 45.1556705],
     [19.8857018, 45.155600500000006], [19.8859405, 45.1556118],
     [19.8862275, 45.1556724], [19.886603100000002, 45.1556724],
     [19.886831, 45.1556459], [19.887010800000002, 45.155685600000005],
     [19.887279, 45.155818000000004], [19.887397, 45.1558294],
     [19.887692, 45.155804800000006], [19.8877779, 45.155857700000006],
     [19.887853, 45.1559637], [19.8879898, 45.156024200000004],
     [19.8882285, 45.156028000000006], [19.8884967, 45.1561188],
     [19.8886067, 45.156130100000006],
     [19.889000900000003, 45.1560847], [19.8894677, 45.1559485],
     [19.8896635, 45.1559296], [19.889899500000002, 45.1559674],
     [19.8901355, 45.1559637], [19.8903152, 45.156028000000006],
     [19.890444000000002, 45.156022300000004],
     [19.8905861, 45.1559334], [19.890794, 45.1558611]]}},
  {"type":"Feature",
   "properties":{},
   "geometry":
   {"type":"LineString",
    "coordinates":
    [[19.890794, 45.1558611], [19.8908254, 45.155749300000004],
     [19.890805500000003, 45.1556037]]}},
  {"type":"Feature",
   "properties":{},
   "geometry":
   {"type":"LineString",
    "coordinates":
    [[19.895297000000003, 45.153300200000004],
     [19.8950499, 45.1534397], [19.8947936, 45.153562300000004],
     [19.894464300000003, 45.153694], [19.8943225, 45.1537525],
     [19.8942403, 45.1537707],
     [19.894132000000003, 45.153790300000004],
     [19.893917400000003, 45.153796],
     [19.893646500000003, 45.153788500000005],
     [19.8933059, 45.1537809], [19.8930511, 45.1537809],
     [19.8928231, 45.1538206], [19.892638, 45.1538868],
     [19.8924476, 45.1539927], [19.8915076, 45.1546159],
     [19.8912178, 45.154879400000006], [19.8908624, 45.1555229],
     [19.890805500000003, 45.1556037]]}},
  {"type":"Feature",
   "properties":{},
   "geometry":
   {"type":"LineString",
    "coordinates":
    [[19.905024400000002, 45.160048200000006],
     [19.904715900000003, 45.1599324],
     [19.904341300000002, 45.1597063], [19.9041049, 45.159599],
     [19.9038685, 45.159562300000005],
     [19.9036201, 45.159580600000005], [19.9034659, 45.1596315],
     [19.9033437, 45.159668200000006], [19.9031854, 45.159688],
     [19.9028208, 45.1596442], [19.9025243, 45.159624400000006],
     [19.902404100000002, 45.159582], [19.9020215, 45.159413900000004],
     [19.901739000000003, 45.1592585],
     [19.9014665, 45.159165300000005],
     [19.901320300000002, 45.1590848], [19.9006893, 45.1585946],
     [19.9003948, 45.158466100000005],
     [19.900226500000002, 45.158413800000005],
     [19.900090300000002, 45.1584039], [19.899958, 45.1584124],
     [19.899717600000002, 45.1584731],
     [19.8995494, 45.158478800000005],
     [19.899373100000002, 45.158505600000005],
     [19.8990505, 45.1585875], [19.898758100000002, 45.1586257],
     [19.8985778, 45.158637000000006],
     [19.8984515, 45.158584700000006],
     [19.898303300000002, 45.1584293],
     [19.8982172, 45.158190600000005], [19.898115, 45.1580649],
     [19.8979187, 45.1578954], [19.8978626, 45.1578035],
     [19.8978666, 45.1576849], [19.8979287, 45.1575761],
     [19.898143, 45.157415], [19.898277500000003, 45.157354500000004],
     [19.898361400000002, 45.157290700000004],
     [19.8984415, 45.1572003], [19.8985497, 45.1570393],
     [19.8986158, 45.1568076], [19.898754, 45.156526500000005],
     [19.898758100000002, 45.1564191], [19.898732000000003, 45.156323],
     [19.8984355, 45.1559261], [19.8983271, 45.1558251],
     [19.8981551, 45.1557015],
     [19.897980800000003, 45.155639300000004],
     [19.8977404, 45.155626600000005],
     [19.896852900000003, 45.1556803],
     [19.896580500000002, 45.155739600000004],
     [19.8961638, 45.155774900000004],
     [19.895935400000003, 45.155823000000005],
     [19.8956269, 45.1559473], [19.8954586, 45.1559444],
     [19.895252300000003, 45.1558809],
     [19.8947274, 45.155622400000006],
     [19.894563100000003, 45.1554853],
     [19.894539100000003, 45.1553667], [19.8945711, 45.1552762],
     [19.8946793, 45.1551604], [19.8947334, 45.155053],
     [19.8947995, 45.154632], [19.894842800000003, 45.1544742],
     [19.8952627, 45.153517300000004],
     [19.895297000000003, 45.153300200000004]]}},
  {"type":"Feature",
   "properties":{},
   "geometry":
   {"type":"LineString",
    "coordinates":
    [[19.9139692, 45.1668353], [19.9139266, 45.166790000000006],
     [19.9137495, 45.166507800000005],
     [19.9137206, 45.166462100000004], [19.9136928, 45.1663767],
     [19.9136794, 45.1661638], [19.913647, 45.166097300000004],
     [19.9133828, 45.165913], [19.9130702, 45.1655461],
     [19.912932700000002, 45.1654283], [19.912779, 45.165329500000006],
     [19.912080900000003, 45.1649456], [19.9118679, 45.1647954],
     [19.9117304, 45.1646548], [19.9112344, 45.1643545],
     [19.9106953, 45.163847000000004],
     [19.910485100000002, 45.1637387],
     [19.910158900000003, 45.1635277],
     [19.910037600000003, 45.1634137],
     [19.9099945, 45.163292000000006],
     [19.909875900000003, 45.1630735],
     [19.9098381, 45.162640100000004],
     [19.909797700000002, 45.162535600000005],
     [19.909676400000002, 45.162448100000006], [19.909388, 45.1623607],
     [19.9092936, 45.162296100000006],
     [19.908743700000002, 45.1617449],
     [19.908584700000002, 45.161524400000005],
     [19.9083218, 45.161303000000004],
     [19.908203200000003, 45.161224100000005], [19.9080482, 45.161149],
     [19.9078892, 45.161093900000004], [19.9070536, 45.1608839],
     [19.906635700000002, 45.1607356],
     [19.9064929, 45.160663400000004],
     [19.9062637, 45.160499900000005],
     [19.906088500000003, 45.1604049],
     [19.905024400000002, 45.160048200000006]]}},
  {"type":"Feature",
   "properties":{},
   "geometry":
   {"type":"LineString",
    "coordinates":
    [[19.914004600000002, 45.1668589], [19.9139692, 45.1668353]]}},
  {"type":"Feature",
   "properties":{},
   "geometry":
   {"type":"LineString",
    "coordinates":
    [[19.9140301, 45.166876900000005],
     [19.914004600000002, 45.1668589]]}},
  {"type":"Feature",
   "properties":{},
   "geometry":
   {"type":"LineString",
    "coordinates":
    [[19.9142036, 45.1668706], [19.9141684, 45.166906600000004],
     [19.9140886, 45.1669038], [19.9140301, 45.166876900000005]]}},
  {"type":"Feature",
   "properties":{},
   "geometry":
   {"type":"LineString",
    "coordinates":
    [[19.9142519, 45.166803200000004], [19.9142036, 45.1668706]]}},
  {"type":"Feature",
   "properties":{},
   "geometry":
   {"type":"LineString",
    "coordinates":
    [[19.9142978, 45.1667392], [19.9142519, 45.166803200000004]]}},
  {"type":"Feature",
   "properties":{},
   "geometry":
   {"type":"LineString",
    "coordinates":
    [[19.9143177, 45.1667113], [19.9142978, 45.1667392]]}},
  {"type":"Feature",
   "properties":{},
   "geometry":
   {"type":"LineString",
    "coordinates":
    [[19.914393, 45.166705500000006], [19.9143772, 45.166684000000004],
     [19.9143516, 45.1666784], [19.9143319, 45.1666916],
     [19.9143177, 45.1667113]]}},
  {"type":"Feature",
   "properties":{},
   "geometry":
   {"type":"LineString",
    "coordinates":
    [[19.9144095, 45.166736500000006],
     [19.914393, 45.166705500000006]]}},
  {"type":"Feature",
   "properties":{},
   "geometry":
   {"type":"LineString",
    "coordinates":
    [[19.9150375, 45.1663531], [19.9150429, 45.1663824],
     [19.915048600000002, 45.166468300000005],
     [19.9150309, 45.1665762], [19.9150065, 45.166670100000005],
     [19.914979900000002, 45.1667647], [19.9149582, 45.1668808],
     [19.9149503, 45.1669691],
     [19.914959200000002, 45.167068500000006],
     [19.915004500000002, 45.167174900000006],
     [19.9150667, 45.1672695],
     [19.915080500000002, 45.167318900000005],
     [19.915069600000002, 45.167348800000006],
     [19.915043, 45.167366200000004], [19.9149947, 45.1673689],
     [19.914948300000002, 45.1673564], [19.9149059, 45.1673272],
     [19.914824900000003, 45.1672537],
     [19.9147688, 45.167178400000005],
     [19.914657400000003, 45.1670588], [19.9145824, 45.1669733],
     [19.9144936, 45.1668717], [19.9144389, 45.166792400000006],
     [19.9144095, 45.166736500000006]]}},
  {"type":"Feature",
   "properties":{},
   "geometry":
   {"type":"LineString",
    "coordinates":
    [[19.915021300000003, 45.166322400000006],
     [19.9150375, 45.1663531]]}},
  {"type":"Feature",
   "properties":{},
   "geometry":
   {"type":"LineString",
    "coordinates":
    [[19.9150834, 45.1662954], [19.9150588, 45.1662782],
     [19.9150326, 45.166273700000005], [19.9150139, 45.1662831],
     [19.915008500000003, 45.1663026],
     [19.915021300000003, 45.166322400000006]]}},
  {"type":"Feature",
   "properties":{},
   "geometry":
   {"type":"LineString",
    "coordinates":
    [[19.915098200000003, 45.166317500000005],
     [19.9150834, 45.1662954]]}},
  {"type":"Feature",
   "properties":{},
   "geometry":
   {"type":"LineString",
    "coordinates":
    [[19.916015700000003, 45.1677125], [19.9159867, 45.1677711],
     [19.9159238, 45.1678616],
     [19.915885300000003, 45.167986400000004],
     [19.915869500000003, 45.1680574], [19.9158528, 45.1680762],
     [19.9158145, 45.168073500000006],
     [19.915799500000002, 45.168049700000005],
     [19.9158094, 45.167923900000005],
     [19.915836000000002, 45.167816800000004],
     [19.9158833, 45.1677118], [19.9159021, 45.1676207],
     [19.91591, 45.1675539], [19.915904100000002, 45.167478800000005],
     [19.9158656, 45.1673898], [19.9158222, 45.1672841],
     [19.9157555, 45.1671806],
     [19.915706800000002, 45.167139500000005],
     [19.915649600000002, 45.1671047], [19.9155924, 45.1670929],
     [19.915525300000002, 45.167072700000006],
     [19.915416800000003, 45.167008700000004],
     [19.915299400000002, 45.1669081],
     [19.915248100000003, 45.166801400000004],
     [19.9152294, 45.166704200000005], [19.9151998, 45.1665859],
     [19.9151683, 45.166467700000005],
     [19.9151436, 45.166399600000005],
     [19.915098200000003, 45.166317500000005]]}},
  {"type":"Feature",
   "properties":{},
   "geometry":
   {"type":"LineString",
    "coordinates":
    [[19.9160292, 45.1676864], [19.916015700000003, 45.1677125]]}},
  {"type":"Feature",
   "properties":{},
   "geometry":
   {"type":"LineString",
    "coordinates":
    [[19.9160897, 45.167709200000004],
     [19.916100800000002, 45.1676852],
     [19.916090500000003, 45.1676707], [19.9160678, 45.1676652],
     [19.9160407, 45.167668400000004], [19.9160292, 45.1676864]]}},
  {"type":"Feature",
   "properties":{},
   "geometry":
   {"type":"LineString",
    "coordinates":
    [[19.916078300000002, 45.1677351],
     [19.9160897, 45.167709200000004]]}},
  {"type":"Feature",
   "properties":{},
   "geometry":
   {"type":"LineString",
    "coordinates":
    [[19.9160678, 45.168306300000005],
     [19.916078600000002, 45.168287500000005],
     [19.9161053, 45.1682361], [19.9161043, 45.1681881],
     [19.9160629, 45.168097], [19.9160273, 45.1679837],
     [19.9160264, 45.167865500000005], [19.9160599, 45.1677771],
     [19.916078300000002, 45.1677351]]}},
  {"type":"Feature",
   "properties":{},
   "geometry":
   {"type":"LineString",
    "coordinates":
    [[19.9160301, 45.168330600000004],
     [19.9160678, 45.168306300000005]]}},
  {"type":"Feature",
   "properties":{},
   "geometry":
   {"type":"LineString",
    "coordinates":
    [[19.916219100000003, 45.1684624], [19.916181, 45.1684694],
     [19.915988900000002, 45.168504500000004],
     [19.9158492, 45.168521500000004],
     [19.915749100000003, 45.1685436],
     [19.915694300000002, 45.1685443],
     [19.9156714, 45.168535000000006],
     [19.915671500000002, 45.168514900000005],
     [19.915722300000002, 45.168483300000005],
     [19.915869500000003, 45.168419], [19.9159504, 45.1683779],
     [19.9160031, 45.1683481], [19.9160301, 45.168330600000004]]}},
  {"type":"Feature",
   "properties":{},
   "geometry":
   {"type":"LineString",
    "coordinates":
    [[19.916272600000003, 45.1684495],
     [19.916219100000003, 45.1684624]]}},
  {"type":"Feature",
   "properties":{},
   "geometry":
   {"type":"LineString",
    "coordinates":
    [[19.9165156, 45.168171400000006], [19.9165116, 45.1682131],
     [19.916497800000002, 45.168253500000006],
     [19.9164524, 45.1683279], [19.9163721, 45.168410300000005],
     [19.916272600000003, 45.1684495]]}},
  {"type":"Feature",
   "properties":{},
   "geometry":
   {"type":"LineString",
    "coordinates":
    [[19.9165205, 45.168138600000006],
     [19.9165156, 45.168171400000006]]}},
  {"type":"Feature",
   "properties":{},
   "geometry":
   {"type":"LineString",
    "coordinates":
    [[19.916589400000003, 45.1681478],
     [19.9165846, 45.168124500000005], [19.9165691, 45.1681083],
     [19.9165353, 45.168107000000006],
     [19.916524000000003, 45.1681189],
     [19.9165205, 45.168138600000006]]}},
  {"type":"Feature",
   "properties":{},
   "geometry":
   {"type":"LineString",
    "coordinates":
    [[19.9165895, 45.168176700000004],
     [19.916589400000003, 45.1681478]]}},
  {"type":"Feature",
   "properties":{},
   "geometry":
   {"type":"LineString",
    "coordinates":
    [[19.9166369, 45.1686276], [19.9166507, 45.168588],
     [19.9166586, 45.1685448], [19.9166546, 45.1684976],
     [19.916629, 45.1683912], [19.9166014, 45.168316100000006],
     [19.9165955, 45.1682506], [19.9165895, 45.168176700000004]]}},
  {"type":"Feature",
   "properties":{},
   "geometry":
   {"type":"LineString",
    "coordinates":
    [[19.9165971, 45.1686581], [19.9166369, 45.1686276]]}},
  {"type":"Feature",
   "properties":{},
   "geometry":
   {"type":"LineString",
    "coordinates":
    [[19.916328800000002, 45.1687722],
     [19.916382300000002, 45.1687451],
     [19.9165521, 45.168683200000004], [19.9165971, 45.1686581]]}},
  {"type":"Feature",
   "properties":{},
   "geometry":
   {"type":"LineString",
    "coordinates":
    [[19.916304200000003, 45.1687846],
     [19.916328800000002, 45.1687722]]}},
  {"type":"Feature",
   "properties":{},
   "geometry":
   {"type":"LineString",
    "coordinates":
    [[19.9166868, 45.1687202], [19.916602400000002, 45.1687486],
     [19.916493900000003, 45.168775000000004],
     [19.9163548, 45.1688251],
     [19.916312400000002, 45.168833400000004],
     [19.916278900000002, 45.168828500000004],
     [19.916269, 45.168813300000004], [19.9162848, 45.168794500000004],
     [19.916304200000003, 45.1687846]]}},
  {"type":"Feature",
   "properties":{},
   "geometry":
   {"type":"LineString",
    "coordinates":
    [[19.916731300000002, 45.168708800000005],
     [19.9166868, 45.1687202]]}},
  {"type":"Feature",
   "properties":{},
   "geometry":
   {"type":"LineString",
    "coordinates":
    [[19.917183700000002, 45.1686482], [19.9170817, 45.168638],
     [19.9170275, 45.168601200000005],
     [19.916999500000003, 45.168528200000004],
     [19.9169704, 45.1685152], [19.916939900000003, 45.1685225],
     [19.9169209, 45.168600000000005],
     [19.916881500000002, 45.1686387],
     [19.916808500000002, 45.1686867],
     [19.916731300000002, 45.168708800000005]]}},
  {"type":"Feature",
   "properties":{},
   "geometry":
   {"type":"LineString",
    "coordinates":
    [[19.917253900000002, 45.1687554], [19.9172148, 45.1686975],
     [19.917183700000002, 45.1686482]]}},
  {"type":"Feature",
   "properties":{},
   "geometry":
   {"type":"LineString",
    "coordinates":
    [[19.917253900000002, 45.1687554], [19.9172024, 45.1687403],
     [19.9171695, 45.168733200000005],
     [19.916975700000002, 45.168807400000006],
     [19.9169549, 45.168864400000004],
     [19.916548900000002, 45.168991600000005],
     [19.9164807, 45.169012900000006], [19.916086, 45.1691464],
     [19.9159657, 45.169227500000005], [19.915841800000003, 45.169341],
     [19.9158085, 45.1693708], [19.915696800000003, 45.1694332],
     [19.9155605, 45.1694583], [19.915409, 45.1695502]]}},
  {"type":"Feature",
   "properties":{},
   "geometry":
   {"type":"LineString",
    "coordinates":
    [[19.912017000000002, 45.1699472],
     [19.9122129, 45.169948100000006], [19.9124877, 45.1698997],
     [19.9131006, 45.169754000000005],
     [19.913221800000002, 45.1697244],
     [19.9134962, 45.169681700000005],
     [19.9144657, 45.169645900000006],
     [19.915013700000003, 45.1695769], [19.915409, 45.1695502]]}},
  {"type":"Feature",
   "properties":{},
   "geometry":
   {"type":"LineString",
    "coordinates":
    [[19.9101958, 45.170792500000005], [19.9102843, 45.1706866],
     [19.9103783, 45.1706056], [19.910405, 45.1705826],
     [19.9105418, 45.1704786],
     [19.910654400000002, 45.170416200000005],
     [19.910801900000003, 45.1703424],
     [19.9109629, 45.170295200000005],
     [19.911134500000003, 45.1702498], [19.9112982, 45.1702006],
     [19.911426900000002, 45.1701307],
     [19.911606600000002, 45.1700153],
     [19.911864100000003, 45.1699586],
     [19.912017000000002, 45.1699472]]}},
  {"type":"Feature",
   "properties":{},
   "geometry":
   {"type":"LineString",
    "coordinates":
    [[19.9125289, 45.1724934], [19.9123871, 45.1725756],
     [19.9123093, 45.1726456],
     [19.912306700000002, 45.172855500000004],
     [19.9122637, 45.1729179], [19.9121886, 45.1728876],
     [19.912126200000003, 45.172709100000006],
     [19.9120615, 45.1724711], [19.9119713, 45.172141800000006],
     [19.9118715, 45.1719692], [19.911826400000002, 45.1717807],
     [19.911826400000002, 45.171628600000005],
     [19.9118715, 45.1714968],
     [19.911984200000003, 45.171344700000006],
     [19.9120551, 45.1712402], [19.9120358, 45.171174300000004],
     [19.9119134, 45.1711857],
     [19.911713600000002, 45.171319700000005],
     [19.911571900000002, 45.171456000000006],
     [19.911546100000002, 45.171708], [19.911559, 45.171928300000005],
     [19.911507500000003, 45.172001], [19.9114302, 45.171951],
     [19.9114334, 45.171764800000005],
     [19.911404400000002, 45.1715968],
     [19.911388300000002, 45.1714264],
     [19.9114173, 45.171292400000006], [19.911501, 45.1711789],
     [19.911617, 45.1710517], [19.9117426, 45.170954],
     [19.911733, 45.1709041], [19.911594400000002, 45.170924500000005],
     [19.911443000000002, 45.171019900000005],
     [19.9113367, 45.171097100000004],
     [19.9112626, 45.171242500000005], [19.9111628, 45.1712652],
     [19.9111499, 45.171190200000005],
     [19.911195000000003, 45.171017600000006],
     [19.9112949, 45.1708927], [19.9113915, 45.170781000000005],
     [19.9115466, 45.1706603], [19.911695100000003, 45.1705734],
     [19.9117126, 45.170524900000004],
     [19.911670100000002, 45.1704917],
     [19.911616000000002, 45.170490900000004],
     [19.911557300000002, 45.1705053], [19.911311, 45.170633800000004],
     [19.9110726, 45.1707769], [19.910938700000003, 45.1708275],
     [19.9108138, 45.170833900000005], [19.9107182, 45.1708269],
     [19.9105324, 45.1707764], [19.9103661, 45.170775500000005],
     [19.9101958, 45.170792500000005]]}},
  {"type":"Feature",
   "properties":{},
   "geometry":
   {"type":"LineString",
    "coordinates":
    [[19.9125289, 45.1724934], [19.912644800000002, 45.1727076]]}},
  {"type":"Feature",
   "properties":{},
   "geometry":
   {"type":"LineString",
    "coordinates":
    [[19.9123871, 45.176680600000005], [19.9123927, 45.1765667],
     [19.912390600000002, 45.176385800000006],
     [19.9124644, 45.1760928], [19.9127782, 45.175678700000006],
     [19.913521000000003, 45.1747656],
     [19.913724900000002, 45.1745803], [19.9140948, 45.1742956],
     [19.9141659, 45.1741223],
     [19.914113500000003, 45.174024200000005],
     [19.9139993, 45.1739461], [19.9138047, 45.1738936],
     [19.9137014, 45.1738671], [19.9136183, 45.173836800000004],
     [19.9135406, 45.173781600000005], [19.9134709, 45.1736833],
     [19.913061900000002, 45.1730877], [19.9129209, 45.17302],
     [19.9128364, 45.1729841], [19.9127574, 45.172904200000005],
     [19.912644800000002, 45.1727076]]}},
  {"type":"Feature",
   "properties":{},
   "geometry":
   {"type":"LineString",
    "coordinates":
    [[19.903664900000003, 45.1771145],
     [19.9045296, 45.177175000000005],
     [19.904662400000003, 45.1771523],
     [19.904815300000003, 45.177109800000004],
     [19.905013500000003, 45.1770447],
     [19.9052404, 45.176960400000006],
     [19.905879600000002, 45.1766656],
     [19.906138900000002, 45.1765246], [19.9063734, 45.1763403],
     [19.906830900000003, 45.176077400000004],
     [19.907009300000002, 45.1760084],
     [19.907387500000002, 45.175926200000006],
     [19.907909200000002, 45.1759082], [19.9082981, 45.1759092],
     [19.9089311, 45.1759451], [19.9109884, 45.175980100000004],
     [19.911201600000002, 45.176015], [19.9114229, 45.1760907],
     [19.911668300000002, 45.1762807],
     [19.912274500000002, 45.1766201],
     [19.9123871, 45.176680600000005]]}},
  {"type":"Feature",
   "properties":{},
   "geometry":
   {"type":"LineString",
    "coordinates":
    [[19.9024578, 45.1770244], [19.902712400000002, 45.1770209],
     [19.9034607, 45.1771012], [19.903664900000003, 45.1771145]]}},
  {"type":"Feature",
   "properties":{},
   "geometry":
   {"type":"LineString",
    "coordinates":
    [[19.8967929, 45.184219000000006], [19.8968759, 45.1841616],
     [19.8969746, 45.1839036], [19.8970843, 45.1836117],
     [19.8974736, 45.1834221], [19.8979266, 45.1827236],
     [19.898408, 45.182364400000004],
     [19.898776100000003, 45.182219700000005],
     [19.8990344, 45.1819952],
     [19.899508700000002, 45.181596000000006],
     [19.8997953, 45.1813067],
     [19.899912200000003, 45.181147100000004],
     [19.900036, 45.180593200000004], [19.9001953, 45.1803437],
     [19.9002342, 45.1799945], [19.9001847, 45.1796652],
     [19.900233500000002, 45.1795251],
     [19.900267600000003, 45.1794595],
     [19.9003269, 45.179399200000006],
     [19.900433900000003, 45.179317700000006],
     [19.9005164, 45.1792116], [19.900674600000002, 45.1788784],
     [19.900705900000002, 45.178851900000005],
     [19.9008821, 45.178688300000005],
     [19.9009956, 45.178443300000005],
     [19.901059500000002, 45.178362400000005],
     [19.9012788, 45.1781804], [19.9013612, 45.178103400000005],
     [19.901401500000002, 45.1780509], [19.9014518, 45.1780169],
     [19.9019698, 45.177608600000006], [19.9024578, 45.1770244]]}},
  {"type":"Feature",
   "properties":{},
   "geometry":
   {"type":"LineString",
    "coordinates":
    [[19.8946092, 45.187392700000004], [19.8946232, 45.1872826],
     [19.894653100000003, 45.1871017],
     [19.894748800000002, 45.1868387],
     [19.894886800000002, 45.186441900000005],
     [19.894911800000003, 45.186401700000005],
     [19.894947000000002, 45.186361500000004],
     [19.894993300000003, 45.1863267],
     [19.8950274, 45.186290500000005],
     [19.895257700000002, 45.1859741], [19.895364500000003, 45.185901],
     [19.8954302, 45.185872700000004], [19.895513400000002, 45.18585],
     [19.8956267, 45.185841700000005], [19.895805600000003, 45.185833],
     [19.8959476, 45.185819300000006], [19.8960133, 45.1858063],
     [19.8960744, 45.1857884],
     [19.896199600000003, 45.185743200000005],
     [19.8962504, 45.185711600000005],
     [19.896292000000003, 45.1856783], [19.8963749, 45.185599],
     [19.8964454, 45.185517600000004], [19.8966894, 45.1848954],
     [19.896702700000002, 45.1848467], [19.896710600000002, 45.184798],
     [19.8967156, 45.1846988],
     [19.896708200000003, 45.184504000000004],
     [19.8967125, 45.184452500000006],
     [19.896727600000002, 45.184406700000004],
     [19.896772600000002, 45.184308400000006],
     [19.8967868, 45.1842637], [19.8967929, 45.184219000000006]]}},
  {"type":"Feature",
   "properties":{},
   "geometry":
   {"type":"LineString",
    "coordinates":
    [[19.894807800000002, 45.189421], [19.8947228, 45.188966],
     [19.8947024, 45.188591800000005], [19.8946906, 45.1885228],
     [19.8946253, 45.188270300000006], [19.8946043, 45.1881387],
     [19.894598600000002, 45.188007000000006],
     [19.8946092, 45.187392700000004]]}},
  {"type":"Feature",
   "properties":{},
   "geometry":
   {"type":"LineString",
    "coordinates":
    [[19.8939299, 45.1901242], [19.894133200000002, 45.190069],
     [19.8942397, 45.1900282], [19.8943307, 45.1899808],
     [19.894498600000002, 45.1898867], [19.8945729, 45.1898259],
     [19.894616300000003, 45.189762900000005],
     [19.8946751, 45.1896215], [19.8947565, 45.189474700000005],
     [19.894807800000002, 45.189421]]}},
  {"type":"Feature",
   "properties":{},
   "geometry":
   {"type":"LineString",
    "coordinates":
    [[19.8934864, 45.1911471], [19.893627000000002, 45.1910235],
     [19.893734300000002, 45.1909124],
     [19.893774500000003, 45.190841600000006],
     [19.8938016, 45.1907696], [19.8938075, 45.190697400000005],
     [19.893799400000002, 45.190627400000004],
     [19.8938034, 45.1905055], [19.893812200000003, 45.190316],
     [19.893831600000002, 45.1902489],
     [19.893873900000003, 45.1901771], [19.8939299, 45.1901242]]}},
  {"type":"Feature",
   "properties":{},
   "geometry":
   {"type":"LineString",
    "coordinates":
    [[19.8934725, 45.191249600000006], [19.8934864, 45.1911471]]}}]}
