{"type":"FeatureCollection",
 "properties":{},
 "features":
 [{"type":"Feature",
   "properties":{},
   "geometry":
   {"type":"LineString",
    "coordinates":
    [[21.3600403, 45.1265209], [21.3601697, 45.126624]]}},
  {"type":"Feature",
   "properties":{},
   "geometry":
   {"type":"LineString",
    "coordinates":
    [[21.3604436, 45.1265954], [21.3602874, 45.1266193],
     [21.3601697, 45.126624]]}},
  {"type":"Feature",
   "properties":{},
   "geometry":
   {"type":"LineString",
    "coordinates":
    [[21.3604436, 45.1265954],
     [21.360730800000002, 45.126524200000006],
     [21.3608951, 45.126429300000005], [21.3609145, 45.1263811]]}},
  {"type":"Feature",
   "properties":{},
   "geometry":
   {"type":"LineString",
    "coordinates":
    [[21.3609145, 45.1263811], [21.3609557, 45.1263057],
     [21.3610475, 45.126240300000006],
     [21.361283500000003, 45.1260272],
     [21.361501200000003, 45.1256355],
     [21.3616703, 45.125512500000006], [21.36215, 45.1251442],
     [21.3625565, 45.1246573], [21.3628976, 45.1243702],
     [21.3635674, 45.1231063],
     [21.363535300000002, 45.122853400000004]]}},
  {"type":"Feature",
   "properties":{},
   "geometry":
   {"type":"LineString",
    "coordinates":
    [[21.363535300000002, 45.122853400000004],
     [21.3634337, 45.1225213], [21.3635567, 45.122257100000006],
     [21.363962800000003, 45.1217373], [21.364331, 45.1214475],
     [21.3645676, 45.1211841]]}},
  {"type":"Feature",
   "properties":{},
   "geometry":
   {"type":"LineString",
    "coordinates":
    [[21.3645676, 45.1211841], [21.364639800000003, 45.1210065],
     [21.3647333, 45.120913800000004],
     [21.365090000000002, 45.1208267],
     [21.365421400000002, 45.120678100000006],
     [21.3656948, 45.1205062], [21.3658177, 45.1204241],
     [21.3659536, 45.120383100000005],
     [21.366083500000002, 45.120353800000004],
     [21.366165000000002, 45.1202896],
     [21.3661397, 45.120205000000006], [21.3661394, 45.1200868],
     [21.3662095, 45.1199607],
     [21.366333400000002, 45.119875300000004],
     [21.366502800000003, 45.119843800000005],
     [21.3666495, 45.119801800000005],
     [21.366760000000003, 45.1196962], [21.3668319, 45.1194976],
     [21.3668003, 45.1193048], [21.3666759, 45.119096400000004],
     [21.3663615, 45.118534200000006], [21.3662952, 45.1182462],
     [21.366316700000002, 45.117717400000004],
     [21.366196300000002, 45.1172016],
     [21.3662022, 45.116748300000005],
     [21.366092400000003, 45.1163329],
     [21.366105400000002, 45.116087500000006],
     [21.3662299, 45.1157576], [21.3662445, 45.115543900000006],
     [21.3663057, 45.115413700000005],
     [21.3662578, 45.115304900000005],
     [21.365986600000003, 45.1149919], [21.3659769, 45.1148773],
     [21.3662259, 45.114375200000005],
     [21.366362000000002, 45.114113100000004],
     [21.366455000000002, 45.1136774],
     [21.3665604, 45.113425500000005],
     [21.3669216, 45.113078300000005], [21.3673524, 45.1125295],
     [21.3674658, 45.1122475],
     [21.367547700000003, 45.112044000000004]]}},
  {"type":"Feature",
   "properties":{},
   "geometry":
   {"type":"LineString",
    "coordinates":
    [[21.367547700000003, 45.112044000000004],
     [21.3675254, 45.111889100000006]]}},
  {"type":"Feature",
   "properties":{},
   "geometry":
   {"type":"LineString",
    "coordinates":
    [[21.3675254, 45.111889100000006], [21.3676056, 45.1117268]]}},
  {"type":"Feature",
   "properties":{},
   "geometry":
   {"type":"LineString",
    "coordinates":
    [[21.3676056, 45.1117268],
     [21.367889100000003, 45.111054900000006],
     [21.367914300000002, 45.1106102]]}},
  {"type":"Feature",
   "properties":{},
   "geometry":
   {"type":"LineString",
    "coordinates":
    [[21.367914300000002, 45.1106102], [21.3682768, 45.1103031],
     [21.3683948, 45.1101876],
     [21.368429600000002, 45.109907500000006],
     [21.368596, 45.109856300000004], [21.3687918, 45.110091000000004],
     [21.3690895, 45.1101308], [21.3695965, 45.110172500000004],
     [21.370478900000002, 45.1103201],
     [21.370972400000003, 45.1103655],
     [21.371246000000003, 45.110460200000006],
     [21.371366700000003, 45.110846300000006],
     [21.3715571, 45.111342300000004],
     [21.371608100000003, 45.1118496], [21.3716644, 45.1121525],
     [21.371816000000003, 45.1127819], [21.3719004, 45.1127203],
     [21.3719822, 45.1126645], [21.3720386, 45.1125708],
     [21.3720721, 45.112444], [21.3721083, 45.112390000000005],
     [21.3721901, 45.1123228],
     [21.372396600000002, 45.112257500000005],
     [21.3726407, 45.1122055], [21.3728821, 45.1121269],
     [21.373025700000003, 45.111984],
     [21.373244200000002, 45.111931000000006],
     [21.373423900000002, 45.111929100000005],
     [21.373537900000002, 45.1118998],
     [21.373668000000002, 45.1119281],
     [21.3738625, 45.111856200000005],
     [21.374271200000003, 45.1117399], [21.3744754, 45.1116679],
     [21.3747007, 45.1114029], [21.3751137, 45.1110394],
     [21.3754624, 45.1107366], [21.3753283, 45.110641900000005],
     [21.375194200000003, 45.110539700000004],
     [21.3751244, 45.1104526],
     [21.375223700000003, 45.110291700000005],
     [21.375451700000003, 45.110257600000004],
     [21.3755241, 45.1102368], [21.375545600000002, 45.1101819],
     [21.375398, 45.110093000000006], [21.375398, 45.1100475],
     [21.3756099, 45.1097636], [21.375770900000003, 45.1096292],
     [21.375813800000003, 45.1095345], [21.3759514, 45.1093144]]}},
  {"type":"Feature",
   "properties":{},
   "geometry":
   {"type":"LineString",
    "coordinates":
    [[21.3759514, 45.1093144], [21.3760292, 45.1093544],
     [21.3763699, 45.109490900000004],
     [21.3770786, 45.109774900000005],
     [21.377254100000002, 45.109825900000004],
     [21.377354800000003, 45.1098234]]}},
  {"type":"Feature",
   "properties":{},
   "geometry":
   {"type":"LineString",
    "coordinates":
    [[21.3789845, 45.107815200000005], [21.3789522, 45.1078993],
     [21.378718300000003, 45.108128300000004],
     [21.378545000000003, 45.108414700000004],
     [21.377354800000003, 45.1098234]]}},
  {"type":"Feature",
   "properties":{},
   "geometry":
   {"type":"LineString",
    "coordinates":
    [[21.377619300000003, 45.105901200000005], [21.377761, 45.1060831],
     [21.379026, 45.1077072], [21.3789845, 45.107815200000005]]}},
  {"type":"Feature",
   "properties":{},
   "geometry":
   {"type":"LineString",
    "coordinates":
    [[21.377619300000003, 45.105901200000005],
     [21.377809300000003, 45.1058147],
     [21.3779408, 45.105757000000004], [21.3780146, 45.1056396],
     [21.3781849, 45.1053641], [21.378437, 45.105118000000004],
     [21.378640800000003, 45.1050556], [21.3787227, 45.1050442],
     [21.3789868, 45.1048473], [21.3791337, 45.1045802]]}},
  {"type":"Feature",
   "properties":{},
   "geometry":
   {"type":"LineString",
    "coordinates":
    [[21.3791337, 45.1045802],
     [21.379298000000002, 45.104281300000004],
     [21.379646700000002, 45.1039216],
     [21.3800329, 45.103649000000004],
     [21.3804942, 45.103501300000005], [21.3807893, 45.103524],
     [21.3809073, 45.1037891], [21.3809073, 45.104114700000004],
     [21.3809931, 45.104201800000006], [21.381551, 45.1043229],
     [21.3823329, 45.1045114]]}},
  {"type":"Feature",
   "properties":{},
   "geometry":
   {"type":"LineString",
    "coordinates":
    [[21.3888995, 45.1029647],
     [21.388707200000002, 45.103041700000006],
     [21.3885435, 45.1030515], [21.388212000000003, 45.1030524],
     [21.388003700000002, 45.1030652],
     [21.387741000000002, 45.1031525], [21.3874965, 45.1032633],
     [21.3873697, 45.103404000000005],
     [21.387223900000002, 45.103473300000005],
     [21.3870593, 45.103570000000005], [21.386854, 45.103649600000004],
     [21.3862858, 45.1038195],
     [21.384990600000002, 45.104019900000004],
     [21.3832425, 45.1043139], [21.382569200000002, 45.1044077],
     [21.382446400000003, 45.1044433], [21.3823329, 45.1045114]]}},
  {"type":"Feature",
   "properties":{},
   "geometry":
   {"type":"LineString",
    "coordinates":
    [[21.3888995, 45.1029647], [21.390086, 45.103276300000005],
     [21.3906606, 45.103427200000006],
     [21.391972300000003, 45.103767000000005], [21.39206, 45.1037897],
     [21.392594900000002, 45.1038784], [21.3933715, 45.1039149],
     [21.3939524, 45.103907400000004]]}}]}
