{"type":"FeatureCollection",
 "properties":{},
 "features":
 [{"type":"Feature",
   "properties":{},
   "geometry":
   {"type":"LineString",
    "coordinates":
    [[21.266477100000003, 43.9656565], [21.266577400000003, 43.965609],
     [21.266671300000002, 43.965504800000005],
     [21.2667222, 43.9654237]]}},
  {"type":"Feature",
   "properties":{},
   "geometry":
   {"type":"LineString",
    "coordinates":
    [[21.2667222, 43.9654237], [21.266784700000002, 43.9653282],
     [21.2669724, 43.9652066],
     [21.267042200000002, 43.965148600000006],
     [21.2671843, 43.964936300000005],
     [21.2672567, 43.964758700000004], [21.2672728, 43.9645328],
     [21.267246, 43.964320400000005], [21.2673506, 43.9641351],
     [21.267433800000003, 43.964011500000005],
     [21.2674284, 43.963810800000005],
     [21.267449900000003, 43.9636331], [21.2676644, 43.9633629],
     [21.2679246, 43.9630791], [21.2680694, 43.962864800000006],
     [21.2682492, 43.9626311],
     [21.268510600000003, 43.962507300000006]]}},
  {"type":"Feature",
   "properties":{},
   "geometry":
   {"type":"LineString",
    "coordinates":
    [[21.268510600000003, 43.962507300000006],
     [21.268289900000003, 43.9622952], [21.2680748, 43.9620787],
     [21.267858200000003, 43.961946100000006],
     [21.2677342, 43.9618702],
     [21.267447200000003, 43.961733200000005],
     [21.2673157, 43.961690700000005], [21.2671227, 43.9616758],
     [21.267039500000003, 43.961669400000005],
     [21.266446700000003, 43.9616617],
     [21.266299200000002, 43.9616598],
     [21.2662134, 43.961636600000006],
     [21.266178500000002, 43.9615845],
     [21.266154800000002, 43.9614843],
     [21.2660583, 43.961268100000005],
     [21.265822200000002, 43.9610441], [21.2655326, 43.960797],
     [21.2652129, 43.9606056], [21.2649098, 43.9603971],
     [21.2647923, 43.9603027], [21.2647596, 43.960223400000004],
     [21.264749400000003, 43.9601174], [21.2647532, 43.9599982],
     [21.264829000000002, 43.9598728],
     [21.2648964, 43.959783200000004],
     [21.265180700000002, 43.959592]]}},
  {"type":"Feature",
   "properties":{},
   "geometry":
   {"type":"LineString",
    "coordinates":
    [[21.265180700000002, 43.959592], [21.2652666, 43.9594761],
     [21.265312100000003, 43.9593719], [21.2653497, 43.9592329],
     [21.2653983, 43.9589252], [21.2654409, 43.9578775],
     [21.265422400000002, 43.9577693]]}},
  {"type":"Feature",
   "properties":{},
   "geometry":
   {"type":"LineString",
    "coordinates":
    [[21.265422400000002, 43.9577693], [21.264504900000002, 43.957295],
     [21.2644018, 43.9572337], [21.2641576, 43.957063700000006],
     [21.2638639, 43.9567763], [21.2636244, 43.9561099],
     [21.2634998, 43.9560271]]}},
  {"type":"Feature",
   "properties":{},
   "geometry":
   {"type":"LineString",
    "coordinates":
    [[21.2634998, 43.9560271], [21.263355, 43.9560339],
     [21.263205600000003, 43.956050700000006],
     [21.2630468, 43.956044000000006], [21.26286, 43.9560137],
     [21.262673200000002, 43.9559767],
     [21.262495700000002, 43.9558994],
     [21.2622389, 43.955744800000005], [21.2621502, 43.9556473],
     [21.2621502, 43.955533], [21.262182900000003, 43.9554624],
     [21.2622062, 43.9552707], [21.2621782, 43.9550253],
     [21.2621362, 43.9548606], [21.2620194, 43.9545984],
     [21.2617532, 43.954043600000006],
     [21.2613749, 43.953515800000005],
     [21.2612208, 43.953260300000004], [21.2611601, 43.953183],
     [21.2610667, 43.953062], [21.260936, 43.9529678],
     [21.2607678, 43.9528703], [21.2606511, 43.952830000000006]]}},
  {"type":"Feature",
   "properties":{},
   "geometry":
   {"type":"LineString",
    "coordinates":
    [[21.2606511, 43.952830000000006], [21.2605343, 43.9528132],
     [21.2604036, 43.952803100000004],
     [21.260272800000003, 43.9528199], [21.2602121, 43.9528535],
     [21.260062700000002, 43.9530048]]}},
  {"type":"Feature",
   "properties":{},
   "geometry":
   {"type":"LineString",
    "coordinates":
    [[21.260062700000002, 43.9530048],
     [21.260067300000003, 43.9530821],
     [21.260090700000003, 43.9532133],
     [21.260128100000003, 43.9534688],
     [21.260193400000002, 43.953966300000005],
     [21.2601981, 43.9544841], [21.260310200000003, 43.9547496],
     [21.2604176, 43.954948], [21.260669800000002, 43.9551564],
     [21.2608265, 43.955306900000004],
     [21.260865900000002, 43.955344700000005],
     [21.260931300000003, 43.9554556], [21.2609126, 43.9555968],
     [21.2608052, 43.955771600000006],
     [21.2606791, 43.955993500000005], [21.2605904, 43.9562255],
     [21.260589900000003, 43.956376600000006],
     [21.2607716, 43.9568187], [21.2610661, 43.9571885],
     [21.261893200000003, 43.957883100000004],
     [21.262294200000003, 43.9583838], [21.262407, 43.9608014],
     [21.2622097, 43.961882700000004]]}},
  {"type":"Feature",
   "properties":{},
   "geometry":
   {"type":"LineString",
    "coordinates":
    [[21.2622097, 43.961882700000004],
     [21.2622499, 43.962363100000005], [21.2622913, 43.9626408],
     [21.262700300000002, 43.9630311],
     [21.2636693, 43.963933100000006]]}},
  {"type":"Feature",
   "properties":{},
   "geometry":
   {"type":"LineString",
    "coordinates":
    [[21.2636693, 43.963933100000006], [21.2648626, 43.9649287],
     [21.2654135, 43.965306000000005]]}},
  {"type":"Feature",
   "properties":{},
   "geometry":
   {"type":"LineString",
    "coordinates":
    [[21.2654135, 43.965306000000005], [21.2655166, 43.9653676],
     [21.2656981, 43.965476100000004],
     [21.2658011, 43.965537600000005],
     [21.266222600000003, 43.9657463],
     [21.266327500000003, 43.9657982]]}},
  {"type":"Feature",
   "properties":{},
   "geometry":
   {"type":"LineString",
    "coordinates":
    [[21.266327500000003, 43.9657982],
     [21.2664358, 43.965751600000004]]}},
  {"type":"Feature",
   "properties":{},
   "geometry":
   {"type":"LineString",
    "coordinates":
    [[21.2664358, 43.965751600000004],
     [21.266477100000003, 43.9656565]]}}]}
