{"type":"FeatureCollection",
 "properties":{},
 "features":
 [{"type":"Feature",
   "properties":{},
   "geometry":
   {"type":"LineString",
    "coordinates":
    [[21.1854266, 43.792235600000005], [21.1855459, 43.7922056],
     [21.1856934, 43.792147500000006],
     [21.1857712, 43.792101100000004],
     [21.1858463, 43.792039100000004], [21.1859053, 43.7919752],
     [21.1860073, 43.7918861],
     [21.186055500000002, 43.791841600000005]]}},
  {"type":"Feature",
   "properties":{},
   "geometry":
   {"type":"LineString",
    "coordinates":
    [[21.186055500000002, 43.791841600000005],
     [21.1861052, 43.791825200000005], [21.1861481, 43.7918126],
     [21.1862071, 43.7918], [21.186254, 43.791777700000004],
     [21.1863171, 43.7917709], [21.1864217, 43.7917767],
     [21.1865115, 43.7918068], [21.1865786, 43.7918474],
     [21.186661700000002, 43.7919113], [21.1867395, 43.79195],
     [21.186811900000002, 43.7919597], [21.186879, 43.791955800000004],
     [21.186913800000003, 43.7919345], [21.1869058, 43.7918881],
     [21.186879, 43.791830000000004], [21.1867771, 43.7917312],
     [21.1866188, 43.7915725], [21.1865598, 43.791466],
     [21.1865115, 43.791189100000004],
     [21.186524900000002, 43.7910149],
     [21.186551700000003, 43.7907457], [21.1865598, 43.7906721],
     [21.1865947, 43.7905773], [21.1866671, 43.790507600000005],
     [21.1867288, 43.790443700000004],
     [21.186889700000002, 43.790288800000006],
     [21.187066700000003, 43.790066100000004],
     [21.1871687, 43.7899151], [21.187292000000003, 43.7897021],
     [21.187394, 43.7895704], [21.1875173, 43.789462],
     [21.1876032, 43.7893787],
     [21.187670200000003, 43.789291600000006],
     [21.1877131, 43.7892084], [21.187748000000003, 43.7891173],
     [21.187777500000003, 43.789018600000006],
     [21.1878312, 43.788914000000005],
     [21.1879224, 43.788764900000004],
     [21.187992100000002, 43.788660400000005],
     [21.1880591, 43.7885713]]}},
  {"type":"Feature",
   "properties":{},
   "geometry":
   {"type":"LineString",
    "coordinates":
    [[21.1880591, 43.7885713],
     [21.188308600000003, 43.788356400000005],
     [21.188491000000003, 43.7881841],
     [21.188630500000002, 43.788033000000006],
     [21.188702900000003, 43.787926500000005],
     [21.1887833, 43.7878162], [21.1888209, 43.7877135],
     [21.188845, 43.7876283], [21.188855800000002, 43.7875412],
     [21.188882600000003, 43.787465700000006],
     [21.1889121, 43.787403700000006],
     [21.188944300000003, 43.7873437], [21.1890542, 43.7872217],
     [21.189140100000003, 43.787121000000006],
     [21.1892152, 43.7869777],
     [21.189293000000003, 43.786815100000005]]}},
  {"type":"Feature",
   "properties":{},
   "geometry":
   {"type":"LineString",
    "coordinates":
    [[21.189293000000003, 43.786815100000005],
     [21.18936, 43.786708600000004], [21.189475400000003, 43.7865924],
     [21.1896336, 43.786468500000005], [21.1899394, 43.7862865],
     [21.1901915, 43.7861877], [21.1904141, 43.786114100000006],
     [21.1907065, 43.7860522], [21.1908889, 43.7859786],
     [21.1910659, 43.7858643], [21.191240200000003, 43.7857191],
     [21.191473600000002, 43.7854771],
     [21.191822300000002, 43.7851982], [21.191940300000002, 43.785113],
     [21.1920664, 43.785076200000006], [21.1922353, 43.7850588],
     [21.1924794, 43.785043300000005],
     [21.1926725, 43.785031700000005]]}},
  {"type":"Feature",
   "properties":{},
   "geometry":
   {"type":"LineString",
    "coordinates":
    [[21.1926725, 43.785031700000005],
     [21.193085800000002, 43.785074900000005],
     [21.1937564, 43.7852879], [21.1941373, 43.7855281],
     [21.194496700000002, 43.7857294],
     [21.194748800000003, 43.7858998],
     [21.1949097, 43.785996700000005],
     [21.195135, 43.785977300000006]]}},
  {"type":"Feature",
   "properties":{},
   "geometry":
   {"type":"LineString",
    "coordinates":
    [[21.195135, 43.785977300000006], [21.195129700000003, 43.7857256],
     [21.195435500000002, 43.785586200000004],
     [21.195510600000002, 43.7852802], [21.1954569, 43.7849045],
     [21.195473, 43.7845482], [21.195537400000003, 43.7842229],
     [21.1956929, 43.783889900000005],
     [21.195735900000003, 43.783595500000004],
     [21.1959075, 43.783239200000004],
     [21.196084600000002, 43.7830766], [21.1964279, 43.7829526],
     [21.196857, 43.782937100000005], [21.1972969, 43.7830262],
     [21.1973559, 43.7833941], [21.1973559, 43.783734900000006],
     [21.197441700000002, 43.7840099],
     [21.197457800000002, 43.784381700000004],
     [21.197651, 43.784602500000005], [21.198096200000002, 43.7846799],
     [21.198278600000002, 43.7847303], [21.1984932, 43.7846489],
     [21.1987346, 43.7845986], [21.199002800000002, 43.7846799],
     [21.1991315, 43.784978100000004]]}},
  {"type":"Feature",
   "properties":{},
   "geometry":
   {"type":"LineString",
    "coordinates":
    [[21.1991315, 43.784978100000004],
     [21.199228100000003, 43.7853422], [21.1993568, 43.7857101],
     [21.199641200000002, 43.786070200000005],
     [21.1995982, 43.7864924], [21.1994212, 43.786875800000004],
     [21.1991905, 43.787174], [21.1989813, 43.7874799],
     [21.1989492, 43.7877123],
     [21.199169100000002, 43.788029800000004],
     [21.199399800000002, 43.7881963],
     [21.1994641, 43.788618400000004],
     [21.199576800000003, 43.7889205],
     [21.1995714, 43.789594300000005], [21.1996036, 43.7900203],
     [21.199394400000003, 43.7903262], [21.1995392, 43.7905237],
     [21.2001561, 43.790705700000004],
     [21.200665800000003, 43.790938100000005],
     [21.2010735, 43.791213000000006], [21.20117, 43.7915189],
     [21.2015724, 43.791588600000004],
     [21.2018084, 43.791619600000004], [21.2019103, 43.7919178],
     [21.2018996, 43.792239200000004], [21.2020459, 43.7926171]]}},
  {"type":"Feature",
   "properties":{},
   "geometry":
   {"type":"LineString",
    "coordinates":
    [[21.2020459, 43.7926171], [21.201783300000002, 43.7927034],
     [21.2011109, 43.7929742], [21.2006225, 43.7932501],
     [21.199904, 43.7937176], [21.1995572, 43.7939067],
     [21.1987148, 43.7943512], [21.1980848, 43.7945786],
     [21.1965347, 43.7951253], [21.195933, 43.7953526],
     [21.195526, 43.7954778]]}},
  {"type":"Feature",
   "properties":{},
   "geometry":
   {"type":"LineString",
    "coordinates":
    [[21.195526, 43.7954778], [21.194769400000002, 43.795563800000004],
     [21.1946589, 43.795585100000004], [21.194351, 43.795585100000004],
     [21.1940749, 43.7956592], [21.193802400000003, 43.7957588],
     [21.1934273, 43.795830300000006], [21.1930051, 43.7958319],
     [21.1927047, 43.795824200000006],
     [21.192291700000002, 43.795781600000005],
     [21.191833000000003, 43.795648],
     [21.191621100000003, 43.795572500000006],
     [21.191457500000002, 43.795508600000005],
     [21.191393100000003, 43.7954157],
     [21.1912188, 43.795224000000005], [21.1911303, 43.7951659],
     [21.1910069, 43.7951253], [21.190894200000002, 43.7950904],
     [21.1903095, 43.7950517], [21.189958200000003, 43.7950304],
     [21.189757, 43.7950304]]}},
  {"type":"Feature",
   "properties":{},
   "geometry":
   {"type":"LineString",
    "coordinates":
    [[21.189757, 43.7950304], [21.189368100000003, 43.795076900000005],
     [21.188767300000002, 43.7951775],
     [21.1885178, 43.795224000000005],
     [21.1884038, 43.795224000000005], [21.1883528, 43.795222],
     [21.188322000000003, 43.7952104],
     [21.1882914, 43.795182000000004],
     [21.188265700000002, 43.7951582], [21.188201300000003, 43.795073],
     [21.1880713, 43.7948697],
     [21.188017600000002, 43.794805800000006],
     [21.187848600000002, 43.7946645],
     [21.187707800000002, 43.794568600000005],
     [21.187536100000003, 43.7944796],
     [21.1872331, 43.794360600000005], [21.1870426, 43.7942734],
     [21.1868978, 43.7941786]]}}]}
