{"type":"FeatureCollection",
 "properties":{},
 "features":
 [{"type":"Feature",
   "properties":{},
   "geometry":
   {"type":"LineString",
    "coordinates":
    [[19.991675100000002, 44.1047547], [19.9916106, 44.1047049],
     [19.9915649, 44.1046697], [19.9915279, 44.104642500000004],
     [19.991454700000002, 44.1045985]]}},
  {"type":"Feature",
   "properties":{},
   "geometry":
   {"type":"LineString",
    "coordinates":
    [[19.991454700000002, 44.1045985],
     [19.9913059, 44.104516800000006]]}},
  {"type":"Feature",
   "properties":{},
   "geometry":
   {"type":"LineString",
    "coordinates":
    [[19.9913059, 44.104516800000006], [19.9910035, 44.1042987],
     [19.9908524, 44.104189700000006],
     [19.990744900000003, 44.1041108]]}},
  {"type":"Feature",
   "properties":{},
   "geometry":
   {"type":"LineString",
    "coordinates":
    [[19.990744900000003, 44.1041108],
     [19.990713600000003, 44.1040884], [19.9904192, 44.1038774]]}},
  {"type":"Feature",
   "properties":{},
   "geometry":
   {"type":"LineString",
    "coordinates":
    [[19.9904192, 44.1038774], [19.990007300000002, 44.1036433]]}},
  {"type":"Feature",
   "properties":{},
   "geometry":
   {"type":"LineString",
    "coordinates":
    [[19.990007300000002, 44.1036433], [19.9899375, 44.1034427],
     [19.989819200000003, 44.103238600000005],
     [19.9898145, 44.103094600000006]]}},
  {"type":"Feature",
   "properties":{},
   "geometry":
   {"type":"LineString",
    "coordinates":
    [[19.9898145, 44.103094600000006],
     [19.989806100000003, 44.102982000000004]]}},
  {"type":"Feature",
   "properties":{},
   "geometry":
   {"type":"LineString",
    "coordinates":
    [[19.989806100000003, 44.102982000000004],
     [19.9898135, 44.1028426]]}},
  {"type":"Feature",
   "properties":{},
   "geometry":
   {"type":"LineString",
    "coordinates":
    [[19.9898135, 44.1028426], [19.989636700000002, 44.1028065],
     [19.989460700000002, 44.102615], [19.9889903, 44.102483500000005],
     [19.9888547, 44.1024576], [19.9878459, 44.1022114],
     [19.987521100000002, 44.102133300000006],
     [19.9869443, 44.1023402], [19.986643400000002, 44.1026937]]}},
  {"type":"Feature",
   "properties":{},
   "geometry":
   {"type":"LineString",
    "coordinates":
    [[19.986643400000002, 44.1026937],
     [19.9865016, 44.102655000000006]]}},
  {"type":"Feature",
   "properties":{},
   "geometry":
   {"type":"LineString",
    "coordinates":
    [[19.9865016, 44.102655000000006], [19.9864141, 44.1026479],
     [19.9861867, 44.102629500000006],
     [19.9850296, 44.102619000000004],
     [19.984699900000003, 44.1026481],
     [19.984535700000002, 44.102631300000006]]}},
  {"type":"Feature",
   "properties":{},
   "geometry":
   {"type":"LineString",
    "coordinates":
    [[19.984535700000002, 44.102631300000006],
     [19.984391900000002, 44.1025902]]}},
  {"type":"Feature",
   "properties":{},
   "geometry":
   {"type":"LineString",
    "coordinates":
    [[19.984391900000002, 44.1025902],
     [19.9843124, 44.102560600000004],
     [19.983955700000003, 44.1024837],
     [19.983651100000003, 44.102381300000005],
     [19.9834763, 44.102314500000006],
     [19.983400200000002, 44.1023123]]}},
  {"type":"Feature",
   "properties":{},
   "geometry":
   {"type":"LineString",
    "coordinates":
    [[19.983400200000002, 44.1023123], [19.9831331, 44.1021876],
     [19.9828595, 44.102079700000004], [19.9824708, 44.1019215]]}},
  {"type":"Feature",
   "properties":{},
   "geometry":
   {"type":"LineString",
    "coordinates":
    [[19.981977500000003, 44.1016483], [19.9824708, 44.1019215]]}},
  {"type":"Feature",
   "properties":{},
   "geometry":
   {"type":"LineString",
    "coordinates":
    [[19.981977500000003, 44.1016483],
     [19.9816471, 44.101533700000005], [19.981303800000003, 44.101422],
     [19.980944400000002, 44.1013025],
     [19.980684200000002, 44.1012159]]}},
  {"type":"Feature",
   "properties":{},
   "geometry":
   {"type":"LineString",
    "coordinates":
    [[19.9776901, 44.099438600000006],
     [19.9780069, 44.099614100000004],
     [19.978509000000003, 44.100011300000006],
     [19.9789384, 44.100387500000004],
     [19.979373900000002, 44.100718400000005],
     [19.9798844, 44.100915400000005],
     [19.980684200000002, 44.1012159]]}},
  {"type":"Feature",
   "properties":{},
   "geometry":
   {"type":"LineString",
    "coordinates":
    [[19.9781204, 44.098871800000005],
     [19.978071200000002, 44.0989061],
     [19.9779912, 44.098961800000005],
     [19.977862000000002, 44.0991069],
     [19.9776901, 44.099438600000006]]}},
  {"type":"Feature",
   "properties":{},
   "geometry":
   {"type":"LineString",
    "coordinates":
    [[19.9781204, 44.098871800000005],
     [19.978170900000002, 44.0988933], [19.9782866, 44.0989244],
     [19.9783452, 44.098937], [19.9784173, 44.098949600000005],
     [19.9784766, 44.098953400000006],
     [19.978542700000002, 44.0989572], [19.9786581, 44.0989579]]}},
  {"type":"Feature",
   "properties":{},
   "geometry":
   {"type":"LineString",
    "coordinates":
    [[19.9786581, 44.0989579], [19.9787936, 44.098951500000005],
     [19.9788789, 44.098944700000004], [19.9789616, 44.0989352],
     [19.97906, 44.0989221], [19.9791315, 44.098907700000005],
     [19.979199400000002, 44.0988886],
     [19.9792773, 44.098864600000006],
     [19.9793653, 44.098832800000004],
     [19.9795136, 44.098779300000004],
     [19.979734500000003, 44.0986904],
     [19.979865500000002, 44.0986376], [19.9800006, 44.0985856],
     [19.9801167, 44.098545200000004],
     [19.980249500000003, 44.0985047]]}},
  {"type":"Feature",
   "properties":{},
   "geometry":
   {"type":"LineString",
    "coordinates":
    [[19.980249500000003, 44.0985047],
     [19.980348600000003, 44.098480300000006],
     [19.9804099, 44.098468100000005],
     [19.9804812, 44.098455900000005],
     [19.9805607, 44.098447300000004]]}},
  {"type":"Feature",
   "properties":{},
   "geometry":
   {"type":"LineString",
    "coordinates":
    [[19.9805607, 44.098447300000004],
     [19.980628900000003, 44.0984429], [19.9807004, 44.098441],
     [19.980789100000003, 44.0984454],
     [19.980862000000002, 44.098457200000006],
     [19.9809482, 44.0984739], [19.981039300000003, 44.0985012],
     [19.981158800000003, 44.098546500000005],
     [19.9812616, 44.0985906],
     [19.981366100000002, 44.098640700000004],
     [19.9814961, 44.098710700000005], [19.9816261, 44.0987735],
     [19.9817411, 44.098818200000004]]}},
  {"type":"Feature",
   "properties":{},
   "geometry":
   {"type":"LineString",
    "coordinates":
    [[19.9817411, 44.098818200000004], [19.9818053, 44.0988405],
     [19.9818728, 44.0988629], [19.9819311, 44.0988801],
     [19.9820096, 44.098898500000004],
     [19.982083000000003, 44.0989158], [19.9821665, 44.0989342],
     [19.9822832, 44.0989542],
     [19.982391800000002, 44.098966600000004], [19.9825105, 44.098979],
     [19.982711600000002, 44.0989975]]}},
  {"type":"Feature",
   "properties":{},
   "geometry":
   {"type":"LineString",
    "coordinates":
    [[19.982711600000002, 44.0989975], [19.982834, 44.099015200000004],
     [19.9829241, 44.0990314], [19.98309, 44.0990611],
     [19.9831469, 44.0990711]]}},
  {"type":"Feature",
   "properties":{},
   "geometry":
   {"type":"LineString",
    "coordinates":
    [[19.9831469, 44.0990711], [19.9832337, 44.0990893],
     [19.9835043, 44.0991385],
     [19.983598200000003, 44.099157600000005],
     [19.983675400000003, 44.0991671], [19.9837625, 44.0991767],
     [19.9838732, 44.099179]]}},
  {"type":"Feature",
   "properties":{},
   "geometry":
   {"type":"LineString",
    "coordinates":
    [[19.9838732, 44.099179], [19.9839704, 44.0991729],
     [19.984084300000003, 44.0991596],
     [19.984205000000003, 44.099141200000005]]}},
  {"type":"Feature",
   "properties":{},
   "geometry":
   {"type":"LineString",
    "coordinates":
    [[19.984205000000003, 44.099141200000005],
     [19.9842198, 44.099138200000006],
     [19.9842871, 44.099124800000006],
     [19.9843726, 44.099108400000006], [19.9844748, 44.0990811],
     [19.984549400000002, 44.099056600000004],
     [19.984634, 44.0990248]]}},
  {"type":"Feature",
   "properties":{},
   "geometry":
   {"type":"LineString",
    "coordinates":
    [[19.984634, 44.0990248], [19.9846866, 44.0989985],
     [19.9847559, 44.098957600000006], [19.9848326, 44.0989025],
     [19.984969200000002, 44.098787300000005],
     [19.985145900000003, 44.0986385],
     [19.985196900000002, 44.0985956],
     [19.985282700000003, 44.098523400000005],
     [19.985322800000002, 44.0985029]]}},
  {"type":"Feature",
   "properties":{},
   "geometry":
   {"type":"LineString",
    "coordinates":
    [[19.985322800000002, 44.0985029], [19.9853931, 44.0984752],
     [19.985461700000002, 44.098456500000005],
     [19.9855763, 44.0984399], [19.9857111, 44.0984282]]}},
  {"type":"Feature",
   "properties":{},
   "geometry":
   {"type":"LineString",
    "coordinates":
    [[19.985763600000002, 44.098063700000004],
     [19.985727400000002, 44.098074000000004],
     [19.9856918, 44.0980969],
     [19.985672100000002, 44.098121500000005],
     [19.9856574, 44.0981509], [19.9856537, 44.0981783],
     [19.9856617, 44.0982154], [19.9856777, 44.0982799],
     [19.9856975, 44.098367700000004], [19.9857111, 44.0984282]]}},
  {"type":"Feature",
   "properties":{},
   "geometry":
   {"type":"LineString",
    "coordinates":
    [[19.9866764, 44.0979873], [19.9866052, 44.0980313],
     [19.986510000000003, 44.098049100000004],
     [19.986416000000002, 44.0980549],
     [19.986338500000002, 44.0980653], [19.9862669, 44.0980678],
     [19.9861969, 44.0980676],
     [19.986127500000002, 44.098066900000006],
     [19.986040000000003, 44.0980616],
     [19.985912000000003, 44.0980532],
     [19.9858367, 44.098055800000004],
     [19.985763600000002, 44.098063700000004]]}},
  {"type":"Feature",
   "properties":{},
   "geometry":
   {"type":"LineString",
    "coordinates":
    [[19.9867628, 44.098009700000006], [19.9866764, 44.0979873]]}},
  {"type":"Feature",
   "properties":{},
   "geometry":
   {"type":"LineString",
    "coordinates":
    [[19.988385100000002, 44.098421], [19.9879374, 44.0982879],
     [19.9875283, 44.098124500000004], [19.9872365, 44.0980432],
     [19.9870287, 44.0980483], [19.986934, 44.098038100000004],
     [19.9868223, 44.098022400000005],
     [19.9867628, 44.098009700000006]]}},
  {"type":"Feature",
   "properties":{},
   "geometry":
   {"type":"LineString",
    "coordinates":
    [[19.9914352, 44.098082100000006],
     [19.991250700000002, 44.0982283], [19.9909614, 44.0983211],
     [19.990745500000003, 44.098426100000005], [19.99049, 44.0985036],
     [19.9903002, 44.098530000000004],
     [19.989902500000003, 44.098548900000004],
     [19.9895305, 44.0986033],
     [19.989262500000002, 44.098584300000006],
     [19.988928400000002, 44.0985208], [19.9887471, 44.0985042],
     [19.988385100000002, 44.098421]]}},
  {"type":"Feature",
   "properties":{},
   "geometry":
   {"type":"LineString",
    "coordinates":
    [[19.9914352, 44.098082100000006],
     [19.9914238, 44.098057700000005],
     [19.9913694, 44.097955000000006], [19.9913411, 44.0977757],
     [19.9912469, 44.097664800000004]]}},
  {"type":"Feature",
   "properties":{},
   "geometry":
   {"type":"LineString",
    "coordinates":
    [[19.9912469, 44.097664800000004],
     [19.991221200000002, 44.097574400000006],
     [19.991213700000003, 44.0974869],
     [19.991169600000003, 44.097249100000006],
     [19.991026400000003, 44.0969804]]}},
  {"type":"Feature",
   "properties":{},
   "geometry":
   {"type":"LineString",
    "coordinates":
    [[19.991026400000003, 44.0969804],
     [19.990972900000003, 44.0967744], [19.9910515, 44.0966557],
     [19.9910731, 44.096406200000004],
     [19.9911795, 44.096301100000005], [19.9910952, 44.0960182]]}},
  {"type":"Feature",
   "properties":{},
   "geometry":
   {"type":"LineString",
    "coordinates":
    [[19.9910952, 44.0960182], [19.9912484, 44.095949600000004],
     [19.991535900000002, 44.095857900000006], [19.991703, 44.0957214],
     [19.9918009, 44.0956011], [19.9919172, 44.095553800000005],
     [19.992127500000002, 44.09554],
     [19.992439400000002, 44.0955609]]}},
  {"type":"Feature",
   "properties":{},
   "geometry":
   {"type":"LineString",
    "coordinates":
    [[19.992439400000002, 44.0955609], [19.9930051, 44.0956837],
     [19.9942981, 44.0958954], [19.994574500000002, 44.0959353],
     [19.994865700000002, 44.0960235],
     [19.9951082, 44.096135700000005], [19.995345, 44.096132700000005],
     [19.995946800000002, 44.096288],
     [19.996249000000002, 44.096319400000006],
     [19.9965522, 44.0962886]]}},
  {"type":"Feature",
   "properties":{},
   "geometry":
   {"type":"LineString",
    "coordinates":
    [[19.9965522, 44.0962886],
     [19.996931800000002, 44.096089600000006],
     [19.997118, 44.095928400000005]]}},
  {"type":"Feature",
   "properties":{},
   "geometry":
   {"type":"LineString",
    "coordinates":
    [[19.997118, 44.095928400000005], [19.997378100000002, 44.0959245],
     [19.9976248, 44.0960169], [19.9979862, 44.0961269],
     [19.998158500000002, 44.096140500000004],
     [19.998279200000002, 44.0962036],
     [19.998467700000003, 44.096412300000004],
     [19.9986883, 44.096583200000005],
     [19.999111000000003, 44.096772900000005],
     [19.9993932, 44.097016700000005]]}},
  {"type":"Feature",
   "properties":{},
   "geometry":
   {"type":"LineString",
    "coordinates":
    [[19.999861000000003, 44.0971581], [19.999828100000002, 44.097109],
     [19.9996994, 44.0970628], [19.9995143, 44.096997300000005],
     [19.9993932, 44.097016700000005]]}},
  {"type":"Feature",
   "properties":{},
   "geometry":
   {"type":"LineString",
    "coordinates":
    [[20.0010957, 44.0980457], [20.000879700000002, 44.0977425],
     [20.0004372, 44.097451500000005], [20.000216, 44.0971728],
     [20.000066500000003, 44.0970863],
     [19.999861000000003, 44.0971581]]}},
  {"type":"Feature",
   "properties":{},
   "geometry":
   {"type":"LineString",
    "coordinates":
    [[20.0058219, 44.099588700000005],
     [20.0057639, 44.099417900000006], [20.0056046, 44.0992516],
     [20.0054248, 44.0989859], [20.0052574, 44.0989591],
     [20.005095400000002, 44.0988094],
     [20.004995400000002, 44.098798900000006],
     [20.0045666, 44.098748400000005],
     [20.0041213, 44.098609700000004], [20.0039039, 44.0985675],
     [20.0036922, 44.098471100000005],
     [20.003549800000002, 44.0984793], [20.0034132, 44.0985327],
     [20.003381700000002, 44.098563500000004],
     [20.0033214, 44.0986227], [20.0032594, 44.0987288],
     [20.003151600000002, 44.098748300000004],
     [20.0030161, 44.098631000000005], [20.0027772, 44.098612],
     [20.0026358, 44.098531300000005],
     [20.002435300000002, 44.098533100000004],
     [20.002278, 44.098491300000006], [20.0021287, 44.0984168],
     [20.0019935, 44.0983929], [20.0018461, 44.0983141],
     [20.0016961, 44.0982933], [20.0016323, 44.098240000000004],
     [20.0013305, 44.0981225], [20.0010957, 44.0980457]]}},
  {"type":"Feature",
   "properties":{},
   "geometry":
   {"type":"LineString",
    "coordinates":
    [[20.0058219, 44.099588700000005],
     [20.005888000000002, 44.0996341], [20.0060587, 44.0997957],
     [20.006486000000002, 44.1002542],
     [20.006807300000002, 44.100381600000006],
     [20.006887300000002, 44.1004974], [20.0070644, 44.1005975],
     [20.0073283, 44.1007052], [20.007552500000003, 44.100821],
     [20.00776, 44.1010246], [20.008042, 44.101067]]}},
  {"type":"Feature",
   "properties":{},
   "geometry":
   {"type":"LineString",
    "coordinates":
    [[20.008042, 44.101067], [20.008328900000002, 44.1011454],
     [20.008538400000003, 44.101239500000005],
     [20.0088453, 44.1012471], [20.009783000000002, 44.1011347],
     [20.010529100000003, 44.101054000000005],
     [20.0110435, 44.1010338],
     [20.011197900000003, 44.101077100000005],
     [20.011338000000002, 44.1011164],
     [20.011451400000002, 44.1011669],
     [20.0115842, 44.101226000000004]]}},
  {"type":"Feature",
   "properties":{},
   "geometry":
   {"type":"LineString",
    "coordinates":
    [[20.0138004, 44.100038000000005],
     [20.013697500000003, 44.100153600000006],
     [20.0136195, 44.1001697], [20.0135951, 44.100199100000005],
     [20.0135599, 44.1002232], [20.0135213, 44.100249600000005],
     [20.013415000000002, 44.1003048],
     [20.013388000000003, 44.100368100000004],
     [20.0134033, 44.1004012], [20.0133625, 44.100517100000005],
     [20.0133811, 44.100563900000004], [20.013342, 44.1006434],
     [20.013304700000003, 44.1006659],
     [20.013311700000003, 44.1007358], [20.0131738, 44.1009115],
     [20.013127, 44.1009492], [20.0131075, 44.1010768],
     [20.013051400000002, 44.1011352],
     [20.013027100000002, 44.101215100000005],
     [20.0128701, 44.1011533], [20.012789, 44.1011084],
     [20.0126843, 44.1011388], [20.012610300000002, 44.1011936],
     [20.012418, 44.1012454], [20.01226, 44.101237700000006],
     [20.0121048, 44.1012302], [20.011760300000002, 44.1011947],
     [20.0115842, 44.101226000000004]]}}]}
