{"type":"FeatureCollection",
 "properties":{},
 "features":
 [{"type":"Feature",
   "properties":{},
   "geometry":
   {"type":"LineString",
    "coordinates":
    [[19.9929875, 44.1058114], [19.992933400000002, 44.1057007],
     [19.992842200000002, 44.1055274], [19.9927996, 44.1054465],
     [19.992698800000003, 44.105343700000006], [19.992649, 44.1052929],
     [19.992627600000002, 44.105281100000006],
     [19.9917321, 44.1047862], [19.991675100000002, 44.1047547]]}},
  {"type":"Feature",
   "properties":{},
   "geometry":
   {"type":"LineString",
    "coordinates":
    [[19.9933289, 44.1058619], [19.993228900000002, 44.1058229],
     [19.9929875, 44.1058114]]}},
  {"type":"Feature",
   "properties":{},
   "geometry":
   {"type":"LineString",
    "coordinates":
    [[19.9944841, 44.106543200000004], [19.9943564, 44.1064905],
     [19.994232, 44.106439200000004],
     [19.993604400000002, 44.105969300000005],
     [19.9933289, 44.1058619]]}},
  {"type":"Feature",
   "properties":{},
   "geometry":
   {"type":"LineString",
    "coordinates":
    [[19.9952691, 44.1065909], [19.9944841, 44.106543200000004]]}},
  {"type":"Feature",
   "properties":{},
   "geometry":
   {"type":"LineString",
    "coordinates":
    [[19.995382300000003, 44.106588300000006],
     [19.9952691, 44.1065909]]}},
  {"type":"Feature",
   "properties":{},
   "geometry":
   {"type":"LineString",
    "coordinates":
    [[19.996806900000003, 44.106439200000004],
     [19.996613800000002, 44.106381500000005], [19.995718, 44.1064893],
     [19.995498, 44.1065856],
     [19.995382300000003, 44.106588300000006]]}},
  {"type":"Feature",
   "properties":{},
   "geometry":
   {"type":"LineString",
    "coordinates":
    [[19.996806900000003, 44.106439200000004],
     [19.997143400000002, 44.106426000000006]]}},
  {"type":"Feature",
   "properties":{},
   "geometry":
   {"type":"LineString",
    "coordinates":
    [[19.997949600000002, 44.1057775], [19.9976835, 44.1059008],
     [19.997143400000002, 44.106426000000006]]}},
  {"type":"Feature",
   "properties":{},
   "geometry":
   {"type":"LineString",
    "coordinates":
    [[19.9982194, 44.105200700000005],
     [19.998707500000002, 44.1054909], [19.9987007, 44.1055518],
     [19.9983958, 44.1056201], [19.998140900000003, 44.1057034],
     [19.998090100000002, 44.105723100000006],
     [19.997949600000002, 44.1057775]]}},
  {"type":"Feature",
   "properties":{},
   "geometry":
   {"type":"LineString",
    "coordinates":
    [[19.9993729, 44.104909500000005],
     [19.999302500000002, 44.104909500000005],
     [19.999254200000003, 44.1049275],
     [19.9990501, 44.105020100000004],
     [19.9990741, 44.105290200000006],
     [19.9988996, 44.105485300000005], [19.9987007, 44.1055518]]}},
  {"type":"Feature",
   "properties":{},
   "geometry":
   {"type":"LineString",
    "coordinates":
    [[19.9994652, 44.1048885], [19.9993729, 44.104909500000005]]}},
  {"type":"Feature",
   "properties":{},
   "geometry":
   {"type":"LineString",
    "coordinates":
    [[19.999751800000002, 44.104831100000006],
     [19.999606500000002, 44.1048751], [19.9994652, 44.1048885]]}},
  {"type":"Feature",
   "properties":{},
   "geometry":
   {"type":"LineString",
    "coordinates":
    [[19.999751800000002, 44.104831100000006],
     [19.9998089, 44.104854200000005],
     [20.0000311, 44.104825500000004],
     [20.000153400000002, 44.1046842], [20.000229, 44.1046412]]}},
  {"type":"Feature",
   "properties":{},
   "geometry":
   {"type":"LineString",
    "coordinates":
    [[20.0004686, 44.104867000000006], [20.000229, 44.1046412]]}},
  {"type":"Feature",
   "properties":{},
   "geometry":
   {"type":"LineString",
    "coordinates":
    [[20.000734, 44.105152200000006], [20.000583000000002, 44.1049864],
     [20.000521600000003, 44.104919],
     [20.0004686, 44.104867000000006]]}},
  {"type":"Feature",
   "properties":{},
   "geometry":
   {"type":"LineString",
    "coordinates":
    [[20.002065700000003, 44.1071487], [20.0020273, 44.1070956],
     [20.0020029, 44.107062000000006],
     [20.0019558, 44.106988900000005],
     [20.001819400000002, 44.1067771], [20.0015812, 44.1064056],
     [20.0009382, 44.105408700000005],
     [20.000818900000002, 44.1052588],
     [20.000772100000002, 44.105200100000005],
     [20.000734, 44.105152200000006]]}},
  {"type":"Feature",
   "properties":{},
   "geometry":
   {"type":"LineString",
    "coordinates":
    [[20.0038987, 44.110283300000006], [20.0039757, 44.1101437],
     [20.0039537, 44.110014], [20.0038917, 44.1098785],
     [20.003804900000002, 44.1097728],
     [20.0035895, 44.109505500000004], [20.0031627, 44.1087956],
     [20.002996500000002, 44.1085192], [20.002720200000002, 44.108052],
     [20.0024684, 44.107704500000004],
     [20.002417400000002, 44.1076342],
     [20.002065700000003, 44.1071487]]}},
  {"type":"Feature",
   "properties":{},
   "geometry":
   {"type":"LineString",
    "coordinates":
    [[19.999158100000002, 44.1115323],
     [19.9993658, 44.111396400000004],
     [19.999785600000003, 44.1112398],
     [20.0001919, 44.111088300000006], [20.0006264, 44.1110613],
     [20.0010684, 44.1111524], [20.001168200000002, 44.111173],
     [20.0013291, 44.111157600000006],
     [20.001525400000002, 44.1110881], [20.0017938, 44.110993],
     [20.0020281, 44.1109136], [20.0022786, 44.110857200000005],
     [20.0025334, 44.110845600000005], [20.002723900000003, 44.110888],
     [20.002949, 44.1108197], [20.0031389, 44.1106313],
     [20.0033032, 44.110510600000005],
     [20.0038987, 44.110283300000006]]}},
  {"type":"Feature",
   "properties":{},
   "geometry":
   {"type":"LineString",
    "coordinates":
    [[19.9992015, 44.1118674], [19.999158100000002, 44.1115323]]}},
  {"type":"Feature",
   "properties":{},
   "geometry":
   {"type":"LineString",
    "coordinates":
    [[19.9985235, 44.112524900000004],
     [19.998756500000002, 44.1123799],
     [19.999049300000003, 44.1121976],
     [19.9991941, 44.112008800000005], [19.9992015, 44.1118674]]}},
  {"type":"Feature",
   "properties":{},
   "geometry":
   {"type":"LineString",
    "coordinates":
    [[19.9981954, 44.112620500000006],
     [19.9985235, 44.112524900000004]]}},
  {"type":"Feature",
   "properties":{},
   "geometry":
   {"type":"LineString",
    "coordinates":
    [[19.996584900000002, 44.113140400000006],
     [19.996699500000002, 44.113100200000005],
     [19.9970147, 44.1129954], [19.99736, 44.1128858],
     [19.9981954, 44.112620500000006]]}},
  {"type":"Feature",
   "properties":{},
   "geometry":
   {"type":"LineString",
    "coordinates":
    [[19.996102800000003, 44.1128122],
     [19.996190900000002, 44.112872200000005],
     [19.996584900000002, 44.113140400000006]]}},
  {"type":"Feature",
   "properties":{},
   "geometry":
   {"type":"LineString",
    "coordinates":
    [[19.9956353, 44.11249], [19.9956755, 44.112518],
     [19.9956891, 44.112527500000006], [19.9958162, 44.112616],
     [19.996030100000002, 44.112762700000005],
     [19.996038300000002, 44.112768300000006],
     [19.996102800000003, 44.1128122]]}},
  {"type":"Feature",
   "properties":{},
   "geometry":
   {"type":"LineString",
    "coordinates":
    [[19.995414500000003, 44.112314500000004],
     [19.9954916, 44.1123829], [19.995544600000002, 44.1124257],
     [19.995594200000003, 44.1124614], [19.9956353, 44.11249]]}},
  {"type":"Feature",
   "properties":{},
   "geometry":
   {"type":"LineString",
    "coordinates":
    [[19.994718300000002, 44.111316800000004],
     [19.9952298, 44.112104300000006],
     [19.995281900000002, 44.1121716],
     [19.995333900000002, 44.1122364], [19.995375900000003, 44.112279],
     [19.995414500000003, 44.112314500000004]]}},
  {"type":"Feature",
   "properties":{},
   "geometry":
   {"type":"LineString",
    "coordinates":
    [[19.994718300000002, 44.111316800000004],
     [19.9947032, 44.1113292],
     [19.994669400000003, 44.111356900000004],
     [19.9946626, 44.111362500000006],
     [19.994440700000002, 44.1115446],
     [19.993964700000003, 44.1119501], [19.9937912, 44.1120776],
     [19.993538700000002, 44.112203], [19.9929625, 44.112330500000006],
     [19.9923863, 44.112499500000006],
     [19.991954800000002, 44.1126311], [19.9912923, 44.1128331],
     [19.991114800000002, 44.1129059], [19.9905091, 44.1131545],
     [19.990231100000003, 44.113214600000006],
     [19.9899109, 44.1132404], [19.9895494, 44.113212000000004],
     [19.989540700000003, 44.1132019],
     [19.989181300000002, 44.1131017], [19.988312, 44.1126455],
     [19.9879064, 44.1125307], [19.9873602, 44.1124425],
     [19.9872142, 44.1124561], [19.9861532, 44.1127623],
     [19.9854373, 44.1132055]]}},
  {"type":"Feature",
   "properties":{},
   "geometry":
   {"type":"LineString",
    "coordinates":
    [[19.9854373, 44.1132055], [19.9850159, 44.1133492],
     [19.9844838, 44.1134092], [19.9841523, 44.1133761],
     [19.983903400000003, 44.113296000000005],
     [19.9835944, 44.1130372], [19.9834034, 44.1128123]]}},
  {"type":"Feature",
   "properties":{},
   "geometry":
   {"type":"LineString",
    "coordinates":
    [[19.9834034, 44.1128123], [19.983366200000003, 44.1127352],
     [19.983389300000002, 44.112695300000006],
     [19.9834746, 44.1125866], [19.9834986, 44.112518900000005],
     [19.983495700000002, 44.1122877],
     [19.983478400000003, 44.1122321],
     [19.9834889, 44.112166800000004], [19.9835858, 44.1118887],
     [19.983916200000003, 44.1116107],
     [19.984128600000002, 44.1115604], [19.9844107, 44.111488],
     [19.9844592, 44.1114692], [19.9845732, 44.1114867]]}},
  {"type":"Feature",
   "properties":{},
   "geometry":
   {"type":"LineString",
    "coordinates":
    [[19.983916200000003, 44.1116107], [19.984144, 44.1115033],
     [19.984540000000003, 44.1111007],
     [19.9846657, 44.110927600000004],
     [19.985257800000003, 44.110006600000006],
     [19.985410100000003, 44.1097557],
     [19.985750900000003, 44.1096018], [19.9860799, 44.1093032],
     [19.986152200000003, 44.1091902], [19.9862514, 44.1088971],
     [19.9862691, 44.1086502]]}},
  {"type":"Feature",
   "properties":{},
   "geometry":
   {"type":"LineString",
    "coordinates":
    [[19.9859571, 44.108154000000006],
     [19.9859614, 44.108234700000004], [19.9862691, 44.1086502]]}},
  {"type":"Feature",
   "properties":{},
   "geometry":
   {"type":"LineString",
    "coordinates":
    [[19.986064000000002, 44.1080217],
     [19.9859571, 44.108154000000006]]}},
  {"type":"Feature",
   "properties":{},
   "geometry":
   {"type":"LineString",
    "coordinates":
    [[19.9861136, 44.1078192], [19.986064000000002, 44.1080217]]}},
  {"type":"Feature",
   "properties":{},
   "geometry":
   {"type":"LineString",
    "coordinates":
    [[19.9861212, 44.1077663], [19.9861136, 44.1078192]]}},
  {"type":"Feature",
   "properties":{},
   "geometry":
   {"type":"LineString",
    "coordinates":
    [[19.9864433, 44.106799300000006],
     [19.986375900000002, 44.1068675],
     [19.986361300000002, 44.107139200000006],
     [19.986351900000003, 44.107292900000004],
     [19.9863499, 44.107325100000004], [19.9861212, 44.1077663]]}},
  {"type":"Feature",
   "properties":{},
   "geometry":
   {"type":"LineString",
    "coordinates":
    [[19.9865029, 44.105599500000004], [19.9865111, 44.1057021],
     [19.9864535, 44.1058603], [19.9864484, 44.1059095],
     [19.9864217, 44.106169200000004], [19.9864418, 44.106409],
     [19.9864323, 44.1065558], [19.9864816, 44.106662500000006],
     [19.9864433, 44.106799300000006]]}},
  {"type":"Feature",
   "properties":{},
   "geometry":
   {"type":"LineString",
    "coordinates":
    [[19.9865029, 44.105599500000004],
     [19.9860674, 44.105645700000004], [19.9859629, 44.1056523],
     [19.9856425, 44.105672500000004],
     [19.985469700000003, 44.1056621], [19.9853163, 44.1056534]]}},
  {"type":"Feature",
   "properties":{},
   "geometry":
   {"type":"LineString",
    "coordinates":
    [[19.9852037, 44.1056265], [19.985257400000002, 44.1056448],
     [19.9853163, 44.1056534]]}},
  {"type":"Feature",
   "properties":{},
   "geometry":
   {"type":"LineString",
    "coordinates":
    [[19.984969200000002, 44.105582600000005],
     [19.9851139, 44.105589900000005], [19.9852037, 44.1056265]]}},
  {"type":"Feature",
   "properties":{},
   "geometry":
   {"type":"LineString",
    "coordinates":
    [[19.984249700000003, 44.105557100000006],
     [19.9844271, 44.1055336], [19.9845423, 44.1055305],
     [19.984816900000002, 44.105547],
     [19.984969200000002, 44.105582600000005]]}},
  {"type":"Feature",
   "properties":{},
   "geometry":
   {"type":"LineString",
    "coordinates":
    [[19.9793217, 44.1087119], [19.9794236, 44.1086098],
     [19.9795644, 44.1084875], [19.9796985, 44.1083931],
     [19.9799909, 44.1082015], [19.9800621, 44.1081495],
     [19.980285900000002, 44.1079858], [19.9805756, 44.1078038],
     [19.980811600000003, 44.107644], [19.9810249, 44.1075005],
     [19.981240800000002, 44.1073608],
     [19.981395000000003, 44.107244300000005],
     [19.981491600000002, 44.107156700000004],
     [19.9816404, 44.106987200000006], [19.9819113, 44.1066781],
     [19.9821575, 44.1064232], [19.9821715, 44.1064056],
     [19.9823351, 44.1062621], [19.982418300000003, 44.1062159],
     [19.9825309, 44.1061552], [19.9826704, 44.1060358],
     [19.9827723, 44.1059501], [19.9828595, 44.105888500000006],
     [19.9829198, 44.105851900000005], [19.983007, 44.105823900000004],
     [19.9832873, 44.1057922], [19.9835207, 44.105769],
     [19.9837795, 44.1057045],
     [19.984131400000003, 44.105594800000006],
     [19.9841462, 44.1055882],
     [19.984249700000003, 44.105557100000006]]}},
  {"type":"Feature",
   "properties":{},
   "geometry":
   {"type":"LineString",
    "coordinates":
    [[19.9793217, 44.1087119], [19.9792519, 44.108760000000004],
     [19.9791902, 44.108791800000006], [19.9791339, 44.1088101],
     [19.9790816, 44.1088072]]}},
  {"type":"Feature",
   "properties":{},
   "geometry":
   {"type":"LineString",
    "coordinates":
    [[19.9781468, 44.109717200000006],
     [19.9783587, 44.109583300000004],
     [19.978483500000003, 44.1095198],
     [19.9786055, 44.109426400000004],
     [19.9787222, 44.109306000000004],
     [19.9787839, 44.109236700000004], [19.9788053, 44.1091702],
     [19.9787906, 44.109113400000005], [19.9788254, 44.1090499],
     [19.9789341, 44.108969900000005], [19.9790119, 44.1088919],
     [19.9790628, 44.1088322], [19.9790816, 44.1088072]]}},
  {"type":"Feature",
   "properties":{},
   "geometry":
   {"type":"LineString",
    "coordinates":
    [[19.9766488, 44.1102882], [19.976693100000002, 44.1102776],
     [19.9767856, 44.110221700000004],
     [19.976945200000003, 44.110122600000004],
     [19.9771477, 44.1100128], [19.977369, 44.109923200000004],
     [19.977534000000002, 44.109860600000005],
     [19.9776734, 44.1098269], [19.977779400000003, 44.1098106],
     [19.9779175, 44.109761500000005],
     [19.9780342, 44.109730600000006],
     [19.9781468, 44.109717200000006]]}},
  {"type":"Feature",
   "properties":{},
   "geometry":
   {"type":"LineString",
    "coordinates":
    [[19.9766099, 44.1102131], [19.9766488, 44.1102882]]}},
  {"type":"Feature",
   "properties":{},
   "geometry":
   {"type":"LineString",
    "coordinates":
    [[19.9766099, 44.1102131], [19.9765523, 44.110242],
     [19.976355, 44.1103989], [19.9761777, 44.1105348],
     [19.976065000000002, 44.110615],
     [19.975826400000003, 44.110707700000006],
     [19.9756326, 44.110795100000004],
     [19.975340900000003, 44.110881400000004]]}},
  {"type":"Feature",
   "properties":{},
   "geometry":
   {"type":"LineString",
    "coordinates":
    [[19.975340900000003, 44.110881400000004],
     [19.9751343, 44.1111433],
     [19.974807000000002, 44.111921800000005],
     [19.9747489, 44.1120759], [19.9746765, 44.1122421],
     [19.974583000000003, 44.1124323],
     [19.9744441, 44.112685600000006],
     [19.974404800000002, 44.1128487]]}}]}
