{"type":"FeatureCollection",
 "properties":{},
 "features":
 [{"type":"Feature",
   "properties":{},
   "geometry":
   {"type":"LineString",
    "coordinates":
    [[19.136565400000002, 44.4953501],
     [19.136611000000002, 44.495374000000005],
     [19.1366401, 44.4954048], [19.1366528, 44.4954328],
     [19.1366532, 44.4954784], [19.1366611, 44.4955135],
     [19.1366762, 44.495541], [19.136728400000003, 44.4955769],
     [19.1367671, 44.495592200000004], [19.1368027, 44.4956024]]}},
  {"type":"Feature",
   "properties":{},
   "geometry":
   {"type":"LineString",
    "coordinates":
    [[19.1368027, 44.4956024], [19.136783700000002, 44.4957591],
     [19.1366707, 44.4973036],
     [19.136703100000002, 44.497392600000005],
     [19.1367678, 44.497572000000005], [19.1370988, 44.4980981],
     [19.1372374, 44.498406700000004]]}},
  {"type":"Feature",
   "properties":{},
   "geometry":
   {"type":"LineString",
    "coordinates":
    [[19.1372374, 44.498406700000004], [19.1372454, 44.4981085],
     [19.1372925, 44.4976609],
     [19.137376200000002, 44.497547100000006],
     [19.137446800000003, 44.4972226]]}},
  {"type":"Feature",
   "properties":{},
   "geometry":
   {"type":"LineString",
    "coordinates":
    [[19.137446800000003, 44.4972226], [19.1375753, 44.4972426],
     [19.137634300000002, 44.497437700000006],
     [19.137725500000002, 44.4976597],
     [19.1379562, 44.497862500000004],
     [19.138342400000003, 44.4979275],
     [19.138567700000003, 44.4980576],
     [19.138406800000002, 44.498241300000004],
     [19.138371900000003, 44.498346500000004],
     [19.138433600000003, 44.4984364],
     [19.1386214, 44.498465100000004], [19.1387877, 44.4984173],
     [19.1392919, 44.4982872], [19.1397425, 44.4981456],
     [19.1403186, 44.497997600000005], [19.1408175, 44.4979134],
     [19.141311, 44.497813900000004], [19.1418636, 44.497840700000005],
     [19.142341000000002, 44.4979402],
     [19.1426146, 44.497787200000005],
     [19.1429955, 44.497775700000005],
     [19.143263700000002, 44.497813900000004],
     [19.143430000000002, 44.4977527], [19.1435266, 44.4976915],
     [19.143397800000002, 44.497592000000004],
     [19.143151, 44.497473400000004], [19.142915000000002, 44.4973892],
     [19.142502, 44.497316500000004], [19.1421694, 44.4972323],
     [19.1420567, 44.4970525], [19.142164, 44.4969301],
     [19.1425127, 44.496807600000004],
     [19.142866700000003, 44.496834400000004],
     [19.143065200000002, 44.496692800000005],
     [19.143290500000003, 44.4965321], [19.1433924, 44.4964747],
     [19.143607000000003, 44.4964632],
     [19.1439396, 44.496314000000005], [19.1440845, 44.4961916],
     [19.144368800000002, 44.496141800000004],
     [19.1446477, 44.4960997],
     [19.144835500000003, 44.496027000000005],
     [19.1450232, 44.4959926], [19.1452207, 44.495931000000006]]}},
  {"type":"Feature",
   "properties":{},
   "geometry":
   {"type":"LineString",
    "coordinates":
    [[19.1452207, 44.495931000000006],
     [19.1453443, 44.495865900000005], [19.1455132, 44.4957416],
     [19.145719800000002, 44.4956459],
     [19.146084600000002, 44.4955675],
     [19.146280400000002, 44.4954948],
     [19.1466505, 44.495370400000006], [19.1469482, 44.495313],
     [19.1472513, 44.4953264], [19.1474927, 44.4952671],
     [19.1476295, 44.495198200000004], [19.1477797, 44.4950356],
     [19.1478387, 44.4949457], [19.1480909, 44.494807900000005],
     [19.148273200000002, 44.494784900000006],
     [19.1484664, 44.494666300000006],
     [19.1485093, 44.494586000000005], [19.1487373, 44.4944884],
     [19.1490806, 44.4943487], [19.1493676, 44.494232000000004],
     [19.149633100000003, 44.4940751],
     [19.149770500000002, 44.4937909]]}},
  {"type":"Feature",
   "properties":{},
   "geometry":
   {"type":"LineString",
    "coordinates":
    [[19.149770500000002, 44.4937909],
     [19.149922800000002, 44.493566200000004],
     [19.1504163, 44.4934743], [19.150679200000003, 44.4933538],
     [19.1508535, 44.49335], [19.1511172, 44.493390600000005]]}},
  {"type":"Feature",
   "properties":{},
   "geometry":
   {"type":"LineString",
    "coordinates":
    [[19.1511172, 44.493390600000005],
     [19.151718000000002, 44.493459400000006]]}},
  {"type":"Feature",
   "properties":{},
   "geometry":
   {"type":"LineString",
    "coordinates":
    [[19.151718000000002, 44.493459400000006],
     [19.1517601, 44.493693400000005],
     [19.1522751, 44.493704900000004],
     [19.1532997, 44.493655100000005],
     [19.1541205, 44.493846500000004], [19.1546945, 44.4940148],
     [19.154919800000002, 44.4940761],
     [19.1552738, 44.494018700000005], [19.1558263, 44.4939307],
     [19.1560946, 44.494133500000004], [19.1563735, 44.494298],
     [19.1566844, 44.4943369]]}},
  {"type":"Feature",
   "properties":{},
   "geometry":
   {"type":"LineString",
    "coordinates":
    [[19.1566844, 44.4943369], [19.1565525, 44.494234000000006],
     [19.1565125, 44.4941544], [19.1564793, 44.4939273],
     [19.156473000000002, 44.493742700000006],
     [19.1565191, 44.4936681]]}},
  {"type":"Feature",
   "properties":{},
   "geometry":
   {"type":"LineString",
    "coordinates":
    [[19.1607705, 44.4902917],
     [19.160148200000002, 44.490616200000005],
     [19.159448100000002, 44.4908152], [19.1584182, 44.4912782],
     [19.157817400000003, 44.491607300000005],
     [19.1574204, 44.4917451], [19.156680100000003, 44.4918599],
     [19.155939800000002, 44.4918446], [19.1547704, 44.4916992],
     [19.1542876, 44.491668600000004],
     [19.1539657, 44.491538500000004], [19.1535902, 44.4914083],
     [19.153354200000003, 44.4916226],
     [19.1533649, 44.492089500000006], [19.1542339, 44.4926673],
     [19.154759600000002, 44.492939], [19.1553712, 44.493210700000006],
     [19.1559935, 44.4934212], [19.1561919, 44.493513],
     [19.1565191, 44.4936681]]}},
  {"type":"Feature",
   "properties":{},
   "geometry":
   {"type":"LineString",
    "coordinates":
    [[19.1607705, 44.4902917], [19.1610655, 44.4899818],
     [19.161403500000002, 44.489756], [19.1618648, 44.489503400000004],
     [19.162446900000003, 44.488939900000005]]}},
  {"type":"Feature",
   "properties":{},
   "geometry":
   {"type":"LineString",
    "coordinates":
    [[19.162446900000003, 44.488939900000005],
     [19.1624351, 44.4888671], [19.1624823, 44.488813500000006],
     [19.16255, 44.4888015]]}},
  {"type":"Feature",
   "properties":{},
   "geometry":
   {"type":"LineString",
    "coordinates":
    [[19.16255, 44.4888015], [19.1629216, 44.488435700000004],
     [19.1634044, 44.4882061], [19.1636405, 44.4879612],
     [19.1636834, 44.4878081],
     [19.163581500000003, 44.487578500000005],
     [19.163581500000003, 44.4874675], [19.1637637, 44.4873095],
     [19.1640294, 44.4870791],
     [19.164445100000002, 44.487096300000005],
     [19.165362400000003, 44.4871422], [19.1659364, 44.4871805],
     [19.166564100000002, 44.4873106], [19.1669932, 44.4872991],
     [19.1675833, 44.4874445], [19.1681466, 44.4874522],
     [19.168892200000002, 44.4872494], [19.169021, 44.4871001],
     [19.1694244, 44.4871532],
     [19.169557400000002, 44.487280000000005],
     [19.1702012, 44.4873909],
     [19.170421100000002, 44.487306800000006],
     [19.1707483, 44.4870542], [19.171194, 44.486904100000004]]}},
  {"type":"Feature",
   "properties":{},
   "geometry":
   {"type":"LineString",
    "coordinates":
    [[19.171194, 44.486904100000004], [19.172116300000003, 44.4867968],
     [19.172639800000002, 44.487116900000004],
     [19.174233, 44.4873562]]}},
  {"type":"Feature",
   "properties":{},
   "geometry":
   {"type":"LineString",
    "coordinates":
    [[19.174233, 44.4873562], [19.1748146, 44.4877392],
     [19.175415400000002, 44.488022400000006],
     [19.175566500000002, 44.488396900000005]]}},
  {"type":"Feature",
   "properties":{},
   "geometry":
   {"type":"LineString",
    "coordinates":
    [[19.1756245, 44.489201400000006],
     [19.175534300000002, 44.4891048], [19.1755128, 44.4889747],
     [19.175566500000002, 44.4888102], [19.1756148, 44.488703],
     [19.175663, 44.488638], [19.175609400000003, 44.4884964],
     [19.175566500000002, 44.488396900000005]]}},
  {"type":"Feature",
   "properties":{},
   "geometry":
   {"type":"LineString",
    "coordinates":
    [[19.1756245, 44.489201400000006],
     [19.1752794, 44.489563800000006],
     [19.175282600000003, 44.4896685], [19.1752535, 44.4897061]]}},
  {"type":"Feature",
   "properties":{},
   "geometry":
   {"type":"LineString",
    "coordinates":
    [[19.1756245, 44.489201400000006],
     [19.1752794, 44.489563800000006],
     [19.175282600000003, 44.4896685], [19.1752535, 44.4897061]]}},
  {"type":"Feature",
   "properties":{},
   "geometry":
   {"type":"LineString",
    "coordinates":
    [[19.1756245, 44.489201400000006], [19.1759567, 44.4891707],
     [19.176170300000003, 44.4890628],
     [19.176447200000002, 44.4889069], [19.176729, 44.488781],
     [19.17704, 44.488619]]}},
  {"type":"Feature",
   "properties":{},
   "geometry":
   {"type":"LineString",
    "coordinates":
    [[19.17704, 44.488619], [19.177354700000002, 44.4885193]]}},
  {"type":"Feature",
   "properties":{},
   "geometry":
   {"type":"LineString",
    "coordinates":
    [[19.17704, 44.488619], [19.177354700000002, 44.4885193]]}}]}
