{"type":"FeatureCollection",
 "properties":{},
 "features":
 [{"type":"Feature",
   "properties":{},
   "geometry":
   {"type":"LineString",
    "coordinates":
    [[19.247353500000003, 44.4510051],
     [19.247451400000003, 44.450990700000006],
     [19.247597600000002, 44.4509897], [19.2476553, 44.4510051],
     [19.247730400000002, 44.4510366], [19.2480724, 44.4512875],
     [19.248425100000002, 44.4515144], [19.2486101, 44.4516809],
     [19.2488274, 44.4519126], [19.2491144, 44.452086800000004],
     [19.2493048, 44.4522649], [19.2494631, 44.4524679],
     [19.2495972, 44.452550200000005],
     [19.2497501, 44.452603800000006],
     [19.2499915, 44.452665100000004]]}},
  {"type":"Feature",
   "properties":{},
   "geometry":
   {"type":"LineString",
    "coordinates":
    [[19.2499915, 44.452665100000004], [19.2504278, 44.4528048],
     [19.2507765, 44.4530115], [19.2510555, 44.4532528],
     [19.2515544, 44.453651], [19.2520211, 44.453850100000004],
     [19.2528311, 44.454279], [19.2533514, 44.454684900000004],
     [19.253839600000003, 44.4545394],
     [19.2544136, 44.454570000000004],
     [19.254660400000002, 44.4545241],
     [19.2550412, 44.454650400000006], [19.2557815, 44.4545164],
     [19.2566667, 44.454623600000005], [19.257246000000002, 44.454884],
     [19.257487400000002, 44.454880200000005],
     [19.2580882, 44.455255400000006],
     [19.258774900000002, 44.4555273],
     [19.259547400000002, 44.4558375],
     [19.2602018, 44.456140000000005], [19.2605934, 44.4565688],
     [19.2608777, 44.456580300000006], [19.2614088, 44.4564463],
     [19.2623368, 44.456323700000006], [19.2636082, 44.4561591],
     [19.2641071, 44.4559255], [19.2644719, 44.456025100000005],
     [19.2650834, 44.455960000000005], [19.2654697, 44.456228],
     [19.2652873, 44.4567871], [19.2655555, 44.4569747],
     [19.2658889, 44.4570954]]}},
  {"type":"Feature",
   "properties":{},
   "geometry":
   {"type":"LineString",
    "coordinates":
    [[19.2658889, 44.4570954], [19.2660123, 44.4570686],
     [19.2664522, 44.4569843], [19.2670262, 44.4570762],
     [19.2674178, 44.457053300000005], [19.267568, 44.4568274],
     [19.2677128, 44.4565976], [19.268104400000002, 44.4564406],
     [19.268372600000003, 44.456138100000004],
     [19.2685497, 44.455820300000006],
     [19.268694500000002, 44.455223000000004],
     [19.2688554, 44.4551541], [19.2689305, 44.4552038],
     [19.269075400000002, 44.455211500000004],
     [19.2692202, 44.455249800000004],
     [19.2693973, 44.455445100000006], [19.269703, 44.455755200000006],
     [19.2698693, 44.4559505], [19.2700034, 44.4565287],
     [19.2701429, 44.457149], [19.2701858, 44.4576544],
     [19.270314600000003, 44.457914800000005],
     [19.2706869, 44.4582429],
     [19.270784000000003, 44.458328300000005],
     [19.2711326, 44.4583704], [19.271476, 44.4584011],
     [19.2719051, 44.4585236], [19.272294000000002, 44.4587093],
     [19.2725167, 44.4587973], [19.2727125, 44.458870100000006],
     [19.2733026, 44.4589505], [19.273501, 44.4589945],
     [19.2736968, 44.4591305], [19.2738283, 44.4593372],
     [19.274337900000003, 44.4597009],
     [19.2744532, 44.459796700000005], [19.2746678, 44.4597775],
     [19.275005800000002, 44.4599345], [19.2751667, 44.4601489],
     [19.275292800000003, 44.4602446],
     [19.2756522, 44.460403500000005], [19.2759955, 44.4605509],
     [19.2765132, 44.460863], [19.2770389, 44.4611138],
     [19.2771757, 44.461238200000004], [19.2773554, 44.461443],
     [19.277497500000003, 44.4616498],
     [19.277545800000002, 44.4618757],
     [19.2776719, 44.462013500000005], [19.2778113, 44.4620997],
     [19.277953500000002, 44.4621973],
     [19.2780662, 44.462308300000004],
     [19.278213700000002, 44.4623332],
     [19.2785704, 44.462361900000005], [19.2787528, 44.4623428],
     [19.2788815, 44.4622777], [19.2792061, 44.4620863],
     [19.2793053, 44.4619714], [19.279300000000003, 44.461868],
     [19.2792946, 44.461780000000005], [19.2793643, 44.4617742],
     [19.2798418, 44.461912000000005],
     [19.2800242, 44.461975200000005], [19.2801127, 44.4620614],
     [19.2802227, 44.4621131], [19.2804962, 44.462157100000006],
     [19.2807162, 44.462141800000005],
     [19.280992400000002, 44.462053700000006],
     [19.281526200000002, 44.4619006],
     [19.281657600000003, 44.4618412], [19.2817207, 44.4618053]]}},
  {"type":"Feature",
   "properties":{},
   "geometry":
   {"type":"LineString",
    "coordinates":
    [[19.2819782, 44.4617881], [19.281942, 44.4618034],
     [19.281895000000002, 44.4618139],
     [19.2818186, 44.461786200000006], [19.2817207, 44.4618053]]}},
  {"type":"Feature",
   "properties":{},
   "geometry":
   {"type":"LineString",
    "coordinates":
    [[19.2820506, 44.461764200000005], [19.2819782, 44.4617881]]}},
  {"type":"Feature",
   "properties":{},
   "geometry":
   {"type":"LineString",
    "coordinates":
    [[19.282406, 44.4617288], [19.282328200000002, 44.4616972],
     [19.2822605, 44.461680400000006], [19.2822222, 44.4617019],
     [19.282120300000003, 44.461734500000006],
     [19.2820506, 44.461764200000005]]}},
  {"type":"Feature",
   "properties":{},
   "geometry":
   {"type":"LineString",
    "coordinates":
    [[19.2824905, 44.461766100000006], [19.282406, 44.4617288]]}},
  {"type":"Feature",
   "properties":{},
   "geometry":
   {"type":"LineString",
    "coordinates":
    [[19.2824905, 44.461766100000006],
     [19.282553500000002, 44.4617804]]}},
  {"type":"Feature",
   "properties":{},
   "geometry":
   {"type":"LineString",
    "coordinates":
    [[19.282623, 44.461792700000004],
     [19.282553500000002, 44.4617804]]}}]}
