{"type":"FeatureCollection",
 "properties":{},
 "features":
 [{"type":"Feature",
   "properties":{},
   "geometry":
   {"type":"LineString",
    "coordinates":
    [[19.246879200000002, 44.396584000000004], [19.246521, 44.3968782],
     [19.2457968, 44.3972691], [19.2455339, 44.3976064],
     [19.2448419, 44.3978824], [19.2442035, 44.3979322],
     [19.243173600000002, 44.397913100000004],
     [19.242052400000002, 44.397775100000004],
     [19.2413014, 44.3978747], [19.2408079, 44.397510600000004],
     [19.2401802, 44.3972423], [19.2395204, 44.3966444],
     [19.239118100000002, 44.396479500000005],
     [19.239177100000003, 44.396123100000004],
     [19.2390966, 44.395808800000005], [19.2389975, 44.3954783]]}},
  {"type":"Feature",
   "properties":{},
   "geometry":
   {"type":"LineString",
    "coordinates":
    [[19.246879200000002, 44.396584000000004],
     [19.2471026, 44.3964311], [19.2472427, 44.3963352],
     [19.247535300000003, 44.3961978],
     [19.247936600000003, 44.396185900000006],
     [19.2488895, 44.3962456], [19.2492574, 44.3962098],
     [19.2495499, 44.3961321], [19.2499512, 44.395917100000005],
     [19.2502354, 44.3958573], [19.250628300000002, 44.3958932],
     [19.250854, 44.3958693], [19.251029600000003, 44.395714000000005],
     [19.251155, 44.3954333], [19.2512219, 44.3953198],
     [19.2514338, 44.3951761]]}},
  {"type":"Feature",
   "properties":{},
   "geometry":
   {"type":"LineString",
    "coordinates":
    [[19.2514338, 44.3951761], [19.2515751, 44.3951877],
     [19.2517976, 44.395189300000006],
     [19.252059600000003, 44.395191000000004],
     [19.252206100000002, 44.3951833],
     [19.252318900000002, 44.3952133],
     [19.2524939, 44.395310200000004], [19.2526051, 44.3953587],
     [19.252748, 44.3954072], [19.252858200000002, 44.395412500000006],
     [19.2530517, 44.3953897], [19.253423100000003, 44.3953245],
     [19.2535579, 44.3952996], [19.2536451, 44.39529],
     [19.253720400000002, 44.395307800000005],
     [19.2538075, 44.3953482], [19.2539586, 44.395461000000005],
     [19.254350600000002, 44.3958056],
     [19.2544183, 44.395850700000004],
     [19.2545085, 44.395889600000004],
     [19.2546779, 44.395928500000004], [19.2548907, 44.3959788],
     [19.255139200000002, 44.3960262], [19.2552776, 44.3960626],
     [19.2554239, 44.396098900000005],
     [19.255518900000002, 44.3961154],
     [19.255637500000002, 44.396120700000004],
     [19.2562772, 44.396110400000005],
     [19.256806700000002, 44.3961137], [19.2570951, 44.3961125],
     [19.2572552, 44.3960978], [19.2574112, 44.396083100000006],
     [19.2575881, 44.3960671], [19.2576864, 44.3960549],
     [19.257879600000003, 44.396037]]}},
  {"type":"Feature",
   "properties":{},
   "geometry":
   {"type":"LineString",
    "coordinates":
    [[19.257879600000003, 44.396037], [19.257932, 44.395822],
     [19.258358400000002, 44.395535200000005],
     [19.2584838, 44.395403800000004], [19.2584002, 44.395153]]}},
  {"type":"Feature",
   "properties":{},
   "geometry":
   {"type":"LineString",
    "coordinates":
    [[19.2635568, 44.3913279], [19.263590500000003, 44.3915808],
     [19.263590500000003, 44.3918606], [19.263424200000003, 44.392037],
     [19.263038, 44.3920868], [19.2623567, 44.391994800000006],
     [19.2609673, 44.3919603], [19.2600608, 44.392037],
     [19.2589396, 44.392167300000004],
     [19.2580062, 44.392029300000004], [19.2575448, 44.3918376],
     [19.2574215, 44.391902800000004],
     [19.257695000000002, 44.392140500000004],
     [19.2581242, 44.3923015], [19.258489, 44.3928036],
     [19.2589986, 44.392888], [19.2592293, 44.393290400000005],
     [19.259122, 44.3934859], [19.2593634, 44.393942100000004],
     [19.2588699, 44.3943062],
     [19.258617700000002, 44.394762400000005],
     [19.2584002, 44.395153]]}},
  {"type":"Feature",
   "properties":{},
   "geometry":
   {"type":"LineString",
    "coordinates":
    [[19.2705641, 44.386638500000004],
     [19.2704691, 44.386758400000005], [19.2701552, 44.3868063],
     [19.2698334, 44.3868561], [19.2696617, 44.3870574],
     [19.2695222, 44.3873545], [19.2694471, 44.3876669],
     [19.269219200000002, 44.3879372],
     [19.2689483, 44.388268800000006],
     [19.268698800000003, 44.388531400000005],
     [19.2683126, 44.388845700000005], [19.2680417, 44.389208],
     [19.2680873, 44.3893671], [19.2680122, 44.3896431],
     [19.2677815, 44.389951700000005],
     [19.267794900000002, 44.3901472],
     [19.267743900000003, 44.390218100000006],
     [19.2673899, 44.3902085], [19.2669929, 44.390151],
     [19.2668079, 44.390241100000004],
     [19.2662929, 44.390609100000006], [19.2659066, 44.3907241],
     [19.2655016, 44.3910154], [19.2650188, 44.3912531],
     [19.2644716, 44.391310600000004],
     [19.2641686, 44.391335500000004],
     [19.263978100000003, 44.3913087],
     [19.2638386, 44.391226200000006], [19.2636723, 44.3912722],
     [19.2635568, 44.3913279]]}},
  {"type":"Feature",
   "properties":{},
   "geometry":
   {"type":"LineString",
    "coordinates":
    [[19.2705641, 44.386638500000004], [19.2704454, 44.3865599],
     [19.2702049, 44.386438600000005], [19.2700964, 44.3863021],
     [19.2700847, 44.3861724], [19.2701342, 44.3860359],
     [19.2701177, 44.3859045], [19.2699621, 44.3857646],
     [19.269698, 44.3857208], [19.2695306, 44.385613],
     [19.2694121, 44.3855641],
     [19.269301900000002, 44.385518600000005],
     [19.269193400000002, 44.385380500000004]]}},
  {"type":"Feature",
   "properties":{},
   "geometry":
   {"type":"LineString",
    "coordinates":
    [[19.269193400000002, 44.385380500000004], [19.269237, 44.3851437],
     [19.2693738, 44.3850056], [19.269378500000002, 44.3848842],
     [19.2693431, 44.384810900000005],
     [19.269163900000002, 44.3847503],
     [19.2689965, 44.384601200000006], [19.2688421, 44.3843383],
     [19.268740700000002, 44.3841352],
     [19.2687183, 44.383941500000006], [19.2687457, 44.3837896],
     [19.2688099, 44.3834329]]}}]}
