{"type":"FeatureCollection",
 "properties":{},
 "features":
 [{"type":"Feature",
   "properties":{},
   "geometry":
   {"type":"LineString",
    "coordinates":
    [[21.827127, 43.7071588], [21.8270684, 43.7071866],
     [21.826957500000002, 43.7072371], [21.8268795, 43.7072772],
     [21.826807600000002, 43.707326200000004]]}},
  {"type":"Feature",
   "properties":{},
   "geometry":
   {"type":"LineString",
    "coordinates":
    [[21.826807600000002, 43.707326200000004],
     [21.8267542, 43.707384000000005], [21.8266947, 43.7074434],
     [21.8266393, 43.707522100000006], [21.8265961, 43.7076081],
     [21.8265797, 43.7076823], [21.8265818, 43.707764000000005],
     [21.826557100000002, 43.7078174],
     [21.826522200000003, 43.707867900000004],
     [21.826450400000002, 43.7079243], [21.8263354, 43.7080252],
     [21.826171000000002, 43.708142300000006]]}},
  {"type":"Feature",
   "properties":{},
   "geometry":
   {"type":"LineString",
    "coordinates":
    [[21.826171000000002, 43.708142300000006],
     [21.826182300000003, 43.708268200000006],
     [21.826188400000003, 43.708390300000005],
     [21.8262013, 43.7085439], [21.8261946, 43.7086666],
     [21.826154300000002, 43.7087907],
     [21.8260685, 43.708939400000006], [21.8259322, 43.709105],
     [21.8257663, 43.709256800000006], [21.8256218, 43.709373],
     [21.8254896, 43.7094724], [21.8253276, 43.709632500000005],
     [21.8252621, 43.7097003], [21.8250706, 43.709922500000005],
     [21.8249126, 43.7101175],
     [21.824760700000002, 43.710329300000005],
     [21.824598700000003, 43.7105321],
     [21.8244592, 43.710698900000004],
     [21.824357300000003, 43.7108055],
     [21.824220500000003, 43.7109199], [21.8240488, 43.7110226],
     [21.823869100000003, 43.7111487], [21.8236814, 43.7112417],
     [21.823512400000002, 43.711305700000004],
     [21.8233399, 43.711328800000004],
     [21.823192900000002, 43.7113413], [21.8230618, 43.7113877],
     [21.8229009, 43.711484600000006],
     [21.8227748, 43.711595100000004], [21.8226944, 43.7117328],
     [21.8226595, 43.7118607], [21.8226407, 43.7119848],
     [21.8227024, 43.7121573], [21.822801700000003, 43.7122698],
     [21.8229304, 43.7123842], [21.8230028, 43.7125141],
     [21.8230726, 43.7126517], [21.8231396, 43.712832000000006],
     [21.8231691, 43.7130104], [21.8232657, 43.713171300000006],
     [21.8233649, 43.7133283], [21.8234454, 43.7134389],
     [21.8236139, 43.713581600000005], [21.8237163, 43.7136744],
     [21.8237667, 43.7137424]]}},
  {"type":"Feature",
   "properties":{},
   "geometry":
   {"type":"LineString",
    "coordinates":
    [[21.8237667, 43.7137424], [21.8237895, 43.7138872]]}},
  {"type":"Feature",
   "properties":{},
   "geometry":
   {"type":"LineString",
    "coordinates":
    [[21.8237895, 43.7138872], [21.8237546, 43.713952500000005],
     [21.823695100000002, 43.713997000000006],
     [21.8236253, 43.714029700000005],
     [21.8234426, 43.714056400000004], [21.8232044, 43.7141024],
     [21.822984700000003, 43.7141632], [21.8228225, 43.7142345],
     [21.8227137, 43.7143042],
     [21.822643900000003, 43.714366500000004],
     [21.822594600000002, 43.7144422], [21.8224632, 43.7146247],
     [21.822430400000002, 43.714679600000004],
     [21.822387300000003, 43.7147464],
     [21.822319500000003, 43.714811700000006],
     [21.8222826, 43.714841400000005], [21.8222394, 43.7148637],
     [21.8221902, 43.7148666], [21.8220211, 43.7148599],
     [21.821836100000002, 43.7148735], [21.8216885, 43.7148929],
     [21.8215337, 43.714995800000004]]}},
  {"type":"Feature",
   "properties":{},
   "geometry":
   {"type":"LineString",
    "coordinates":
    [[21.820818900000003, 43.7148242],
     [21.8214329, 43.714964300000005],
     [21.8215337, 43.714995800000004]]}},
  {"type":"Feature",
   "properties":{},
   "geometry":
   {"type":"LineString",
    "coordinates":
    [[21.820818900000003, 43.7148242],
     [21.8207656, 43.715008100000006], [21.820685, 43.715169100000004],
     [21.820596700000003, 43.7153074],
     [21.820420900000002, 43.7154491], [21.8202156, 43.715622],
     [21.8201725, 43.715842200000004]]}},
  {"type":"Feature",
   "properties":{},
   "geometry":
   {"type":"LineString",
    "coordinates":
    [[21.8201725, 43.715842200000004],
     [21.820189000000003, 43.7160084]]}},
  {"type":"Feature",
   "properties":{},
   "geometry":
   {"type":"LineString",
    "coordinates":
    [[21.820189000000003, 43.7160084], [21.8201179, 43.7161423],
     [21.8200796, 43.716396200000005]]}},
  {"type":"Feature",
   "properties":{},
   "geometry":
   {"type":"LineString",
    "coordinates":
    [[21.8200796, 43.716396200000005],
     [21.8201329, 43.716537800000005], [21.8201436, 43.7167278],
     [21.820224, 43.7169255], [21.820315200000003, 43.7170884],
     [21.820529800000003, 43.717196900000005],
     [21.820776600000002, 43.7173171],
     [21.820969700000003, 43.7174296],
     [21.8211145, 43.717526500000005],
     [21.821200400000002, 43.7176738],
     [21.821307700000002, 43.7178173],
     [21.821361300000003, 43.717937500000005],
     [21.821270100000003, 43.7180383],
     [21.821125300000002, 43.7181623]]}},
  {"type":"Feature",
   "properties":{},
   "geometry":
   {"type":"LineString",
    "coordinates":
    [[21.821125300000002, 43.7181623],
     [21.8210573, 43.718236600000004]]}},
  {"type":"Feature",
   "properties":{},
   "geometry":
   {"type":"LineString",
    "coordinates":
    [[21.8210573, 43.718236600000004],
     [21.821029900000003, 43.7182666]]}},
  {"type":"Feature",
   "properties":{},
   "geometry":
   {"type":"LineString",
    "coordinates":
    [[21.826575300000002, 43.741049600000004],
     [21.8267114, 43.7408761], [21.8268756, 43.740743],
     [21.827003700000002, 43.7405203],
     [21.827095800000002, 43.7403467],
     [21.827239900000002, 43.7402281],
     [21.827356100000003, 43.739988000000004],
     [21.8273841, 43.7397219], [21.8274201, 43.7394152],
     [21.8274121, 43.739097], [21.827448200000003, 43.7388251],
     [21.8274642, 43.738585], [21.827496200000002, 43.7383535],
     [21.827507100000002, 43.738268600000005],
     [21.827506200000002, 43.7380483], [21.8274642, 43.7378907],
     [21.8274261, 43.7377301], [21.8274401, 43.737558],
     [21.8275222, 43.7373989], [21.8277004, 43.7372774],
     [21.827912400000002, 43.737168700000005],
     [21.827968900000002, 43.7370523], [21.8280169, 43.7368594],
     [21.8280309, 43.736724300000006], [21.8279891, 43.7365201],
     [21.827913900000002, 43.7364017], [21.8278502, 43.7361846],
     [21.827683200000003, 43.7361226],
     [21.8275009, 43.735970900000005], [21.8274052, 43.7357194],
     [21.8273443, 43.7355182], [21.8272355, 43.735251000000005],
     [21.827074500000002, 43.7349146],
     [21.8268482, 43.734713400000004],
     [21.826695400000002, 43.7345319],
     [21.8266503, 43.734334100000005], [21.8267147, 43.7341689],
     [21.826821000000002, 43.7340269], [21.8269981, 43.7338035],
     [21.8271914, 43.7335964], [21.8272397, 43.7334381],
     [21.8272526, 43.733186800000006],
     [21.8272574, 43.733118000000005], [21.827247, 43.7328362],
     [21.827189800000003, 43.732667], [21.827184600000002, 43.7325053],
     [21.827054500000003, 43.732253400000005],
     [21.8270337, 43.7320616], [21.826992, 43.731681900000005],
     [21.827049300000002, 43.731418700000006], [21.827476, 43.7307269],
     [21.8276477, 43.730497500000006], [21.8277673, 43.7301328],
     [21.8278402, 43.7298696], [21.8280575, 43.7293462],
     [21.8280555, 43.729185400000006], [21.8280549, 43.7291304],
     [21.8280445, 43.7290495], [21.8280347, 43.728972600000006],
     [21.828022100000002, 43.7284251],
     [21.827937900000002, 43.7281848], [21.8277401, 43.7279902],
     [21.827399200000002, 43.7278229],
     [21.827125600000002, 43.7277773],
     [21.826015100000003, 43.7275957], [21.8256811, 43.7275508],
     [21.825417, 43.7274273], [21.8251762, 43.7272252],
     [21.824916700000003, 43.726648100000006],
     [21.824926700000002, 43.7261936], [21.8249965, 43.7255805],
     [21.824986600000003, 43.7249889],
     [21.824976600000003, 43.7246931],
     [21.8251209, 43.724171600000005],
     [21.8251642, 43.723378800000006], [21.8248611, 43.7229511],
     [21.8244569, 43.7227529], [21.8241394, 43.722638100000005],
     [21.8236053, 43.722627700000004], [21.8231146, 43.7225338],
     [21.822508300000003, 43.7220748],
     [21.8223956, 43.721924300000005],
     [21.822187200000002, 43.721645900000006],
     [21.8220083, 43.721227500000005], [21.8218295, 43.7209767],
     [21.821591100000003, 43.720555100000006],
     [21.8214761, 43.720075300000005], [21.8214399, 43.7195873],
     [21.8214633, 43.7194165], [21.8215182, 43.7192808],
     [21.821553700000003, 43.719177], [21.821538500000003, 43.719028],
     [21.821462500000003, 43.7188851],
     [21.821029900000003, 43.7182666]]}},
  {"type":"Feature",
   "properties":{},
   "geometry":
   {"type":"LineString",
    "coordinates":
    [[21.8267738, 43.7426231], [21.8269562, 43.742398300000005],
     [21.8270795, 43.7422084],
     [21.827074200000002, 43.742065000000004],
     [21.8270152, 43.7419371], [21.826961500000003, 43.7417589],
     [21.8266987, 43.7413132],
     [21.826575300000002, 43.741049600000004]]}},
  {"type":"Feature",
   "properties":{},
   "geometry":
   {"type":"LineString",
    "coordinates":
    [[21.8271576, 43.745588600000005], [21.827061, 43.7454491],
     [21.8269215, 43.7452437], [21.8267981, 43.7450345],
     [21.8266962, 43.7448174], [21.8266372, 43.744592700000005],
     [21.8266372, 43.744364000000004],
     [21.826613100000003, 43.7442129], [21.8265111, 43.7441237],
     [21.826449500000003, 43.744054000000006],
     [21.8266211, 43.743709100000004],
     [21.8265621, 43.743637400000004],
     [21.8264213, 43.743585100000004],
     [21.826401200000003, 43.7435114],
     [21.826433400000003, 43.7433215], [21.8265299, 43.7430929],
     [21.8266318, 43.7428758], [21.8267738, 43.7426231]]}},
  {"type":"Feature",
   "properties":{},
   "geometry":
   {"type":"LineString",
    "coordinates":
    [[21.825521400000003, 43.7469489], [21.8257574, 43.7468365],
     [21.826041800000002, 43.746728000000004],
     [21.8263046, 43.7464993], [21.8264977, 43.746325000000006],
     [21.826664, 43.7461816], [21.8268464, 43.745941300000005],
     [21.8269698, 43.745743700000006],
     [21.8271576, 43.745588600000005]]}},
  {"type":"Feature",
   "properties":{},
   "geometry":
   {"type":"LineString",
    "coordinates":
    [[21.8238115, 43.748803200000005], [21.8238692, 43.7487799],
     [21.8240945, 43.748628800000006],
     [21.824330500000002, 43.7483924], [21.8244539, 43.7481328],
     [21.824566500000003, 43.747869200000004],
     [21.8248079, 43.7476174], [21.825044000000002, 43.7473345],
     [21.825253200000002, 43.747144600000006],
     [21.825521400000003, 43.7469489]]}},
  {"type":"Feature",
   "properties":{},
   "geometry":
   {"type":"LineString",
    "coordinates":
    [[21.812531500000002, 43.7533757],
     [21.812665600000003, 43.753333000000005],
     [21.813084, 43.753303900000006], [21.81343, 43.753261300000005],
     [21.814004, 43.753195500000004], [21.8145029, 43.753137300000006],
     [21.814996400000002, 43.7530754],
     [21.815489900000003, 43.752970700000006],
     [21.8159727, 43.752811900000005],
     [21.816493100000002, 43.752656900000005],
     [21.8168793, 43.7525716], [21.8172709, 43.752459200000004],
     [21.817705500000002, 43.752346900000006], [21.81814, 43.7521957],
     [21.8183814, 43.7520098], [21.8185262, 43.7517463],
     [21.8186818, 43.7513665], [21.8187944, 43.7510643],
     [21.8188803, 43.7507426], [21.8191217, 43.7504598],
     [21.8194221, 43.7501691],
     [21.819776100000002, 43.749998600000005],
     [21.8202643, 43.749894000000005],
     [21.820672000000002, 43.749801000000005], [21.821085, 43.7497119],
     [21.821546400000003, 43.7495685], [21.8220077, 43.749367],
     [21.822430200000003, 43.749242], [21.8227185, 43.749126700000005],
     [21.8232992, 43.7488564], [21.8238115, 43.748803200000005]]}},
  {"type":"Feature",
   "properties":{},
   "geometry":
   {"type":"LineString",
    "coordinates":
    [[21.8118582, 43.740378], [21.811740200000003, 43.7405485],
     [21.811654400000002, 43.7407307],
     [21.8115203, 43.740893500000006],
     [21.8113433, 43.741067900000004], [21.8110858, 43.7412268],
     [21.810833600000002, 43.741358600000005],
     [21.8106781, 43.741482600000005], [21.8105386, 43.7416105],
     [21.8104903, 43.7417384], [21.8105064, 43.741939900000006],
     [21.810576100000002, 43.7422344],
     [21.810608300000002, 43.742416600000006],
     [21.810560000000002, 43.742614200000006],
     [21.8104528, 43.7428158], [21.8103884, 43.7429824],
     [21.810366900000002, 43.7431878], [21.8104152, 43.7433312],
     [21.8105654, 43.7435521], [21.8106298, 43.743753600000005],
     [21.8105708, 43.7439784], [21.8104796, 43.744156700000005],
     [21.810409800000002, 43.7443388],
     [21.810366900000002, 43.744540400000005],
     [21.8103455, 43.7446605], [21.8104528, 43.7448233],
     [21.8105654, 43.745005400000004], [21.8106405, 43.7451759],
     [21.8106566, 43.745299900000006],
     [21.810726300000002, 43.745513100000004],
     [21.8107103, 43.7457068], [21.8107961, 43.746036200000006],
     [21.810892600000003, 43.7463424],
     [21.8109463, 43.746667900000006], [21.8109946, 43.7469624],
     [21.811042800000003, 43.7472337], [21.8111019, 43.7475631],
     [21.8111448, 43.7478421], [21.8111877, 43.748090100000006],
     [21.811305700000002, 43.748345900000004],
     [21.8114452, 43.7485513], [21.8116115, 43.7487915],
     [21.8118529, 43.7490473],
     [21.812056700000003, 43.749291400000004],
     [21.812260600000002, 43.749582100000005],
     [21.8124483, 43.749853300000005],
     [21.812620000000003, 43.750081900000005],
     [21.812834600000002, 43.7503261],
     [21.8130706, 43.750558600000005], [21.8132208, 43.7507717],
     [21.813317400000003, 43.7509383], [21.8133066, 43.7511321],
     [21.8132208, 43.7513452], [21.813092100000002, 43.7515196],
     [21.812920400000003, 43.7517482],
     [21.812775600000002, 43.751992300000005],
     [21.8126307, 43.7522132], [21.812389300000003, 43.7525891],
     [21.8122177, 43.7529107], [21.8121157, 43.7531625],
     [21.812088900000003, 43.753238100000004],
     [21.8123866, 43.7533505], [21.812531500000002, 43.7533757]]}},
  {"type":"Feature",
   "properties":{},
   "geometry":
   {"type":"LineString",
    "coordinates":
    [[21.814873000000002, 43.7284261], [21.8148194, 43.7286452],
     [21.8147282, 43.728885500000004], [21.8146531, 43.7291801],
     [21.8145887, 43.729436], [21.8145834, 43.729641400000006],
     [21.8145244, 43.729889500000006],
     [21.8144278, 43.730145300000004],
     [21.814299000000002, 43.730455400000004],
     [21.8142186, 43.7306764], [21.8140791, 43.7309051],
     [21.8140147, 43.731095], [21.8141381, 43.731261700000005],
     [21.8143688, 43.7314129],
     [21.814540400000002, 43.731843100000006],
     [21.8147121, 43.732285100000006], [21.8145512, 43.7326301],
     [21.8145351, 43.733068], [21.8144332, 43.733661100000006],
     [21.813939700000002, 43.733971100000005],
     [21.813497, 43.733969300000005], [21.813363000000003, 43.7342115],
     [21.813395200000002, 43.7344091], [21.8135292, 43.7348336],
     [21.813314700000003, 43.735161100000006],
     [21.8132315, 43.7355913], [21.8131913, 43.7356902],
     [21.812974, 43.735953800000004],
     [21.812786300000003, 43.736215400000006], [21.8126897, 43.73651],
     [21.812609300000002, 43.736874300000004],
     [21.8125502, 43.737134000000005],
     [21.812512700000003, 43.7374285], [21.8125073, 43.7377192],
     [21.8124322, 43.7380526], [21.8123679, 43.738323900000005],
     [21.8123088, 43.738599], [21.812196200000002, 43.7388781],
     [21.812094300000002, 43.739207500000006],
     [21.811997700000003, 43.7394246],
     [21.811922600000003, 43.739630000000005],
     [21.811906500000003, 43.7399129],
     [21.811895800000002, 43.740188100000005],
     [21.8118582, 43.740378]]}},
  {"type":"Feature",
   "properties":{},
   "geometry":
   {"type":"LineString",
    "coordinates":
    [[21.8147765, 43.7202928], [21.8149911, 43.720285000000004],
     [21.8151949, 43.7202695], [21.8154417, 43.720234600000005],
     [21.8156187, 43.720285000000004], [21.815860100000002, 43.720382],
     [21.816042500000002, 43.7204866],
     [21.816160500000002, 43.7206417], [21.8162302, 43.7207852],
     [21.816278500000003, 43.7209402],
     [21.8163053, 43.721118600000004], [21.8163161, 43.7213202],
     [21.816369700000003, 43.7215295],
     [21.816359000000002, 43.721719500000006],
     [21.8163053, 43.7218474],
     [21.816359000000002, 43.722037400000005],
     [21.8164073, 43.722235100000006],
     [21.816342900000002, 43.7224522],
     [21.816235600000002, 43.7226112],
     [21.8161337, 43.722789500000005],
     [21.8160157, 43.723018200000006],
     [21.815951300000002, 43.7232896],
     [21.815854700000003, 43.723561000000004],
     [21.815779600000003, 43.723716100000004],
     [21.8157153, 43.7238866],
     [21.815736700000002, 43.724130900000006],
     [21.815752800000002, 43.7243518],
     [21.815779600000003, 43.7246193], [21.8158065, 43.7248752],
     [21.8158172, 43.725045800000004],
     [21.815779600000003, 43.725266700000006],
     [21.815763500000003, 43.7254334],
     [21.815720600000002, 43.7256273],
     [21.8156402, 43.725821100000005],
     [21.815597200000003, 43.7260421], [21.8155597, 43.726232],
     [21.815506000000003, 43.7264336],
     [21.8154524, 43.726635200000004],
     [21.815414800000003, 43.7268096],
     [21.815355800000003, 43.727007300000004],
     [21.8152861, 43.727119800000004],
     [21.815114400000002, 43.7273097], [21.8149696, 43.7274997],
     [21.8148462, 43.7277865], [21.8148623, 43.727992],
     [21.8148784, 43.728197400000006],
     [21.814873000000002, 43.7284261]]}},
  {"type":"Feature",
   "properties":{},
   "geometry":
   {"type":"LineString",
    "coordinates":
    [[21.810324400000002, 43.7189811],
     [21.8105118, 43.719058000000004], [21.8107639, 43.7192518],
     [21.8109785, 43.7194457], [21.8111877, 43.7196124],
     [21.811514900000002, 43.7197985],
     [21.811911900000002, 43.7199303],
     [21.812255200000003, 43.720038800000005],
     [21.812577100000002, 43.720143500000006],
     [21.8129579, 43.7202598], [21.8132315, 43.7203335],
     [21.8133656, 43.7203955], [21.8137036, 43.7203839],
     [21.8139825, 43.720380000000006], [21.81424, 43.7203102],
     [21.81446, 43.720275300000004], [21.8147765, 43.7202928]]}},
  {"type":"Feature",
   "properties":{},
   "geometry":
   {"type":"LineString",
    "coordinates":
    [[21.810869200000003, 43.7162349],
     [21.810534800000003, 43.7165392],
     [21.810266000000002, 43.7168172],
     [21.810151400000002, 43.716959800000005],
     [21.8101206, 43.717210400000006],
     [21.810092700000002, 43.7174733],
     [21.810120100000002, 43.7177347],
     [21.810151700000002, 43.7180599],
     [21.8101999, 43.718386800000005], [21.8103115, 43.7187324],
     [21.810337, 43.7188488], [21.810345100000003, 43.7189214],
     [21.810324400000002, 43.7189811]]}},
  {"type":"Feature",
   "properties":{},
   "geometry":
   {"type":"LineString",
    "coordinates":
    [[21.810869200000003, 43.7162349],
     [21.810789200000002, 43.716039800000004],
     [21.8107013, 43.7158445], [21.8105088, 43.7156223],
     [21.810081500000003, 43.7154858], [21.8096797, 43.7155082],
     [21.8094974, 43.7154724], [21.8093113, 43.715502900000004],
     [21.809247900000003, 43.715331600000006],
     [21.809253400000003, 43.715021], [21.8091346, 43.714618200000004],
     [21.809071000000003, 43.714513100000005],
     [21.808991600000002, 43.714458900000004]]}},
  {"type":"Feature",
   "properties":{},
   "geometry":
   {"type":"LineString",
    "coordinates":
    [[21.808991600000002, 43.714458900000004],
     [21.8087035, 43.714441300000004], [21.8086874, 43.714703],
     [21.8085357, 43.7147894], [21.808620700000002, 43.7151244]]}},
  {"type":"Feature",
   "properties":{},
   "geometry":
   {"type":"LineString",
    "coordinates":
    [[21.808991600000002, 43.714458900000004],
     [21.8087035, 43.714441300000004], [21.8086874, 43.714703],
     [21.8085357, 43.7147894], [21.808620700000002, 43.7151244]]}},
  {"type":"Feature",
   "properties":{},
   "geometry":
   {"type":"LineString",
    "coordinates":
    [[21.808991600000002, 43.714458900000004],
     [21.8090242, 43.714323300000004],
     [21.8090845, 43.714125700000004], [21.8091987, 43.7140581],
     [21.809500200000002, 43.714004100000004]]}},
  {"type":"Feature",
   "properties":{},
   "geometry":
   {"type":"LineString",
    "coordinates":
    [[21.809500200000002, 43.714004100000004],
     [21.8091052, 43.7136566], [21.8090288, 43.7136087],
     [21.8089376, 43.713576700000004], [21.8088692, 43.7135587],
     [21.8087941, 43.7135558]]}},
  {"type":"Feature",
   "properties":{},
   "geometry":
   {"type":"LineString",
    "coordinates":
    [[21.805834, 43.711353800000005], [21.8059972, 43.712014],
     [21.8060428, 43.7120751], [21.8067938, 43.7126663],
     [21.806960200000002, 43.7128], [21.807019200000003, 43.7128582],
     [21.807105, 43.7129667], [21.807223, 43.713102400000004],
     [21.807346300000003, 43.713187700000006], [21.807518, 43.713335],
     [21.8076307, 43.713428], [21.8079368, 43.7136306],
     [21.8080196, 43.7136658], [21.8080786, 43.7136755],
     [21.8081403, 43.7136736],
     [21.808219400000002, 43.713657100000006],
     [21.808442000000003, 43.7136067], [21.8086351, 43.7135485],
     [21.808721000000002, 43.7135388], [21.8087941, 43.7135558]]}},
  {"type":"Feature",
   "properties":{},
   "geometry":
   {"type":"LineString",
    "coordinates":
    [[21.805834, 43.711353800000005], [21.805958800000003, 43.7112885],
     [21.8063606, 43.711197000000006], [21.8067376, 43.7111232],
     [21.8070188, 43.7110227], [21.8075239, 43.710836],
     [21.8079, 43.7107183],
     [21.808032100000002, 43.710677000000004]]}},
  {"type":"Feature",
   "properties":{},
   "geometry":
   {"type":"LineString",
    "coordinates":
    [[21.808032100000002, 43.710677000000004],
     [21.8086236, 43.710556800000006], [21.8092887, 43.710425],
     [21.809927100000003, 43.7103435], [21.8104528, 43.7103552],
     [21.8108605, 43.7104793]]}},
  {"type":"Feature",
   "properties":{},
   "geometry":
   {"type":"LineString",
    "coordinates":
    [[21.8108605, 43.7104793], [21.8111931, 43.710657600000005],
     [21.8114667, 43.7107662], [21.8114721, 43.7109329],
     [21.8115433, 43.711024800000004],
     [21.811597900000002, 43.7110934],
     [21.8116276, 43.711130700000005], [21.8119817, 43.7111229],
     [21.812325, 43.7110144], [21.8124484, 43.710832100000005],
     [21.8121963, 43.7107003], [21.8121587, 43.7105297],
     [21.812335700000002, 43.710425], [21.8126308, 43.710409500000004],
     [21.8127649, 43.710584000000004],
     [21.813059900000003, 43.7107003], [21.8135543, 43.7107377]]}},
  {"type":"Feature",
   "properties":{},
   "geometry":
   {"type":"LineString",
    "coordinates":
    [[21.816462100000003, 43.713182700000004],
     [21.8164513, 43.7131625], [21.8164181, 43.713146],
     [21.8163506, 43.7131338], [21.816191500000002, 43.7130858],
     [21.8161281, 43.7130622], [21.8160692, 43.713034300000004],
     [21.8158645, 43.7129034], [21.8155332, 43.712689600000004],
     [21.815254000000003, 43.7125423],
     [21.8150094, 43.712390500000005], [21.814879, 43.7122801],
     [21.8147832, 43.7121755],
     [21.814705800000002, 43.712069400000004],
     [21.8145364, 43.7118017], [21.8144816, 43.7117571],
     [21.814393900000002, 43.7117129], [21.814245800000002, 43.711643],
     [21.814110600000003, 43.711547700000004],
     [21.8139721, 43.7113816], [21.8138031, 43.7110934],
     [21.8135543, 43.7107377]]}},
  {"type":"Feature",
   "properties":{},
   "geometry":
   {"type":"LineString",
    "coordinates":
    [[21.8164698, 43.7132511],
     [21.816462100000003, 43.713182700000004]]}},
  {"type":"Feature",
   "properties":{},
   "geometry":
   {"type":"LineString",
    "coordinates":
    [[21.816570600000002, 43.714324700000006],
     [21.816439000000003, 43.714242500000005],
     [21.8163963, 43.7141936], [21.816360600000003, 43.714131],
     [21.816330100000002, 43.714066200000005],
     [21.816290300000002, 43.7139108], [21.8162689, 43.7137605],
     [21.8162139, 43.7136243], [21.816200700000003, 43.7135661],
     [21.816214900000002, 43.7135241],
     [21.816261800000003, 43.713481400000006],
     [21.816380000000002, 43.713397400000005],
     [21.816434, 43.713355400000005], [21.8164544, 43.7133267],
     [21.816469700000003, 43.713299400000004],
     [21.8164698, 43.7132511]]}},
  {"type":"Feature",
   "properties":{},
   "geometry":
   {"type":"LineString",
    "coordinates":
    [[21.816570600000002, 43.714324700000006],
     [21.816540800000002, 43.714338500000004],
     [21.8165145, 43.7143601],
     [21.816446300000003, 43.714457800000005],
     [21.8163774, 43.7145505], [21.816248100000003, 43.7146702],
     [21.816103100000003, 43.714737500000005],
     [21.8160287, 43.714764200000005]]}},
  {"type":"Feature",
   "properties":{},
   "geometry":
   {"type":"LineString",
    "coordinates":
    [[21.8160287, 43.714764200000005],
     [21.815893900000003, 43.7148097]]}},
  {"type":"Feature",
   "properties":{},
   "geometry":
   {"type":"LineString",
    "coordinates":
    [[21.815893900000003, 43.7148097],
     [21.815812100000002, 43.7148367], [21.81566, 43.714888300000005],
     [21.8155854, 43.7149184], [21.8155271, 43.714947300000006],
     [21.8154842, 43.7149871], [21.8154332, 43.715049],
     [21.8151757, 43.715495000000004]]}},
  {"type":"Feature",
   "properties":{},
   "geometry":
   {"type":"LineString",
    "coordinates":
    [[21.81614, 43.716195000000006],
     [21.815988400000002, 43.716098900000006],
     [21.8158248, 43.716017400000005],
     [21.815714800000002, 43.715982600000004],
     [21.8155888, 43.715955400000006],
     [21.815457300000002, 43.7158876], [21.8153769, 43.7158236],
     [21.815230500000002, 43.715648300000005],
     [21.8152066, 43.715565700000006],
     [21.8151757, 43.715495000000004]]}},
  {"type":"Feature",
   "properties":{},
   "geometry":
   {"type":"LineString",
    "coordinates":
    [[21.820189000000003, 43.7160084],
     [21.8199504, 43.716033700000004], [21.819693, 43.716076400000006],
     [21.8193604, 43.7161113], [21.819001, 43.716157800000005],
     [21.8186469, 43.7161617],
     [21.818276800000003, 43.716188900000006],
     [21.8179549, 43.7162005], [21.817574, 43.716219900000006],
     [21.817187800000003, 43.7162664],
     [21.8167425, 43.716239300000005],
     [21.816543000000003, 43.7161624],
     [21.816353600000003, 43.7161555],
     [21.816277200000002, 43.716174800000005],
     [21.81614, 43.716195000000006]]}},
  {"type":"Feature",
   "properties":{},
   "geometry":
   {"type":"LineString",
    "coordinates":
    [[21.8201725, 43.715842200000004],
     [21.820189000000003, 43.7160084]]}},
  {"type":"Feature",
   "properties":{},
   "geometry":
   {"type":"LineString",
    "coordinates":
    [[21.8201725, 43.715842200000004],
     [21.8198429, 43.715826400000005],
     [21.819674000000003, 43.715776000000005],
     [21.818855900000003, 43.7155628],
     [21.8186091, 43.715580200000005], [21.8184536, 43.7155569],
     [21.818289800000002, 43.7154649],
     [21.8180298, 43.715444500000004], [21.8177294, 43.7154193],
     [21.817555900000002, 43.7153786],
     [21.8174406, 43.715324300000006]]}},
  {"type":"Feature",
   "properties":{},
   "geometry":
   {"type":"LineString",
    "coordinates":
    [[21.8201725, 43.715842200000004],
     [21.8198429, 43.715826400000005],
     [21.819674000000003, 43.715776000000005],
     [21.818855900000003, 43.7155628],
     [21.8186091, 43.715580200000005], [21.8184536, 43.7155569],
     [21.818289800000002, 43.7154649],
     [21.8180298, 43.715444500000004], [21.8177294, 43.7154193],
     [21.817555900000002, 43.7153786],
     [21.8174406, 43.715324300000006]]}},
  {"type":"Feature",
   "properties":{},
   "geometry":
   {"type":"LineString",
    "coordinates":
    [[21.820818900000003, 43.7148242],
     [21.8207656, 43.715008100000006], [21.820685, 43.715169100000004],
     [21.820596700000003, 43.7153074],
     [21.820420900000002, 43.7154491], [21.8202156, 43.715622],
     [21.8201725, 43.715842200000004]]}}]}
