{"type":"FeatureCollection",
 "properties":{},
 "features":
 [{"type":"Feature",
   "properties":{},
   "geometry":
   {"type":"LineString",
    "coordinates":
    [[21.887826200000003, 43.5908364],
     [21.8877557, 43.590487800000005], [21.8874768, 43.5901148],
     [21.886983200000003, 43.5897573], [21.8867687, 43.5896641],
     [21.8864039, 43.5896485], [21.8854383, 43.5898661],
     [21.884944800000003, 43.590021500000006],
     [21.8846014, 43.5901925], [21.884086500000002, 43.5903324],
     [21.883421300000002, 43.5905499], [21.882369800000003, 43.590581],
     [21.8811897, 43.5910473], [21.8799022, 43.591482400000004],
     [21.878786400000003, 43.591902000000005],
     [21.8775848, 43.5921973], [21.87722, 43.5922129],
     [21.8770269, 43.5923838], [21.8766192, 43.5925081],
     [21.874945500000003, 43.592756800000004],
     [21.874473400000003, 43.5927257],
     [21.8740872, 43.592570300000006],
     [21.873808200000003, 43.5926636],
     [21.873293200000003, 43.5927257],
     [21.871920000000003, 43.5927723],
     [21.871147500000003, 43.5926636], [21.8708685, 43.5924926],
     [21.870181900000002, 43.591839900000004],
     [21.869259200000002, 43.590907400000006],
     [21.869259200000002, 43.5906432],
     [21.869259200000002, 43.5901459],
     [21.869259200000002, 43.589959400000005],
     [21.8692163, 43.5898817], [21.8691305, 43.5898428]]}},
  {"type":"Feature",
   "properties":{},
   "geometry":
   {"type":"LineString",
    "coordinates":
    [[21.8691305, 43.5898428], [21.869044600000002, 43.5898739],
     [21.868991, 43.5899749], [21.8689481, 43.5900915],
     [21.868679800000002, 43.590340100000006],
     [21.868197000000002, 43.590868500000006],
     [21.867971700000002, 43.591373600000004],
     [21.8674031, 43.5918476], [21.867049100000003, 43.592174],
     [21.8666306, 43.592360500000005], [21.8658474, 43.5924227],
     [21.865278800000002, 43.592547], [21.864989100000003, 43.5926713],
     [21.8647102, 43.592958800000005],
     [21.8643883, 43.593277400000005],
     [21.8641523, 43.593386200000005], [21.8638304, 43.5934328],
     [21.8635729, 43.5933707], [21.8631867, 43.5931298],
     [21.8628755, 43.5929744], [21.8622425, 43.5928345],
     [21.861706100000003, 43.5926636],
     [21.860375700000002, 43.592111800000005],
     [21.8590775, 43.5915679], [21.8583158, 43.5911172]]}},
  {"type":"Feature",
   "properties":{},
   "geometry":
   {"type":"LineString",
    "coordinates":
    [[21.8583158, 43.5911172], [21.8582503, 43.5909794],
     [21.8583898, 43.5907618],
     [21.858518500000002, 43.590575300000005], [21.858481, 43.5902839],
     [21.858641900000002, 43.5900158],
     [21.8587707, 43.589740000000006],
     [21.858915500000002, 43.5894447],
     [21.858990600000002, 43.5891339],
     [21.859033500000002, 43.5888463], [21.8591301, 43.5885471],
     [21.8591462, 43.588275200000005],
     [21.858958400000002, 43.5880809], [21.8585883, 43.5879993],
     [21.858094700000002, 43.5880148],
     [21.8577139, 43.587906000000004], [21.8573384, 43.5878555],
     [21.8571452, 43.5880304], [21.8569736, 43.588154700000004],
     [21.8565873, 43.5881586], [21.8561206, 43.5881314],
     [21.855798800000002, 43.5883606], [21.8555788, 43.5885782],
     [21.855149700000002, 43.588714200000005],
     [21.854827800000002, 43.5889007], [21.8545489, 43.58906],
     [21.854404000000002, 43.58906],
     [21.854237700000002, 43.588931800000005],
     [21.8539856, 43.5888347], [21.8537442, 43.5888386],
     [21.8534581, 43.5889023]]}},
  {"type":"Feature",
   "properties":{},
   "geometry":
   {"type":"LineString",
    "coordinates":
    [[21.8534581, 43.5889023], [21.8534197, 43.5889096],
     [21.8533428, 43.588930100000006], [21.8532295, 43.588977],
     [21.853152100000003, 43.5889924],
     [21.853073000000002, 43.5890021], [21.8529929, 43.5890063],
     [21.852908600000003, 43.5890046], [21.8528249, 43.5889966],
     [21.8527428, 43.5889825], [21.852663200000002, 43.5889624],
     [21.8525047, 43.5889444], [21.852348600000003, 43.5889175],
     [21.852196000000003, 43.5888818],
     [21.852054600000002, 43.5888397],
     [21.8519179, 43.588790100000004],
     [21.851786800000003, 43.5887332], [21.851662, 43.5886694],
     [21.8516002, 43.5885783],
     [21.851528300000002, 43.588491100000006],
     [21.851446900000003, 43.5884086],
     [21.8513564, 43.588331100000005],
     [21.851257500000003, 43.5882592],
     [21.8511209, 43.588228900000004], [21.851039500000002, 43.588202],
     [21.850959900000003, 43.588170600000005],
     [21.850842200000002, 43.5881142], [21.850721, 43.588063600000005],
     [21.8506538, 43.5880431], [21.8505998, 43.588029000000006],
     [21.8505246, 43.5879969],
     [21.850436100000003, 43.587967400000004],
     [21.850309600000003, 43.5879508], [21.8502379, 43.5879617],
     [21.850181300000003, 43.587970000000006],
     [21.8499963, 43.5880261], [21.8499644, 43.5880297],
     [21.8499322, 43.588028200000004],
     [21.8499012, 43.588021700000006],
     [21.8498683, 43.588008300000006],
     [21.849841100000003, 43.5879892],
     [21.849821300000002, 43.5879659], [21.8498102, 43.5879397],
     [21.849796400000002, 43.5878566],
     [21.8497893, 43.587733500000006], [21.8498091, 43.5875878],
     [21.8498084, 43.587532], [21.849787600000003, 43.5874849],
     [21.849755400000003, 43.5874436],
     [21.8497239, 43.587413000000005],
     [21.849670900000003, 43.587374600000004],
     [21.849625300000003, 43.587355200000005],
     [21.849565700000003, 43.5873222], [21.84928, 43.5871973],
     [21.849213600000002, 43.5871706],
     [21.8491667, 43.587155100000004], [21.8491238, 43.5871526],
     [21.849082000000003, 43.5871523],
     [21.8490334, 43.587166700000004], [21.8489901, 43.5871882],
     [21.848905000000002, 43.5872413],
     [21.848852500000003, 43.5872802],
     [21.8486423, 43.587391800000006],
     [21.848588600000003, 43.587417200000004],
     [21.848527500000003, 43.5874437], [21.8484543, 43.5874637],
     [21.848362100000003, 43.587467100000005],
     [21.8482932, 43.5874654], [21.8482208, 43.5874569],
     [21.8481555, 43.5874383], [21.848057400000002, 43.5874138],
     [21.8479433, 43.587378400000006],
     [21.847833100000003, 43.587362600000006],
     [21.8477177, 43.587339400000005], [21.847610200000002, 43.587336],
     [21.847536700000003, 43.587341900000006],
     [21.8474633, 43.587357100000006], [21.8474104, 43.5873596],
     [21.8472787, 43.5873732], [21.847204, 43.587369800000005],
     [21.847125700000003, 43.5873597],
     [21.847033500000002, 43.5873292],
     [21.846900400000003, 43.5872717],
     [21.846723800000003, 43.5871579],
     [21.846568100000002, 43.5870802],
     [21.846417300000002, 43.586997800000006]]}},
  {"type":"Feature",
   "properties":{},
   "geometry":
   {"type":"LineString",
    "coordinates":
    [[21.846417300000002, 43.586997800000006],
     [21.8464382, 43.5869657], [21.846439500000002, 43.5868947],
     [21.8464302, 43.5868102], [21.846457, 43.5867568],
     [21.846510600000002, 43.586724700000005],
     [21.8465978, 43.586672300000004],
     [21.846612500000003, 43.5866344], [21.8466233, 43.5865412],
     [21.8466233, 43.5864081]]}},
  {"type":"Feature",
   "properties":{},
   "geometry":
   {"type":"LineString",
    "coordinates":
    [[21.8466233, 43.5864081], [21.846575, 43.586394500000004],
     [21.846453, 43.5863644], [21.846344300000002, 43.586305100000004],
     [21.8461991, 43.586145900000005],
     [21.846084100000002, 43.5860448],
     [21.845989900000003, 43.5859729],
     [21.8457583, 43.585861200000004],
     [21.8455464, 43.585773700000004], [21.8453157, 43.5857048],
     [21.8451132, 43.5856057], [21.8450582, 43.5855649],
     [21.8449844, 43.5855085], [21.8448071, 43.5853279],
     [21.8445995, 43.585141300000004],
     [21.8444748, 43.585086000000004], [21.8442562, 43.5850141],
     [21.8440936, 43.5849801], [21.8438981, 43.5849587],
     [21.843764, 43.584938300000005], [21.843596400000003, 43.5848693],
     [21.843387200000002, 43.5848023],
     [21.8432061, 43.584738200000004],
     [21.843065300000003, 43.5846886],
     [21.842744500000002, 43.584564400000005], [21.8424441, 43.584442],
     [21.8421302, 43.584385600000005], [21.8420206, 43.584302],
     [21.8419452, 43.5841622],
     [21.841926700000002, 43.584117400000004],
     [21.841784200000003, 43.583917400000004],
     [21.8417658, 43.583854200000005],
     [21.841757700000002, 43.5837677],
     [21.841760400000002, 43.5836035],
     [21.841646400000002, 43.583516100000004],
     [21.841442500000003, 43.5834307]]}}]}
