{"type":"FeatureCollection",
 "properties":{},
 "features":
 [{"type":"Feature",
   "properties":{},
   "geometry":
   {"type":"LineString",
    "coordinates":
    [[21.802403400000003, 43.533153000000006],
     [21.8023621, 43.533205200000005], [21.8023363, 43.5332597],
     [21.8023293, 43.533331100000005], [21.8023387, 43.5334621],
     [21.8023387, 43.533644100000004], [21.8023387, 43.5338517],
     [21.8023481, 43.534015000000004],
     [21.8023504, 43.534173200000005], [21.8023293, 43.5343365],
     [21.8022941, 43.534567900000006], [21.80228, 43.534658],
     [21.8022683, 43.534727800000006], [21.8022519, 43.5347856],
     [21.8022589, 43.5348741], [21.802289400000003, 43.5349506],
     [21.8023269, 43.535032300000005], [21.802402, 43.535113900000006],
     [21.802500600000002, 43.5352143],
     [21.802559300000002, 43.5352959],
     [21.8026179, 43.535394600000004],
     [21.8027376, 43.535629400000005],
     [21.802789200000003, 43.535787600000006],
     [21.8027994, 43.535868]]}},
  {"type":"Feature",
   "properties":{},
   "geometry":
   {"type":"LineString",
    "coordinates":
    [[21.8027994, 43.535868], [21.8027678, 43.5359514],
     [21.8026766, 43.536252700000006], [21.802623, 43.536453],
     [21.8023627, 43.536723900000005],
     [21.802102100000003, 43.5370598], [21.80195, 43.5372855],
     [21.8018414, 43.537443], [21.8017563, 43.5374855],
     [21.801679, 43.5375352], [21.801610500000002, 43.5375913],
     [21.801551800000002, 43.537652900000005],
     [21.801512900000002, 43.5377049],
     [21.8014811, 43.537759300000005], [21.8014566, 43.5378156],
     [21.8014395, 43.5378734], [21.801189100000002, 43.5385247],
     [21.8011537, 43.5390273], [21.8011148, 43.5395478],
     [21.801206800000003, 43.539929900000004],
     [21.801390700000002, 43.540463200000005],
     [21.8014438, 43.5407863], [21.801437500000002, 43.5408473],
     [21.8014204, 43.540907100000005],
     [21.8013929, 43.540964900000006],
     [21.8013553, 43.541019600000006],
     [21.801310100000002, 43.541068800000005],
     [21.8012567, 43.5411135], [21.8012252, 43.5411323],
     [21.801196100000002, 43.541153], [21.8011485, 43.5411967],
     [21.801111300000002, 43.5412455],
     [21.8010857, 43.541298100000006], [21.8010723, 43.541353],
     [21.8010473, 43.541427500000005],
     [21.801014600000002, 43.541500500000005],
     [21.800974500000002, 43.5415715], [21.8009273, 43.5416402],
     [21.80087, 43.541696900000005], [21.8008199, 43.5417572],
     [21.8007776, 43.5418205], [21.8007434, 43.5418863],
     [21.8007138, 43.541966], [21.8006961, 43.5420475],
     [21.800690300000003, 43.542129900000006],
     [21.800729200000003, 43.542494000000005],
     [21.8007186, 43.542824800000005],
     [21.800670800000002, 43.543356800000005],
     [21.800727400000003, 43.5439196],
     [21.800736200000003, 43.543994600000005],
     [21.8007543, 43.544068700000004],
     [21.800781500000003, 43.5441414],
     [21.800817600000002, 43.5442119],
     [21.800861700000002, 43.5442789],
     [21.800913700000002, 43.5443427], [21.800973300000003, 43.544403],
     [21.8014508, 43.544809400000005], [21.8014906, 43.5448557],
     [21.801525400000003, 43.544904100000004],
     [21.801555200000003, 43.5449542], [21.8015805, 43.5450078],
     [21.8016, 43.5450626], [21.8016136, 43.545118300000006],
     [21.801642700000002, 43.5451934],
     [21.801683500000003, 43.5452655], [21.8017356, 43.5453337],
     [21.802054000000002, 43.5455927],
     [21.802351100000003, 43.545849000000004],
     [21.8024644, 43.545970600000004], [21.8025677, 43.5460968],
     [21.802660600000003, 43.546227200000004],
     [21.802739000000003, 43.5463547], [21.8028075, 43.5464852],
     [21.802865800000003, 43.546618200000005],
     [21.803265500000002, 43.5472028],
     [21.8036458, 43.547731000000006], [21.8038633, 43.5481181],
     [21.804087900000003, 43.5484181],
     [21.804176400000003, 43.548604000000005],
     [21.804215300000003, 43.548891100000006],
     [21.8042471, 43.5492513], [21.8042577, 43.549505100000005],
     [21.8042224, 43.549659000000005],
     [21.804130400000002, 43.5498987], [21.8040702, 43.5501999],
     [21.804052600000002, 43.550308900000005],
     [21.804089700000002, 43.5504448], [21.8041905, 43.5505627],
     [21.804249300000002, 43.5506346], [21.8043136, 43.5507038],
     [21.8043833, 43.550770400000005],
     [21.804489200000003, 43.5508582],
     [21.804604400000002, 43.5509396]]}},
  {"type":"Feature",
   "properties":{},
   "geometry":
   {"type":"LineString",
    "coordinates":
    [[21.804604400000002, 43.5509396],
     [21.8045945, 43.550957600000004],
     [21.804592900000003, 43.5509769], [21.8046, 43.5509956],
     [21.804651500000002, 43.551062800000004],
     [21.8046954, 43.551132800000005], [21.8047362, 43.5512172],
     [21.804765800000002, 43.551304], [21.804782000000003, 43.5513635],
     [21.8047925, 43.5514237],
     [21.804797100000002, 43.551484300000006],
     [21.8047936, 43.551569900000004], [21.8047784, 43.5516548],
     [21.8047517, 43.551738300000004], [21.804744600000003, 43.551858],
     [21.8047314, 43.5519775], [21.8047022, 43.5521448],
     [21.804661000000003, 43.5523108],
     [21.8046387, 43.552413300000005],
     [21.804627200000002, 43.552516700000005],
     [21.8046265, 43.5526204],
     [21.804635400000002, 43.552714800000004],
     [21.804653100000003, 43.552808600000006],
     [21.804666400000002, 43.552854800000006],
     [21.8046873, 43.5528995], [21.8047153, 43.5529421],
     [21.8047501, 43.552982], [21.8048043, 43.5530285],
     [21.8048678, 43.5530685], [21.8049389, 43.5531008],
     [21.804978600000002, 43.5531111],
     [21.805016100000003, 43.5531249], [21.8050633, 43.5531494],
     [21.805103900000002, 43.5531796], [21.8051365, 43.5532145],
     [21.805175000000002, 43.553283],
     [21.805221200000002, 43.553349100000005],
     [21.805274700000002, 43.553412200000004],
     [21.805335200000002, 43.553471800000004],
     [21.8054081, 43.553532100000005],
     [21.8054881, 43.553587400000005],
     [21.8055746, 43.553637300000005],
     [21.8059704, 43.553797200000005],
     [21.8061784, 43.553882200000004], [21.806363, 43.5539593],
     [21.806721300000003, 43.554245], [21.8067542, 43.554280600000006],
     [21.8067804, 43.554319], [21.8067995, 43.554359500000004],
     [21.8068113, 43.5544029], [21.8068151, 43.5544469],
     [21.806810600000002, 43.554491000000006],
     [21.806797900000003, 43.554534100000005],
     [21.8067791, 43.554762000000004], [21.8067749, 43.5548128],
     [21.8067807, 43.5548635], [21.8068144, 43.5550298],
     [21.8070692, 43.5551698], [21.8073026, 43.555195000000005],
     [21.807654000000003, 43.5551309],
     [21.8079731, 43.555094000000004],
     [21.8082709, 43.555125100000005],
     [21.808560500000002, 43.5552475], [21.80881, 43.5554283],
     [21.8090702, 43.555626600000004], [21.8093089, 43.555819],
     [21.809528800000002, 43.5559978],
     [21.809662900000003, 43.556151400000005],
     [21.809781, 43.556330200000005], [21.809899, 43.5565421],
     [21.810062600000002, 43.5568065], [21.8101591, 43.5570766],
     [21.810287900000002, 43.5573526],
     [21.810456900000002, 43.5577181],
     [21.8105347, 43.558017400000004], [21.8106741, 43.5582098],
     [21.8109423, 43.558227300000006], [21.8111998, 43.558377],
     [21.8114788, 43.558688000000004],
     [21.811830200000003, 43.5590573], [21.8119616, 43.5592458],
     [21.8120018, 43.559432400000006]]}},
  {"type":"Feature",
   "properties":{},
   "geometry":
   {"type":"LineString",
    "coordinates":
    [[21.8120018, 43.559432400000006], [21.8121574, 43.5595908],
     [21.8126241, 43.5598474], [21.813085400000002, 43.5599446],
     [21.8132464, 43.5601001],
     [21.813219500000002, 43.560356600000006],
     [21.8131123, 43.560691000000006], [21.8130372, 43.5611497],
     [21.8129567, 43.561452900000006],
     [21.8128172, 43.561717200000004], [21.8126992, 43.5619893],
     [21.8126134, 43.562261400000004], [21.8125061, 43.5625724],
     [21.8124846, 43.5627629], [21.8124149, 43.562984400000005],
     [21.8124471, 43.563241000000005], [21.812372, 43.5635947],
     [21.8122271, 43.563901800000004], [21.8120823, 43.5641583],
     [21.811996500000003, 43.5644226],
     [21.812162800000003, 43.5646209], [21.8123827, 43.5648502],
     [21.8124256, 43.565071800000005], [21.812372, 43.5653827],
     [21.8123505, 43.565682], [21.8123344, 43.5661135],
     [21.812431, 43.5663934], [21.812677700000002, 43.566595500000005],
     [21.8128011, 43.566817], [21.8127958, 43.5671358],
     [21.812844000000002, 43.567454500000004],
     [21.8129567, 43.5678393], [21.813010300000002, 43.5682629],
     [21.8131176, 43.568663300000004], [21.8132035, 43.5689781],
     [21.813219500000002, 43.5692152],
     [21.813267800000002, 43.5695728], [21.8132732, 43.5697671],
     [21.813284200000002, 43.569856], [21.8133553, 43.569944400000004],
     [21.8134102, 43.570018000000005],
     [21.813420400000002, 43.5700872], [21.8133966, 43.5701674],
     [21.8132984, 43.570349400000005], [21.8132415, 43.5704451],
     [21.8131622, 43.5705261]]}},
  {"type":"Feature",
   "properties":{},
   "geometry":
   {"type":"LineString",
    "coordinates":
    [[21.8131622, 43.5705261], [21.8135575, 43.570585300000005],
     [21.8140939, 43.5706319], [21.814405100000002, 43.5707718],
     [21.8147109, 43.570993400000006],
     [21.815161500000002, 43.570954500000006],
     [21.815655000000003, 43.5707019]]}},
  {"type":"Feature",
   "properties":{},
   "geometry":
   {"type":"LineString",
    "coordinates":
    [[21.8131622, 43.5705261], [21.8135575, 43.570585300000005],
     [21.8140939, 43.5706319], [21.814405100000002, 43.5707718],
     [21.8147109, 43.570993400000006],
     [21.815161500000002, 43.570954500000006],
     [21.815655000000003, 43.5707019]]}},
  {"type":"Feature",
   "properties":{},
   "geometry":
   {"type":"LineString",
    "coordinates":
    [[21.8131622, 43.5705261],
     [21.813127700000003, 43.570642500000005],
     [21.8131378, 43.5707426], [21.8131419, 43.5707986],
     [21.8131713, 43.570872900000005],
     [21.8134288, 43.571199400000005],
     [21.813809600000003, 43.571537500000005],
     [21.8140939, 43.5716619], [21.8146036, 43.5718193],
     [21.815011300000002, 43.571967], [21.8156228, 43.5721457],
     [21.8158861, 43.5722183], [21.8161036, 43.572243300000004],
     [21.8163963, 43.5723155], [21.8166321, 43.5723788],
     [21.816803, 43.572456700000004], [21.8174452, 43.572689600000004],
     [21.817593600000002, 43.5728206],
     [21.817748100000003, 43.573046000000005], [21.8178497, 43.573208],
     [21.8180611, 43.5734392], [21.8182644, 43.5736483],
     [21.818459500000003, 43.5738648], [21.818630300000002, 43.574043],
     [21.8188335, 43.5742344], [21.8192062, 43.5745554]]}},
  {"type":"Feature",
   "properties":{},
   "geometry":
   {"type":"LineString",
    "coordinates":
    [[21.8192062, 43.5745554],
     [21.819353900000003, 43.574674800000004],
     [21.819482, 43.574832300000004], [21.8195389, 43.575023800000004],
     [21.819654800000002, 43.575219600000004],
     [21.8197788, 43.5753743], [21.8198662, 43.5755731],
     [21.8199739, 43.575715900000006], [21.8201772, 43.5757837],
     [21.8203357, 43.575841100000005],
     [21.8204943, 43.575973600000005],
     [21.820559300000003, 43.5761474],
     [21.820600000000002, 43.5763447],
     [21.820656900000003, 43.5765067], [21.8207321, 43.5766569],
     [21.8208175, 43.5767777], [21.8209516, 43.576933800000006],
     [21.821096, 43.5770678], [21.8212505, 43.5771871],
     [21.821429300000002, 43.577282800000006],
     [21.8216794, 43.5774551], [21.822011800000002, 43.5777305],
     [21.822285400000002, 43.578014200000005],
     [21.822401000000003, 43.578203200000004],
     [21.822510700000002, 43.5783095],
     [21.822677000000002, 43.5786554],
     [21.822699800000002, 43.5788378],
     [21.822752100000002, 43.5789701],
     [21.822770900000002, 43.579135300000004],
     [21.8228665, 43.5795241], [21.8228766, 43.5796271],
     [21.822868500000002, 43.5797243], [21.8228604, 43.5798392],
     [21.8228258, 43.5799776],
     [21.822738400000002, 43.580151400000005]]}},
  {"type":"Feature",
   "properties":{},
   "geometry":
   {"type":"LineString",
    "coordinates":
    [[21.833845200000003, 43.572784500000004],
     [21.833827000000003, 43.5728613],
     [21.833757300000002, 43.5731139],
     [21.833735800000003, 43.573316000000005],
     [21.8337627, 43.5735687], [21.8337305, 43.5738329],
     [21.8337037, 43.5740457],
     [21.833709000000002, 43.574259500000004],
     [21.833676800000003, 43.5744577],
     [21.8336286, 43.574698600000005],
     [21.833585600000003, 43.5749085],
     [21.8335535, 43.575083400000004],
     [21.833376400000002, 43.575203900000005],
     [21.833258400000002, 43.575351500000004],
     [21.8330975, 43.5755459], [21.8329795, 43.575740200000006],
     [21.8327917, 43.5759228], [21.8326093, 43.5760938],
     [21.8324913, 43.5763309], [21.8323411, 43.576525200000006],
     [21.8322392, 43.576684500000006], [21.83203, 43.5768361],
     [21.8318583, 43.5769682], [21.831515000000003, 43.5770615],
     [21.831182400000003, 43.5771548], [21.8310375, 43.5773646],
     [21.830930300000002, 43.5774929],
     [21.830914200000002, 43.577656100000006],
     [21.830764000000002, 43.5778971], [21.830662, 43.578110800000005],
     [21.8305387, 43.5782429], [21.8304796, 43.5784139],
     [21.8302114, 43.578658700000005],
     [21.829959300000002, 43.5788336], [21.8298305, 43.5788608],
     [21.8295891, 43.578822], [21.8294068, 43.578748100000006],
     [21.8290849, 43.578767500000005],
     [21.828795200000002, 43.578798600000006],
     [21.828576400000003, 43.5787878], [21.8282919, 43.5787289],
     [21.8280703, 43.5786449], [21.8278792, 43.578549200000005],
     [21.827717, 43.5784955], [21.827545800000003, 43.578505],
     [21.8273736, 43.5785422], [21.8269401, 43.578541900000005],
     [21.8267612, 43.5785227], [21.8264441, 43.5784609],
     [21.826165600000003, 43.5784535],
     [21.825667600000003, 43.578444700000006],
     [21.825356600000003, 43.578460500000006],
     [21.825029400000002, 43.578697600000005],
     [21.8247344, 43.5789424], [21.8244459, 43.5791751],
     [21.8242462, 43.579350500000004], [21.8239565, 43.5796069],
     [21.823634900000002, 43.5798068], [21.8234926, 43.5799025],
     [21.823354300000002, 43.5800174],
     [21.823147000000002, 43.5800733], [21.8229539, 43.5801352],
     [21.822834, 43.5801631],
     [21.822738400000002, 43.580151400000005]]}},
  {"type":"Feature",
   "properties":{},
   "geometry":
   {"type":"LineString",
    "coordinates":
    [[21.8335703, 43.571317300000004],
     [21.8335703, 43.571372700000005],
     [21.833581000000002, 43.571462000000004],
     [21.833585600000003, 43.571668100000004],
     [21.833574900000002, 43.5718508],
     [21.833526600000003, 43.5720413],
     [21.8334648, 43.572244700000006],
     [21.833463000000002, 43.5723088], [21.8335019, 43.572346],
     [21.8336417, 43.5724011], [21.8337267, 43.572444700000005],
     [21.833786800000002, 43.572480600000006],
     [21.8338222, 43.572535800000004],
     [21.833848800000002, 43.5726255],
     [21.8338523, 43.572726800000005],
     [21.833845200000003, 43.572784500000004]]}},
  {"type":"Feature",
   "properties":{},
   "geometry":
   {"type":"LineString",
    "coordinates":
    [[21.834443, 43.5635209], [21.834604900000002, 43.5637157],
     [21.8347497, 43.564034400000004],
     [21.834969700000002, 43.5643143],
     [21.835136000000002, 43.5645669], [21.8352808, 43.5647535],
     [21.835372000000003, 43.564994500000005],
     [21.835372000000003, 43.565356],
     [21.835372000000003, 43.565635900000004],
     [21.8352432, 43.565876800000005],
     [21.835463200000003, 43.566102300000004],
     [21.8356402, 43.566378300000004],
     [21.8357797, 43.566658100000005],
     [21.835919200000003, 43.566895200000005],
     [21.8358011, 43.5670274], [21.8355329, 43.567042900000004],
     [21.835286200000002, 43.5669574], [21.835114500000003, 43.566868],
     [21.8348677, 43.5668719], [21.8346424, 43.567035100000005],
     [21.8345351, 43.567252800000006],
     [21.834304500000002, 43.567559900000006],
     [21.8340631, 43.567765900000005],
     [21.833773400000002, 43.5680069],
     [21.8334033, 43.568162300000004],
     [21.8331726, 43.568193400000006],
     [21.8328722, 43.568111800000004],
     [21.8325771, 43.568061300000004], [21.8322982, 43.5680107],
     [21.8318851, 43.568053500000005], [21.8317027, 43.5681662],
     [21.8316598, 43.568345], [21.831772500000003, 43.5685355],
     [21.8319334, 43.5687842], [21.8319817, 43.5690602],
     [21.8321051, 43.569262300000005], [21.8323518, 43.5694644],
     [21.832485900000002, 43.5697404], [21.8325825, 43.569923],
     [21.8326898, 43.570074600000005], [21.8329956, 43.5700124],
     [21.833435400000003, 43.569818100000006],
     [21.8335964, 43.569864700000004], [21.8334301, 43.5700707],
     [21.8333979, 43.5703661], [21.833435400000003, 43.5706654],
     [21.833494400000003, 43.570894700000004],
     [21.833574300000002, 43.571186100000006],
     [21.833560900000002, 43.571259000000005],
     [21.8335703, 43.571317300000004]]}},
  {"type":"Feature",
   "properties":{},
   "geometry":
   {"type":"LineString",
    "coordinates":
    [[21.8343229, 43.5625188], [21.8343196, 43.562766800000006],
     [21.834443, 43.563011700000004], [21.8344376, 43.563388800000006],
     [21.834443, 43.5635209]]}},
  {"type":"Feature",
   "properties":{},
   "geometry":
   {"type":"LineString",
    "coordinates":
    [[21.834206400000003, 43.5615839], [21.8342154, 43.5617205],
     [21.8342221, 43.5618235], [21.8342315, 43.561931300000005],
     [21.8342476, 43.5620169], [21.8343165, 43.5621741],
     [21.8343437, 43.5622489], [21.834351, 43.5622982],
     [21.8343229, 43.5625188]]}},
  {"type":"Feature",
   "properties":{},
   "geometry":
   {"type":"LineString",
    "coordinates":
    [[21.8342288, 43.560881800000004], [21.8342113, 43.5614159],
     [21.834206400000003, 43.5615839]]}},
  {"type":"Feature",
   "properties":{},
   "geometry":
   {"type":"LineString",
    "coordinates":
    [[21.834236800000003, 43.5607963],
     [21.8342288, 43.560881800000004]]}}]}
