{"type":"FeatureCollection",
 "properties":{},
 "features":
 [{"type":"Feature",
   "properties":{},
   "geometry":
   {"type":"LineString",
    "coordinates":
    [[21.834236800000003, 43.5607963],
     [21.8342288, 43.560881800000004]]}},
  {"type":"Feature",
   "properties":{},
   "geometry":
   {"type":"LineString",
    "coordinates":
    [[21.8342288, 43.560881800000004], [21.8342113, 43.5614159],
     [21.834206400000003, 43.5615839]]}},
  {"type":"Feature",
   "properties":{},
   "geometry":
   {"type":"LineString",
    "coordinates":
    [[21.834206400000003, 43.5615839], [21.8342154, 43.5617205],
     [21.8342221, 43.5618235], [21.8342315, 43.561931300000005],
     [21.8342476, 43.5620169], [21.8343165, 43.5621741],
     [21.8343437, 43.5622489], [21.834351, 43.5622982],
     [21.8343229, 43.5625188]]}},
  {"type":"Feature",
   "properties":{},
   "geometry":
   {"type":"LineString",
    "coordinates":
    [[21.8343229, 43.5625188], [21.8343196, 43.562766800000006],
     [21.834443, 43.563011700000004], [21.8344376, 43.563388800000006],
     [21.834443, 43.5635209]]}},
  {"type":"Feature",
   "properties":{},
   "geometry":
   {"type":"LineString",
    "coordinates":
    [[21.834443, 43.5635209], [21.834655700000003, 43.5635288],
     [21.8348845, 43.563458100000005], [21.835083, 43.563417300000005],
     [21.8353351, 43.563347300000004],
     [21.835530900000002, 43.5633142], [21.8356259, 43.56333],
     [21.8356721, 43.5633591],
     [21.835706000000002, 43.563414900000005],
     [21.835752300000003, 43.563490800000004],
     [21.835766900000003, 43.563566900000005],
     [21.835710600000002, 43.5638273],
     [21.835707600000003, 43.5639072], [21.835716, 43.5639945],
     [21.8357938, 43.5641393], [21.8358832, 43.5642342],
     [21.8359725, 43.564291100000005],
     [21.8361081, 43.564311200000006], [21.8362252, 43.5643101],
     [21.836397700000003, 43.5642967],
     [21.8364763, 43.564252100000004],
     [21.836573400000002, 43.564157200000004],
     [21.8366581, 43.564054500000005],
     [21.836710500000002, 43.5639362],
     [21.8367352, 43.563772900000004],
     [21.836721800000003, 43.563613600000004],
     [21.8367325, 43.5634211], [21.8368962, 43.5633045],
     [21.836909600000002, 43.5631665],
     [21.837102700000003, 43.5630402],
     [21.837349500000002, 43.5628575],
     [21.837513100000002, 43.5630072],
     [21.8375935, 43.563102400000005], [21.8377732, 43.5632754],
     [21.8379261, 43.5634134],
     [21.838116600000003, 43.563508600000006],
     [21.838269500000003, 43.563610600000004],
     [21.838315100000003, 43.5637175],
     [21.838374100000003, 43.5637758],
     [21.838481400000003, 43.563828300000004],
     [21.8386129, 43.5638749], [21.838645, 43.5639818],
     [21.8386745, 43.564065400000004],
     [21.8387442, 43.564111100000005],
     [21.838862300000002, 43.5643161],
     [21.839060800000002, 43.5645746],
     [21.839259300000002, 43.5647281],
     [21.839404100000003, 43.5648214],
     [21.839720500000002, 43.564892400000005],
     [21.839844000000003, 43.5649341], [21.8398976, 43.5650041],
     [21.840023600000002, 43.5650848],
     [21.840210600000002, 43.5653663], [21.8403938, 43.5655027],
     [21.840525200000002, 43.5657786],
     [21.840640500000003, 43.566000200000005],
     [21.840763900000002, 43.5662742], [21.8408444, 43.5664822],
     [21.8409382, 43.5667212], [21.8409812, 43.566933000000006],
     [21.841050900000003, 43.5671021], [21.8411855, 43.5672511],
     [21.8412088, 43.567317], [21.8412159, 43.567440500000004],
     [21.841264900000002, 43.5675539],
     [21.8413384, 43.567704500000005],
     [21.8414155, 43.567843200000006],
     [21.8415229, 43.568068200000006],
     [21.8415871, 43.568227300000004], [21.841635, 43.5682983],
     [21.8416642, 43.5683482], [21.841658300000002, 43.5684108],
     [21.841630300000002, 43.5685166], [21.841628, 43.5685724],
     [21.8416245, 43.5686595], [21.8415754, 43.568750900000005],
     [21.8415229, 43.568837200000004], [21.8415229, 43.5688794],
     [21.8415463, 43.5689201], [21.8415451, 43.5689666],
     [21.8415603, 43.5690596], [21.8415031, 43.5692017],
     [21.841506900000002, 43.569257400000005],
     [21.8415147, 43.5693126], [21.8415311, 43.5693853],
     [21.841527600000003, 43.5694242], [21.8414715, 43.5694851],
     [21.8414426, 43.5695209]]}},
  {"type":"Feature",
   "properties":{},
   "geometry":
   {"type":"LineString",
    "coordinates":
    [[21.8414426, 43.5695209], [21.8414782, 43.5695695],
     [21.8415727, 43.5696181], [21.8416916, 43.569637300000004],
     [21.841799400000003, 43.569677000000006],
     [21.8418238, 43.5697102], [21.8418278, 43.5697625],
     [21.8418512, 43.5698096], [21.8418746, 43.5698324],
     [21.8419305, 43.5698899], [21.8420728, 43.5700231],
     [21.8422525, 43.570168800000005],
     [21.842324100000003, 43.5702512],
     [21.842337200000003, 43.5702791], [21.8423303, 43.5703126],
     [21.842311000000002, 43.570403000000006],
     [21.842304900000002, 43.570450400000006],
     [21.8423149, 43.5704822], [21.8423249, 43.5705341],
     [21.8423665, 43.570567000000004], [21.8423935, 43.570591],
     [21.8423981, 43.570606100000006], [21.8423981, 43.5706385],
     [21.8423866, 43.5706682], [21.8423811, 43.570717200000004],
     [21.842387300000002, 43.5707852],
     [21.8423786, 43.570833400000005], [21.8423626, 43.5708885],
     [21.842319500000002, 43.5709515], [21.8422659, 43.5710725],
     [21.842240200000003, 43.5711257],
     [21.842218600000002, 43.5711993], [21.8421667, 43.5712435],
     [21.842076900000002, 43.5713093],
     [21.842046800000002, 43.571360000000006],
     [21.842021900000002, 43.571432], [21.842025300000003, 43.571499],
     [21.841994500000002, 43.57159], [21.841955900000002, 43.5716843],
     [21.8419513, 43.5717161],
     [21.841962900000002, 43.571774100000006], [21.8419798, 43.57184],
     [21.8419977, 43.571923600000005],
     [21.842030700000002, 43.5719974], [21.8420515, 43.5720576],
     [21.8420561, 43.5720917], [21.842048700000003, 43.5721238],
     [21.842009100000002, 43.5722128], [21.841939, 43.572290900000006],
     [21.841882400000003, 43.5723356],
     [21.8418342, 43.572387400000004],
     [21.841771100000003, 43.5724354],
     [21.841698700000002, 43.5724723],
     [21.8416517, 43.572498800000005], [21.8414398, 43.5726834],
     [21.8412896, 43.572835000000005],
     [21.841222600000002, 43.5730993],
     [21.841123300000003, 43.573351900000006],
     [21.8409973, 43.5735326], [21.8408336, 43.5737114],
     [21.840597600000002, 43.573905700000005],
     [21.840442000000003, 43.5740379],
     [21.840505500000003, 43.5740722], [21.8405887, 43.5741207],
     [21.8406342, 43.5741911], [21.8406619, 43.574240700000004],
     [21.8406819, 43.574288200000005], [21.8406781, 43.5743713],
     [21.8406665, 43.574431000000004],
     [21.8406881, 43.574504700000006], [21.8407424, 43.5745975],
     [21.840750500000002, 43.5746241],
     [21.840720400000002, 43.574647500000005],
     [21.840681200000002, 43.574669300000004],
     [21.8406527, 43.574694400000006],
     [21.840642600000002, 43.574708900000005],
     [21.840664200000003, 43.574741800000005],
     [21.8406819, 43.5747809], [21.840675, 43.5748005],
     [21.840642300000003, 43.574839000000004],
     [21.8405971, 43.574865200000005], [21.8405777, 43.5749037],
     [21.8405998, 43.5749556], [21.8406319, 43.574994600000004],
     [21.8406735, 43.575013000000006], [21.840705, 43.5750571],
     [21.8407097, 43.575104], [21.8406904, 43.5751196],
     [21.8406555, 43.5751447], [21.840639600000003, 43.5751646],
     [21.8406166, 43.5751793], [21.8405901, 43.5751967],
     [21.840572400000003, 43.575221000000006],
     [21.840579400000003, 43.575242800000005],
     [21.8405989, 43.575265200000004],
     [21.840610400000003, 43.5752966],
     [21.840580300000003, 43.5753281],
     [21.8405334, 43.575358800000004], [21.8405016, 43.5753883],
     [21.840455600000002, 43.5754242], [21.8404069, 43.5754941],
     [21.840366200000002, 43.5755338], [21.8403423, 43.5755781],
     [21.840345000000003, 43.575637], [21.8403911, 43.575744],
     [21.840425500000002, 43.5757691], [21.8404653, 43.5758146],
     [21.8404627, 43.575893400000005],
     [21.840464400000002, 43.5759896], [21.840475, 43.5760498],
     [21.8404099, 43.5761132], [21.8403671, 43.5761729],
     [21.8403521, 43.5762165], [21.840375, 43.5762531],
     [21.840404300000003, 43.5763255],
     [21.8404582, 43.576388900000005], [21.8404865, 43.5764889],
     [21.840522800000002, 43.5765588],
     [21.840591800000002, 43.5766331],
     [21.8406193, 43.576692800000004], [21.84066, 43.5767742],
     [21.8407263, 43.5768447], [21.8407732, 43.5769261],
     [21.840831, 43.577069200000004], [21.840868800000003, 43.5771261],
     [21.840926300000003, 43.5771953],
     [21.840979400000002, 43.577230500000006],
     [21.8410502, 43.5772671], [21.841095300000003, 43.577303],
     [21.841123600000003, 43.5773652],
     [21.8411298, 43.577403000000004],
     [21.841103200000003, 43.5774575],
     [21.841104100000003, 43.5775042],
     [21.8411307, 43.577523500000005],
     [21.841165200000002, 43.5775427],
     [21.8411988, 43.577592100000004], [21.841214500000003, 43.577623],
     [21.841234200000002, 43.5776831],
     [21.841244800000002, 43.577761300000006],
     [21.8412298, 43.577794600000004], [21.8411811, 43.5778247],
     [21.8411572, 43.5778728], [21.8411705, 43.5779055],
     [21.8411908, 43.5779305], [21.8412413, 43.5779459],
     [21.841259, 43.577971500000004], [21.841274000000002, 43.5780125],
     [21.841305900000002, 43.5780465],
     [21.841337900000003, 43.5780563],
     [21.841381100000003, 43.578057400000006],
     [21.8414067, 43.5780875], [21.841391700000003, 43.5781113],
     [21.8413943, 43.578136300000004],
     [21.8414262, 43.578151600000005], [21.8414793, 43.5781779],
     [21.8414934, 43.5782125],
     [21.841517300000003, 43.578234300000005],
     [21.8415271, 43.578257400000005], [21.8415041, 43.5782984],
     [21.8414731, 43.5783311], [21.8414466, 43.5783574],
     [21.841428, 43.5783939], [21.841402300000002, 43.578422100000004],
     [21.8413395, 43.578467], [21.841252800000003, 43.578526000000004],
     [21.8412112, 43.5785907], [21.841164300000003, 43.5786144],
     [21.8410829, 43.5786779], [21.841008600000002, 43.5787227],
     [21.840898000000003, 43.578777900000006],
     [21.840798900000003, 43.5788272],
     [21.8406486, 43.579016200000005],
     [21.840621900000002, 43.5790695], [21.8405883, 43.5791137],
     [21.8405184, 43.5791413], [21.8404361, 43.579168900000006],
     [21.8403813, 43.579193200000006], [21.8403494, 43.5792099],
     [21.8403388, 43.5792458], [21.8403294, 43.579294100000006],
     [21.8403317, 43.5795272], [21.8403335, 43.5796092],
     [21.8403229, 43.5796669], [21.840357400000002, 43.57974],
     [21.8403759, 43.5798105], [21.8403795, 43.579874600000004],
     [21.8404361, 43.5799534], [21.8404804, 43.5799919],
     [21.840543200000003, 43.5800239],
     [21.840601600000003, 43.5800842],
     [21.840731700000003, 43.5801898], [21.8408829, 43.5803687],
     [21.8409528, 43.5804149], [21.8412156, 43.580669400000005],
     [21.8413121, 43.5807584],
     [21.841419100000003, 43.580884100000006],
     [21.841481100000003, 43.581002600000005],
     [21.8414988, 43.5810911],
     [21.841491700000002, 43.581143000000004],
     [21.8414368, 43.5811866], [21.841359800000003, 43.5812571],
     [21.841292600000003, 43.5813148], [21.8412118, 43.5814838],
     [21.8411019, 43.581736400000004],
     [21.841161600000003, 43.5819429], [21.8412165, 43.5820115],
     [21.8412855, 43.582055100000005], [21.8412961, 43.5820737],
     [21.841291700000003, 43.582102500000005],
     [21.8412209, 43.5821544], [21.841233300000003, 43.5821891],
     [21.841284100000003, 43.582235700000005],
     [21.8413003, 43.5822975], [21.841357300000002, 43.5823461],
     [21.841419300000002, 43.582375600000006], [21.8414569, 43.582408],
     [21.8415514, 43.582433], [21.841669300000003, 43.5824536],
     [21.8417049, 43.5824669], [21.841716100000003, 43.5824903],
     [21.8417445, 43.582532400000005], [21.8417618, 43.5826311],
     [21.841769900000003, 43.5827047], [21.8417587, 43.5827253],
     [21.8417333, 43.5827651], [21.8417201, 43.5828387],
     [21.841722100000002, 43.5829042],
     [21.841719100000002, 43.5829712],
     [21.8416977, 43.583024200000004],
     [21.8416815, 43.583101500000005],
     [21.841706900000002, 43.5831523],
     [21.8416713, 43.583198700000004],
     [21.8416113, 43.583220000000004],
     [21.841442500000003, 43.5834307]]}},
  {"type":"Feature",
   "properties":{},
   "geometry":
   {"type":"LineString",
    "coordinates":
    [[21.841442500000003, 43.5834307], [21.8414243, 43.583463],
     [21.8413684, 43.583485100000004], [21.841346, 43.5834933],
     [21.8413045, 43.583489900000004], [21.8412817, 43.5834763],
     [21.841258200000002, 43.583462700000005],
     [21.8412401, 43.5834612],
     [21.841193800000003, 43.583472900000004],
     [21.8411502, 43.5834836], [21.8411301, 43.5834787],
     [21.841091900000002, 43.5834763], [21.8410711, 43.583486],
     [21.841047, 43.583513700000005], [21.841004, 43.5835555],
     [21.840943000000003, 43.583590400000006],
     [21.840904100000003, 43.5835938], [21.8408471, 43.5835754],
     [21.8408103, 43.583555000000004],
     [21.840776100000003, 43.5835176], [21.8407452, 43.583469],
     [21.8407003, 43.5834394], [21.8406339, 43.583424300000004],
     [21.8405548, 43.5834209], [21.8404589, 43.5834258],
     [21.8403737, 43.5834379], [21.840271100000002, 43.5834641],
     [21.840198700000002, 43.5834836],
     [21.840131000000003, 43.5835127],
     [21.840078700000003, 43.5835419], [21.8400183, 43.5835433],
     [21.8399781, 43.583547200000005], [21.8399298, 43.5835589],
     [21.8398587, 43.583571500000005],
     [21.839826600000002, 43.5835987],
     [21.839794400000002, 43.583655500000006],
     [21.839751500000002, 43.5837182],
     [21.839689800000002, 43.5837852],
     [21.8396495, 43.583856100000006],
     [21.8396073, 43.583895000000005],
     [21.839553000000002, 43.5839416],
     [21.8395087, 43.583980000000004],
     [21.8394678, 43.584013500000005], [21.83939, 43.584039700000005],
     [21.839304900000002, 43.5840684],
     [21.839220400000002, 43.584093200000005],
     [21.8391775, 43.5841106], [21.8391138, 43.5841276],
     [21.8390682, 43.5841456], [21.8390145, 43.584197100000004],
     [21.8389823, 43.584235500000005], [21.8389434, 43.5842947],
     [21.8389233, 43.5843525], [21.838919, 43.5843958],
     [21.8389059, 43.5844856], [21.8389226, 43.5845405],
     [21.838934700000003, 43.584591],
     [21.838914600000003, 43.584646400000004],
     [21.838867, 43.584694500000005], [21.838797300000003, 43.5847265],
     [21.8387175, 43.5847654], [21.8386605, 43.584793100000006],
     [21.8386102, 43.584790600000005],
     [21.838565900000003, 43.584778500000006],
     [21.8385143, 43.5847479], [21.8384331, 43.5847192],
     [21.8383527, 43.584713400000005], [21.8382997, 43.5847105],
     [21.838282900000003, 43.58471], [21.8382541, 43.5847241],
     [21.8382568, 43.5847421], [21.8382614, 43.5847691],
     [21.838252800000003, 43.5847989], [21.8382206, 43.5848178],
     [21.8381696, 43.584824600000005], [21.8381294, 43.5848353],
     [21.8380811, 43.5848674], [21.8380236, 43.5849465],
     [21.8379738, 43.584993600000004],
     [21.837925000000002, 43.585059900000005],
     [21.8378711, 43.585091500000004], [21.8377136, 43.585174],
     [21.8376546, 43.585210000000004],
     [21.837558100000003, 43.5852498],
     [21.837437100000002, 43.5853168],
     [21.837297900000003, 43.585405900000005],
     [21.837245600000003, 43.5854872],
     [21.8372186, 43.585556100000005],
     [21.837175900000002, 43.585599800000004],
     [21.837130300000002, 43.585616800000004],
     [21.837056500000003, 43.5856134], [21.8369995, 43.5855935],
     [21.836941200000002, 43.585582800000005],
     [21.8368936, 43.5855911], [21.836850600000002, 43.58561],
     [21.8367387, 43.5856489], [21.836621, 43.5857011],
     [21.836519300000003, 43.5857335],
     [21.836397400000003, 43.5858056], [21.8363222, 43.5858689],
     [21.836252, 43.5859271], [21.8362348, 43.5859764],
     [21.836221600000002, 43.5860611],
     [21.836193100000003, 43.5861237], [21.836126, 43.5862378],
     [21.8360823, 43.586313600000004], [21.835885, 43.5864324],
     [21.835651600000002, 43.5865315], [21.8355551, 43.586821],
     [21.835589900000002, 43.5869628],
     [21.835571700000003, 43.587073800000006]]}},
  {"type":"Feature",
   "properties":{},
   "geometry":
   {"type":"LineString",
    "coordinates":
    [[21.835571700000003, 43.587073800000006],
     [21.835498700000002, 43.587277500000006],
     [21.8353861, 43.587493200000004], [21.8352654, 43.5877263],
     [21.835142, 43.587971100000004], [21.835024, 43.588202300000006],
     [21.8349328, 43.588359600000004],
     [21.8348309, 43.588559700000005], [21.8347021, 43.5887443],
     [21.834619, 43.588948300000006], [21.8346592, 43.5891037],
     [21.8346753, 43.589364], [21.8345573, 43.589546600000006],
     [21.8344527, 43.5897973], [21.8342944, 43.5900556],
     [21.8339538, 43.590104200000006],
     [21.833516600000003, 43.5901256], [21.8331625, 43.5902169],
     [21.832835300000003, 43.590323700000006],
     [21.832658300000002, 43.590461700000006],
     [21.8324786, 43.5905433], [21.832320300000003, 43.5906734],
     [21.832231800000002, 43.5908813], [21.8319797, 43.5910328],
     [21.8317088, 43.5912718], [21.831534400000002, 43.5914505],
     [21.831344, 43.5915729], [21.831199100000003, 43.591747700000006],
     [21.831038200000002, 43.591976900000006],
     [21.830928200000002, 43.592173100000004],
     [21.8306922, 43.5923693], [21.8304267, 43.5925597],
     [21.830295200000002, 43.5927598], [21.830188, 43.593002600000005],
     [21.8300404, 43.593226], [21.8299787, 43.5934358],
     [21.8301236, 43.5936418], [21.8303006, 43.5939118],
     [21.8304481, 43.5941138], [21.8306386, 43.594195400000004],
     [21.8306332, 43.5943644], [21.830520500000002, 43.5945276],
     [21.830174500000002, 43.5947412], [21.8298849, 43.594988],
     [21.829643500000003, 43.5952502],
     [21.8293913, 43.595434700000006],
     [21.829251900000003, 43.5955804], [21.8291204, 43.5958077],
     [21.8291955, 43.5960155],
     [21.829343100000003, 43.596182600000006],
     [21.8293913, 43.5962856], [21.829416300000002, 43.5963853]]}},
  {"type":"Feature",
   "properties":{},
   "geometry":
   {"type":"LineString",
    "coordinates":
    [[21.829416300000002, 43.5963853], [21.8293484, 43.5964633],
     [21.8290748, 43.5966187],
     [21.828755700000002, 43.596844000000004],
     [21.8284847, 43.597046000000006],
     [21.828310400000003, 43.5971995],
     [21.828162900000002, 43.5973879], [21.828090500000002, 43.597487],
     [21.828052900000003, 43.597632700000005],
     [21.8281414, 43.5977881], [21.828192400000002, 43.5979648],
     [21.8281066, 43.5980736], [21.827870500000003, 43.5981766],
     [21.8277176, 43.598295], [21.8276828, 43.5986155],
     [21.827645200000003, 43.598840900000006],
     [21.827484300000002, 43.5990215],
     [21.827283100000002, 43.599140000000006],
     [21.827084600000003, 43.5992255], [21.826854, 43.5994236],
     [21.826663500000002, 43.5996528], [21.826457, 43.5998004],
     [21.8262424, 43.5999034], [21.8260788, 43.600027700000005],
     [21.8260118, 43.6002413], [21.8259393, 43.6004725],
     [21.8258642, 43.600598700000006], [21.8257623, 43.6006803],
     [21.825695300000003, 43.600864800000004],
     [21.8255263, 43.6010222], [21.8251883, 43.601266900000006],
     [21.8250113, 43.6014184], [21.8248718, 43.601635900000005],
     [21.824802100000003, 43.6018418],
     [21.8249174, 43.602053500000004], [21.8249791, 43.6022303],
     [21.8251025, 43.6023818], [21.8252452, 43.6025877]]}},
  {"type":"Feature",
   "properties":{},
   "geometry":
   {"type":"LineString",
    "coordinates":
    [[21.8196239, 43.605577000000004],
     [21.8197741, 43.605639100000005],
     [21.8200745, 43.605577000000004],
     [21.822520700000002, 43.6037047], [21.8239154, 43.6029044],
     [21.8252452, 43.6025877]]}},
  {"type":"Feature",
   "properties":{},
   "geometry":
   {"type":"LineString",
    "coordinates":
    [[21.818722700000002, 43.6017779],
     [21.8188514, 43.602003200000006], [21.8190016, 43.6040232],
     [21.819173300000003, 43.604567],
     [21.819098200000003, 43.605079800000006],
     [21.8196239, 43.605577000000004]]}},
  {"type":"Feature",
   "properties":{},
   "geometry":
   {"type":"LineString",
    "coordinates":
    [[21.818960500000003, 43.5955403], [21.8191643, 43.595618],
     [21.8194379, 43.5956879], [21.8197222, 43.5958161],
     [21.820087, 43.595983200000006], [21.820484, 43.596181300000005],
     [21.8208005, 43.596379500000005],
     [21.820988200000002, 43.596639800000005],
     [21.821095500000002, 43.5970555],
     [21.821106200000003, 43.5973818],
     [21.8209346, 43.597677000000004], [21.820661, 43.5979101],
     [21.820473200000002, 43.598034500000004],
     [21.8203552, 43.5983608], [21.8201675, 43.5986871],
     [21.819990400000002, 43.5989979],
     [21.8197759, 43.599281500000004], [21.8195398, 43.59967],
     [21.8193735, 43.599992400000005],
     [21.819142900000003, 43.6003692],
     [21.819019500000003, 43.6007033],
     [21.818901500000003, 43.6010724],
     [21.8187888, 43.601449200000005],
     [21.818722700000002, 43.6017779]]}},
  {"type":"Feature",
   "properties":{},
   "geometry":
   {"type":"LineString",
    "coordinates":
    [[21.8182203, 43.5940415], [21.8184562, 43.5941106],
     [21.8185581, 43.5942194], [21.8186225, 43.594503],
     [21.8186708, 43.5947983],
     [21.818703000000003, 43.595054700000006],
     [21.818783500000002, 43.595303300000005],
     [21.818869300000003, 43.5954665],
     [21.818960500000003, 43.5955403]]}},
  {"type":"Feature",
   "properties":{},
   "geometry":
   {"type":"LineString",
    "coordinates":
    [[21.8182203, 43.5940415], [21.8183732, 43.5938895],
     [21.818606600000003, 43.5938152],
     [21.818746100000002, 43.593705500000006],
     [21.818848000000003, 43.5935569], [21.8189928, 43.5931936],
     [21.8194005, 43.5926497], [21.819658, 43.592401],
     [21.8200013, 43.591857100000006],
     [21.820151600000003, 43.5915307],
     [21.820452000000003, 43.591297600000004],
     [21.8206665, 43.591297600000004],
     [21.8210528, 43.591468500000005],
     [21.8216536, 43.591569500000006], [21.8221524, 43.5915346],
     [21.8223989, 43.5913601],
     [21.822490400000003, 43.591188800000005]]}},
  {"type":"Feature",
   "properties":{},
   "geometry":
   {"type":"LineString",
    "coordinates":
    [[21.822738400000002, 43.580151400000005],
     [21.822561800000003, 43.580458], [21.822588600000003, 43.580629],
     [21.8226744, 43.5807961],
     [21.822588600000003, 43.581110800000005],
     [21.822438400000003, 43.581437300000005],
     [21.822347200000003, 43.5816743],
     [21.8221916, 43.581864700000004], [21.8219931, 43.5820823],
     [21.821848300000003, 43.582303800000005],
     [21.821848300000003, 43.582540900000005],
     [21.821918, 43.582859500000005],
     [21.821912700000002, 43.583217000000005],
     [21.821939500000003, 43.5835007], [21.822036, 43.583726000000006],
     [21.822154100000002, 43.583854300000006],
     [21.822073600000003, 43.5840058], [21.8221433, 43.584305],
     [21.822197000000003, 43.5847519],
     [21.8222238, 43.585148200000006],
     [21.8222238, 43.585532900000004],
     [21.822138000000002, 43.5858477], [21.8219931, 43.5861741],
     [21.8218107, 43.5864111], [21.8216766, 43.5867025],
     [21.8217356, 43.586916200000005],
     [21.821923400000003, 43.5871532],
     [21.821971700000002, 43.587425200000006],
     [21.822046800000003, 43.5876545],
     [21.822170200000002, 43.5878643], [21.8224008, 43.5880469],
     [21.8225081, 43.588171300000006], [21.8224598, 43.5882956],
     [21.8222989, 43.588416], [21.8223686, 43.588649200000006],
     [21.8224169, 43.588905600000004],
     [21.8224598, 43.589383500000004], [21.8225081, 43.5896866],
     [21.8225403, 43.590020700000004], [21.8225349, 43.5903937],
     [21.8224974, 43.590739500000005],
     [21.822486700000002, 43.5909843],
     [21.822490400000003, 43.591188800000005]]}},
  {"type":"Feature",
   "properties":{},
   "geometry":
   {"type":"LineString",
    "coordinates":
    [[21.833845200000003, 43.572784500000004],
     [21.833827000000003, 43.5728613],
     [21.833757300000002, 43.5731139],
     [21.833735800000003, 43.573316000000005],
     [21.8337627, 43.5735687], [21.8337305, 43.5738329],
     [21.8337037, 43.5740457],
     [21.833709000000002, 43.574259500000004],
     [21.833676800000003, 43.5744577],
     [21.8336286, 43.574698600000005],
     [21.833585600000003, 43.5749085],
     [21.8335535, 43.575083400000004],
     [21.833376400000002, 43.575203900000005],
     [21.833258400000002, 43.575351500000004],
     [21.8330975, 43.5755459], [21.8329795, 43.575740200000006],
     [21.8327917, 43.5759228], [21.8326093, 43.5760938],
     [21.8324913, 43.5763309], [21.8323411, 43.576525200000006],
     [21.8322392, 43.576684500000006], [21.83203, 43.5768361],
     [21.8318583, 43.5769682], [21.831515000000003, 43.5770615],
     [21.831182400000003, 43.5771548], [21.8310375, 43.5773646],
     [21.830930300000002, 43.5774929],
     [21.830914200000002, 43.577656100000006],
     [21.830764000000002, 43.5778971], [21.830662, 43.578110800000005],
     [21.8305387, 43.5782429], [21.8304796, 43.5784139],
     [21.8302114, 43.578658700000005],
     [21.829959300000002, 43.5788336], [21.8298305, 43.5788608],
     [21.8295891, 43.578822], [21.8294068, 43.578748100000006],
     [21.8290849, 43.578767500000005],
     [21.828795200000002, 43.578798600000006],
     [21.828576400000003, 43.5787878], [21.8282919, 43.5787289],
     [21.8280703, 43.5786449], [21.8278792, 43.578549200000005],
     [21.827717, 43.5784955], [21.827545800000003, 43.578505],
     [21.8273736, 43.5785422], [21.8269401, 43.578541900000005],
     [21.8267612, 43.5785227], [21.8264441, 43.5784609],
     [21.826165600000003, 43.5784535],
     [21.825667600000003, 43.578444700000006],
     [21.825356600000003, 43.578460500000006],
     [21.825029400000002, 43.578697600000005],
     [21.8247344, 43.5789424], [21.8244459, 43.5791751],
     [21.8242462, 43.579350500000004], [21.8239565, 43.5796069],
     [21.823634900000002, 43.5798068], [21.8234926, 43.5799025],
     [21.823354300000002, 43.5800174],
     [21.823147000000002, 43.5800733], [21.8229539, 43.5801352],
     [21.822834, 43.5801631],
     [21.822738400000002, 43.580151400000005]]}},
  {"type":"Feature",
   "properties":{},
   "geometry":
   {"type":"LineString",
    "coordinates":
    [[21.8335703, 43.571317300000004],
     [21.8335703, 43.571372700000005],
     [21.833581000000002, 43.571462000000004],
     [21.833585600000003, 43.571668100000004],
     [21.833574900000002, 43.5718508],
     [21.833526600000003, 43.5720413],
     [21.8334648, 43.572244700000006],
     [21.833463000000002, 43.5723088], [21.8335019, 43.572346],
     [21.8336417, 43.5724011], [21.8337267, 43.572444700000005],
     [21.833786800000002, 43.572480600000006],
     [21.8338222, 43.572535800000004],
     [21.833848800000002, 43.5726255],
     [21.8338523, 43.572726800000005],
     [21.833845200000003, 43.572784500000004]]}},
  {"type":"Feature",
   "properties":{},
   "geometry":
   {"type":"LineString",
    "coordinates":
    [[21.834443, 43.5635209], [21.834604900000002, 43.5637157],
     [21.8347497, 43.564034400000004],
     [21.834969700000002, 43.5643143],
     [21.835136000000002, 43.5645669], [21.8352808, 43.5647535],
     [21.835372000000003, 43.564994500000005],
     [21.835372000000003, 43.565356],
     [21.835372000000003, 43.565635900000004],
     [21.8352432, 43.565876800000005],
     [21.835463200000003, 43.566102300000004],
     [21.8356402, 43.566378300000004],
     [21.8357797, 43.566658100000005],
     [21.835919200000003, 43.566895200000005],
     [21.8358011, 43.5670274], [21.8355329, 43.567042900000004],
     [21.835286200000002, 43.5669574], [21.835114500000003, 43.566868],
     [21.8348677, 43.5668719], [21.8346424, 43.567035100000005],
     [21.8345351, 43.567252800000006],
     [21.834304500000002, 43.567559900000006],
     [21.8340631, 43.567765900000005],
     [21.833773400000002, 43.5680069],
     [21.8334033, 43.568162300000004],
     [21.8331726, 43.568193400000006],
     [21.8328722, 43.568111800000004],
     [21.8325771, 43.568061300000004], [21.8322982, 43.5680107],
     [21.8318851, 43.568053500000005], [21.8317027, 43.5681662],
     [21.8316598, 43.568345], [21.831772500000003, 43.5685355],
     [21.8319334, 43.5687842], [21.8319817, 43.5690602],
     [21.8321051, 43.569262300000005], [21.8323518, 43.5694644],
     [21.832485900000002, 43.5697404], [21.8325825, 43.569923],
     [21.8326898, 43.570074600000005], [21.8329956, 43.5700124],
     [21.833435400000003, 43.569818100000006],
     [21.8335964, 43.569864700000004], [21.8334301, 43.5700707],
     [21.8333979, 43.5703661], [21.833435400000003, 43.5706654],
     [21.833494400000003, 43.570894700000004],
     [21.833574300000002, 43.571186100000006],
     [21.833560900000002, 43.571259000000005],
     [21.8335703, 43.571317300000004]]}},
  {"type":"Feature",
   "properties":{},
   "geometry":
   {"type":"LineString",
    "coordinates":
    [[21.8343229, 43.5625188], [21.8343196, 43.562766800000006],
     [21.834443, 43.563011700000004], [21.8344376, 43.563388800000006],
     [21.834443, 43.5635209]]}},
  {"type":"Feature",
   "properties":{},
   "geometry":
   {"type":"LineString",
    "coordinates":
    [[21.834206400000003, 43.5615839], [21.8342154, 43.5617205],
     [21.8342221, 43.5618235], [21.8342315, 43.561931300000005],
     [21.8342476, 43.5620169], [21.8343165, 43.5621741],
     [21.8343437, 43.5622489], [21.834351, 43.5622982],
     [21.8343229, 43.5625188]]}},
  {"type":"Feature",
   "properties":{},
   "geometry":
   {"type":"LineString",
    "coordinates":
    [[21.8342288, 43.560881800000004], [21.8342113, 43.5614159],
     [21.834206400000003, 43.5615839]]}},
  {"type":"Feature",
   "properties":{},
   "geometry":
   {"type":"LineString",
    "coordinates":
    [[21.834236800000003, 43.5607963],
     [21.8342288, 43.560881800000004]]}}]}
