{"type":"FeatureCollection",
 "properties":{},
 "features":
 [{"type":"Feature",
   "properties":{},
   "geometry":
   {"type":"LineString",
    "coordinates":
    [[21.854615900000002, 43.623673000000004],
     [21.8545728, 43.6231725]]}},
  {"type":"Feature",
   "properties":{},
   "geometry":
   {"type":"LineString",
    "coordinates":
    [[21.8545728, 43.6231725], [21.854467900000003, 43.6230859],
     [21.854331100000003, 43.6229364],
     [21.854290900000002, 43.622783000000005],
     [21.854256000000003, 43.6226762], [21.8540898, 43.6226276],
     [21.8539315, 43.6225383], [21.8537384, 43.6224587],
     [21.853700800000002, 43.622293600000006],
     [21.8537062, 43.6221442], [21.8537679, 43.622018000000004],
     [21.853869800000002, 43.6218044],
     [21.853910000000003, 43.621577200000004],
     [21.8540388, 43.621287900000006], [21.854012, 43.6210995],
     [21.8540227, 43.6208782], [21.8540442, 43.620666500000006],
     [21.8540227, 43.6204763],
     [21.853944900000002, 43.620301500000004]]}},
  {"type":"Feature",
   "properties":{},
   "geometry":
   {"type":"LineString",
    "coordinates":
    [[21.853944900000002, 43.620301500000004],
     [21.8538162, 43.6201967], [21.8536365, 43.6201481],
     [21.8533602, 43.620122900000005], [21.853159, 43.620033500000005],
     [21.852914900000002, 43.6200801],
     [21.852625200000002, 43.620074300000006],
     [21.852252500000002, 43.6201778], [21.8521076, 43.620218],
     [21.8517267, 43.6203112], [21.851190300000003, 43.6203792],
     [21.850825500000003, 43.620542300000004],
     [21.850476800000003, 43.6207598], [21.849827700000002, 43.62075],
     [21.849412, 43.620814100000004], [21.8490338, 43.620851],
     [21.8484249, 43.621004400000004], [21.8480414, 43.6210529],
     [21.8477597, 43.6212005], [21.8474566, 43.621406300000004],
     [21.8471884, 43.6215151], [21.8469765, 43.6215558],
     [21.8465822, 43.6219539], [21.8460056, 43.622140300000005],
     [21.845587100000003, 43.6221636],
     [21.845120400000003, 43.6221869],
     [21.844683200000002, 43.6223752], [21.844297, 43.6225558],
     [21.8439, 43.622804300000006], [21.8436264, 43.623014100000006],
     [21.8432214, 43.623124700000005], [21.8426823, 43.6232101],
     [21.842406, 43.6231499], [21.8415639, 43.623133200000005]]}},
  {"type":"Feature",
   "properties":{},
   "geometry":
   {"type":"LineString",
    "coordinates":
    [[21.8408023, 43.6230993],
     [21.841173700000002, 43.622990300000005],
     [21.841237800000002, 43.6229887],
     [21.841306000000003, 43.6230029],
     [21.8415639, 43.623133200000005]]}},
  {"type":"Feature",
   "properties":{},
   "geometry":
   {"type":"LineString",
    "coordinates":
    [[21.837683100000003, 43.6201743],
     [21.8376802, 43.620217800000006],
     [21.837433400000002, 43.6204897], [21.8372725, 43.6207149],
     [21.8371974, 43.6210411], [21.8371652, 43.6215071],
     [21.8371545, 43.622182800000004],
     [21.837251000000002, 43.6223692],
     [21.837519200000003, 43.6225323],
     [21.8379806, 43.622555600000005], [21.8383025, 43.6225323],
     [21.839235900000002, 43.6227498],
     [21.8405233, 43.623044900000004], [21.8408023, 43.6230993]]}},
  {"type":"Feature",
   "properties":{},
   "geometry":
   {"type":"LineString",
    "coordinates":
    [[21.8376886, 43.6200892], [21.837683100000003, 43.6201743]]}},
  {"type":"Feature",
   "properties":{},
   "geometry":
   {"type":"LineString",
    "coordinates":
    [[21.8362346, 43.618383200000004], [21.8362425, 43.6183926],
     [21.8365107, 43.6195809], [21.8366717, 43.6198683],
     [21.8368755, 43.6200081], [21.8371545, 43.620046900000006],
     [21.8375729, 43.619984800000005],
     [21.837690900000002, 43.620054700000004],
     [21.8376886, 43.6200892]]}},
  {"type":"Feature",
   "properties":{},
   "geometry":
   {"type":"LineString",
    "coordinates":
    [[21.8361637, 43.618299300000004],
     [21.8362346, 43.618383200000004]]}},
  {"type":"Feature",
   "properties":{},
   "geometry":
   {"type":"LineString",
    "coordinates":
    [[21.8336495, 43.6189547], [21.8337642, 43.618944000000006],
     [21.834075300000002, 43.618944000000006],
     [21.8349765, 43.6190994], [21.8352769, 43.619083800000006],
     [21.83547, 43.618959600000004], [21.8356202, 43.618672200000006],
     [21.8358455, 43.6183071], [21.835963600000003, 43.618245],
     [21.8361245, 43.6182528], [21.8361637, 43.618299300000004]]}},
  {"type":"Feature",
   "properties":{},
   "geometry":
   {"type":"LineString",
    "coordinates":
    [[21.8335791, 43.6189984], [21.8336495, 43.6189547]]}},
  {"type":"Feature",
   "properties":{},
   "geometry":
   {"type":"LineString",
    "coordinates":
    [[21.833579, 43.6190276], [21.8335791, 43.6189984]]}},
  {"type":"Feature",
   "properties":{},
   "geometry":
   {"type":"LineString",
    "coordinates":
    [[21.8313287, 43.6193868],
     [21.831832900000002, 43.619612000000004],
     [21.8318437, 43.619922700000004],
     [21.8320046, 43.620295500000005], [21.8319939, 43.6204431],
     [21.8321012, 43.620606200000005], [21.8322836, 43.6207149],
     [21.8327342, 43.6208916], [21.833168, 43.6209551],
     [21.8337232, 43.6208638], [21.833945800000002, 43.6206599],
     [21.834114800000002, 43.620277400000006],
     [21.834047700000003, 43.619801700000004],
     [21.8336159, 43.619203600000006], [21.833579, 43.6190276]]}},
  {"type":"Feature",
   "properties":{},
   "geometry":
   {"type":"LineString",
    "coordinates":
    [[21.831202700000002, 43.6193479], [21.8313287, 43.6193868]]}},
  {"type":"Feature",
   "properties":{},
   "geometry":
   {"type":"LineString",
    "coordinates":
    [[21.831202700000002, 43.6193479], [21.8310946, 43.6191978],
     [21.830633300000002, 43.619201700000005],
     [21.830448200000003, 43.618734700000005],
     [21.830555500000003, 43.6183988],
     [21.8304911, 43.618144400000006], [21.8305662, 43.6177871],
     [21.830603800000002, 43.6174259],
     [21.830770100000002, 43.6171346],
     [21.8312582, 43.616979300000004],
     [21.831676700000003, 43.616750200000006],
     [21.8319663, 43.6164628], [21.8317947, 43.616086100000004],
     [21.8315801, 43.6157016],
     [21.831403100000003, 43.615355900000004],
     [21.8312475, 43.614936500000006],
     [21.8307861, 43.614435400000005],
     [21.8309417, 43.614245100000005],
     [21.831134900000002, 43.613845100000006],
     [21.831328000000003, 43.6133946],
     [21.831553300000003, 43.613161500000004], [21.831741, 43.612979],
     [21.831703400000002, 43.6127071], [21.8317142, 43.6123964],
     [21.831569400000003, 43.612043], [21.8314728, 43.6117517],
     [21.831301200000002, 43.611390400000005],
     [21.8313226, 43.6111263], [21.8311987, 43.6109525]]}},
  {"type":"Feature",
   "properties":{},
   "geometry":
   {"type":"LineString",
    "coordinates":
    [[21.8311987, 43.6109525], [21.8311241, 43.610736],
     [21.830963200000003, 43.6103864],
     [21.830904200000003, 43.6101145],
     [21.830995400000003, 43.6098349],
     [21.8311992, 43.609516400000004], [21.8314728, 43.6092833],
     [21.8315372, 43.6088444], [21.831585500000003, 43.6084016],
     [21.8316498, 43.6080715], [21.831810800000003, 43.6077219],
     [21.8316713, 43.607547100000005],
     [21.831387000000003, 43.607395600000004],
     [21.831220700000003, 43.6072519],
     [21.831193900000002, 43.6071043],
     [21.830968600000002, 43.606937200000004],
     [21.830829100000003, 43.6066887],
     [21.830786200000002, 43.606366300000005],
     [21.830802300000002, 43.6060749],
     [21.830963200000003, 43.6058147],
     [21.8311509, 43.605558300000006],
     [21.831328000000003, 43.6052398], [21.8314674, 43.6048746],
     [21.8316337, 43.6045639],
     [21.831735700000003, 43.604295900000004],
     [21.8318161, 43.604066700000004],
     [21.831918100000003, 43.6038258],
     [21.8319878, 43.603530600000006],
     [21.832127200000002, 43.6033053],
     [21.832105900000002, 43.6030217], [21.8322614, 43.602944],
     [21.8325564, 43.6026721], [21.8327871, 43.602439000000004],
     [21.8328783, 43.6022448], [21.8332216, 43.602000100000005],
     [21.8332914, 43.6018758], [21.8336347, 43.6016582],
     [21.834096000000002, 43.601464], [21.834493000000002, 43.6011882],
     [21.835018700000003, 43.6010755], [21.8352976, 43.6008463],
     [21.8355073, 43.6007266]]}},
  {"type":"Feature",
   "properties":{},
   "geometry":
   {"type":"LineString",
    "coordinates":
    [[21.8355073, 43.6007266], [21.8357429, 43.600541400000004],
     [21.835839500000002, 43.600331600000004],
     [21.836215000000003, 43.6001685], [21.8364832, 43.6000364],
     [21.836569, 43.5996595], [21.8367514, 43.5993526],
     [21.836789000000003, 43.5991623], [21.8370411, 43.5989681],
     [21.8371765, 43.598637700000005]]}},
  {"type":"Feature",
   "properties":{},
   "geometry":
   {"type":"LineString",
    "coordinates":
    [[21.8371765, 43.598637700000005],
     [21.837049500000003, 43.598438400000006],
     [21.836513, 43.597210800000006], [21.8364701, 43.5967135],
     [21.836641800000002, 43.596262800000005],
     [21.836792000000003, 43.596091900000005],
     [21.836598900000002, 43.5958899], [21.8367061, 43.5956257],
     [21.8368563, 43.595206100000006],
     [21.837049500000003, 43.5949419], [21.8372426, 43.5946],
     [21.8372211, 43.594398000000005],
     [21.836834900000003, 43.5939939]]}},
  {"type":"Feature",
   "properties":{},
   "geometry":
   {"type":"LineString",
    "coordinates":
    [[21.8387721, 43.5922975], [21.838568300000002, 43.5924685],
     [21.8386004, 43.592756], [21.838160600000002, 43.5931134],
     [21.838053300000002, 43.5932377], [21.837731400000003, 43.593331],
     [21.8374901, 43.5934825], [21.8372487, 43.5936107],
     [21.837109100000003, 43.5937428],
     [21.836834900000003, 43.5939939]]}},
  {"type":"Feature",
   "properties":{},
   "geometry":
   {"type":"LineString",
    "coordinates":
    [[21.8407808, 43.5905627], [21.8404823, 43.5904393],
     [21.8399727, 43.590147900000005],
     [21.839586500000003, 43.5901634],
     [21.839224400000003, 43.5900478],
     [21.8392941, 43.589624300000004], [21.8394926, 43.5893679],
     [21.839739400000003, 43.5892202], [21.8397769, 43.5891542],
     [21.8395087, 43.5891114], [21.8392512, 43.5891309],
     [21.838891800000003, 43.589095900000004],
     [21.838409000000002, 43.588956], [21.8380228, 43.588991],
     [21.8378833, 43.5889055], [21.837776, 43.588738400000004],
     [21.8376097, 43.5886335], [21.837454100000002, 43.5884276],
     [21.8372315, 43.588311100000006],
     [21.837014200000002, 43.5882061],
     [21.8368238, 43.588072000000004],
     [21.8366709, 43.587912800000005], [21.8365744, 43.5877496],
     [21.8363705, 43.5876077], [21.8360835, 43.587454300000005],
     [21.8358314, 43.5873105],
     [21.835571700000003, 43.587073800000006]]}},
  {"type":"Feature",
   "properties":{},
   "geometry":
   {"type":"LineString",
    "coordinates":
    [[21.841442500000003, 43.5834307], [21.8414243, 43.583463],
     [21.8413684, 43.583485100000004], [21.841346, 43.5834933],
     [21.8413045, 43.583489900000004], [21.8412817, 43.5834763],
     [21.841258200000002, 43.583462700000005],
     [21.8412401, 43.5834612],
     [21.841193800000003, 43.583472900000004],
     [21.8411502, 43.5834836], [21.8411301, 43.5834787],
     [21.841091900000002, 43.5834763], [21.8410711, 43.583486],
     [21.841047, 43.583513700000005], [21.841004, 43.5835555],
     [21.840943000000003, 43.583590400000006],
     [21.840904100000003, 43.5835938], [21.8408471, 43.5835754],
     [21.8408103, 43.583555000000004],
     [21.840776100000003, 43.5835176], [21.8407452, 43.583469],
     [21.8407003, 43.5834394], [21.8406339, 43.583424300000004],
     [21.8405548, 43.5834209], [21.8404589, 43.5834258],
     [21.8403737, 43.5834379], [21.840271100000002, 43.5834641],
     [21.840198700000002, 43.5834836],
     [21.840131000000003, 43.5835127],
     [21.840078700000003, 43.5835419], [21.8400183, 43.5835433],
     [21.8399781, 43.583547200000005], [21.8399298, 43.5835589],
     [21.8398587, 43.583571500000005],
     [21.839826600000002, 43.5835987],
     [21.839794400000002, 43.583655500000006],
     [21.839751500000002, 43.5837182],
     [21.839689800000002, 43.5837852],
     [21.8396495, 43.583856100000006],
     [21.8396073, 43.583895000000005],
     [21.839553000000002, 43.5839416],
     [21.8395087, 43.583980000000004],
     [21.8394678, 43.584013500000005], [21.83939, 43.584039700000005],
     [21.839304900000002, 43.5840684],
     [21.839220400000002, 43.584093200000005],
     [21.8391775, 43.5841106], [21.8391138, 43.5841276],
     [21.8390682, 43.5841456], [21.8390145, 43.584197100000004],
     [21.8389823, 43.584235500000005], [21.8389434, 43.5842947],
     [21.8389233, 43.5843525], [21.838919, 43.5843958],
     [21.8389059, 43.5844856], [21.8389226, 43.5845405],
     [21.838934700000003, 43.584591],
     [21.838914600000003, 43.584646400000004],
     [21.838867, 43.584694500000005], [21.838797300000003, 43.5847265],
     [21.8387175, 43.5847654], [21.8386605, 43.584793100000006],
     [21.8386102, 43.584790600000005],
     [21.838565900000003, 43.584778500000006],
     [21.8385143, 43.5847479], [21.8384331, 43.5847192],
     [21.8383527, 43.584713400000005], [21.8382997, 43.5847105],
     [21.838282900000003, 43.58471], [21.8382541, 43.5847241],
     [21.8382568, 43.5847421], [21.8382614, 43.5847691],
     [21.838252800000003, 43.5847989], [21.8382206, 43.5848178],
     [21.8381696, 43.584824600000005], [21.8381294, 43.5848353],
     [21.8380811, 43.5848674], [21.8380236, 43.5849465],
     [21.8379738, 43.584993600000004],
     [21.837925000000002, 43.585059900000005],
     [21.8378711, 43.585091500000004], [21.8377136, 43.585174],
     [21.8376546, 43.585210000000004],
     [21.837558100000003, 43.5852498],
     [21.837437100000002, 43.5853168],
     [21.837297900000003, 43.585405900000005],
     [21.837245600000003, 43.5854872],
     [21.8372186, 43.585556100000005],
     [21.837175900000002, 43.585599800000004],
     [21.837130300000002, 43.585616800000004],
     [21.837056500000003, 43.5856134], [21.8369995, 43.5855935],
     [21.836941200000002, 43.585582800000005],
     [21.8368936, 43.5855911], [21.836850600000002, 43.58561],
     [21.8367387, 43.5856489], [21.836621, 43.5857011],
     [21.836519300000003, 43.5857335],
     [21.836397400000003, 43.5858056], [21.8363222, 43.5858689],
     [21.836252, 43.5859271], [21.8362348, 43.5859764],
     [21.836221600000002, 43.5860611],
     [21.836193100000003, 43.5861237], [21.836126, 43.5862378],
     [21.8360823, 43.586313600000004], [21.835885, 43.5864324],
     [21.835651600000002, 43.5865315], [21.8355551, 43.586821],
     [21.835589900000002, 43.5869628],
     [21.835571700000003, 43.587073800000006]]}},
  {"type":"Feature",
   "properties":{},
   "geometry":
   {"type":"LineString",
    "coordinates":
    [[21.841442500000003, 43.5834307], [21.8416554, 43.5832555],
     [21.8417464, 43.5832156], [21.8418443, 43.5831882],
     [21.841891200000003, 43.5831771],
     [21.841999100000002, 43.583172100000006],
     [21.842082700000002, 43.5831767], [21.8421285, 43.5831704],
     [21.842192400000002, 43.583179300000005],
     [21.8422579, 43.583179300000005], [21.8422926, 43.5831804],
     [21.842341100000002, 43.583186000000005],
     [21.8424012, 43.5831843], [21.842487400000003, 43.5831966],
     [21.842638400000002, 43.583234600000004],
     [21.8428109, 43.5832725], [21.8428903, 43.5832798],
     [21.842966500000003, 43.5832898], [21.8429976, 43.5832941],
     [21.8430305, 43.5833019], [21.843062, 43.5833127],
     [21.843125200000003, 43.5833473],
     [21.843198400000002, 43.5833886],
     [21.8432615, 43.583417600000004], [21.8433278, 43.5834455],
     [21.8433832, 43.583463900000005],
     [21.843449500000002, 43.5834934],
     [21.843563500000002, 43.583546500000004],
     [21.843595800000003, 43.5835677], [21.8436436, 43.5836285],
     [21.843689, 43.583685900000006],
     [21.843794600000003, 43.583727800000005],
     [21.8438854, 43.583747300000006],
     [21.843974600000003, 43.5837629],
     [21.844068500000002, 43.583769200000006],
     [21.844226000000003, 43.5838041], [21.8443447, 43.5838328],
     [21.8444346, 43.583844500000005], [21.8445499, 43.5838357],
     [21.844594200000003, 43.5838357],
     [21.844730300000002, 43.5838571], [21.8449382, 43.5839003],
     [21.8450716, 43.583943100000006],
     [21.8451387, 43.583953300000005], [21.8452091, 43.583947],
     [21.845269400000003, 43.5839348], [21.8453392, 43.5839207],
     [21.8454196, 43.5838994], [21.845490700000003, 43.583894],
     [21.8455678, 43.5839008], [21.8457368, 43.583961],
     [21.8457821, 43.583995200000004], [21.8458682, 43.5841165],
     [21.845950000000002, 43.584203900000006],
     [21.8460265, 43.584264100000006],
     [21.846184700000002, 43.5843846], [21.8462411, 43.5844341],
     [21.846289300000002, 43.5844876], [21.8463336, 43.5845575],
     [21.846366500000002, 43.5846188],
     [21.846395700000002, 43.5846813], [21.8464366, 43.584726],
     [21.8464865, 43.584759600000005],
     [21.846544100000003, 43.5847683], [21.8466233, 43.5847829],
     [21.8467091, 43.5848178], [21.8467825, 43.584854],
     [21.8469149, 43.5849173],
     [21.846986700000002, 43.585001500000004],
     [21.847002800000002, 43.5850452],
     [21.847006800000003, 43.585112200000005],
     [21.8469921, 43.585179200000006],
     [21.8469459, 43.585290400000005],
     [21.8468942, 43.585377400000006],
     [21.846849000000002, 43.5854823],
     [21.846843200000002, 43.5855635],
     [21.846821000000002, 43.585681900000004],
     [21.8467786, 43.5857953], [21.8467491, 43.5858572],
     [21.8466911, 43.5859146], [21.8466749, 43.585961700000006],
     [21.8466922, 43.5860574], [21.8466972, 43.586201700000004],
     [21.8466972, 43.586317300000005],
     [21.8466871, 43.586348900000004],
     [21.846656600000003, 43.586383500000004],
     [21.8466233, 43.5864081]]}},
  {"type":"Feature",
   "properties":{},
   "geometry":
   {"type":"LineString",
    "coordinates":
    [[21.846417300000002, 43.586997800000006],
     [21.8464382, 43.5869657], [21.846439500000002, 43.5868947],
     [21.8464302, 43.5868102], [21.846457, 43.5867568],
     [21.846510600000002, 43.586724700000005],
     [21.8465978, 43.586672300000004],
     [21.846612500000003, 43.5866344], [21.8466233, 43.5865412],
     [21.8466233, 43.5864081]]}},
  {"type":"Feature",
   "properties":{},
   "geometry":
   {"type":"LineString",
    "coordinates":
    [[21.846417300000002, 43.586997800000006],
     [21.846260400000002, 43.5869036],
     [21.846109700000003, 43.5868041], [21.8460144, 43.5867121],
     [21.845828700000002, 43.5865905],
     [21.845685300000003, 43.5865068], [21.8455347, 43.5864301],
     [21.845377600000003, 43.586360500000005],
     [21.8452069, 43.5862956], [21.8450305, 43.5862391],
     [21.844849200000002, 43.586191500000005], [21.844664, 43.5861527],
     [21.8444755, 43.5861231], [21.8441687, 43.5860788],
     [21.8437878, 43.5860477], [21.8434016, 43.586102100000005],
     [21.843031500000002, 43.5862731], [21.8428383, 43.5865451],
     [21.842800800000003, 43.58672], [21.8428866, 43.5868909],
     [21.842677400000003, 43.587135700000005],
     [21.8424628, 43.5871629], [21.8422483, 43.587229],
     [21.842087300000003, 43.5874466],
     [21.8420337, 43.587602000000004],
     [21.842151700000002, 43.587792400000005],
     [21.8422161, 43.5879944], [21.842141, 43.588219800000005],
     [21.841980000000003, 43.588468500000005],
     [21.841985400000002, 43.5886744],
     [21.8419908, 43.588915300000004],
     [21.841803000000002, 43.589156200000005],
     [21.841604500000003, 43.5894223]]}},
  {"type":"Feature",
   "properties":{},
   "geometry":
   {"type":"LineString",
    "coordinates":
    [[21.841604500000003, 43.5894223], [21.841917300000002, 43.589533],
     [21.842491300000002, 43.5895991], [21.8430439, 43.5897506],
     [21.843312100000002, 43.589933200000004],
     [21.843912900000003, 43.5900575],
     [21.844170400000003, 43.590240200000004],
     [21.844267000000002, 43.590391700000005],
     [21.844309900000003, 43.5907647],
     [21.844476200000003, 43.5909551],
     [21.844733700000003, 43.5912348],
     [21.844760500000003, 43.591448500000006],
     [21.8451521, 43.5917088], [21.845372, 43.591934200000004],
     [21.8453613, 43.592163400000004], [21.8449268, 43.592311],
     [21.844385000000003, 43.5925985],
     [21.8439075, 43.592800600000004],
     [21.8439397, 43.593130800000004],
     [21.8439075, 43.593488300000004],
     [21.843821700000003, 43.593927300000004],
     [21.843703700000002, 43.594343],
     [21.843473000000003, 43.594665500000005],
     [21.843263800000003, 43.595003500000004],
     [21.842974100000003, 43.5952599],
     [21.8426952, 43.595621200000004],
     [21.842518700000003, 43.5958388]]}},
  {"type":"Feature",
   "properties":{},
   "geometry":
   {"type":"LineString",
    "coordinates":
    [[21.842518700000003, 43.5958388],
     [21.842432300000002, 43.596031100000005],
     [21.842298200000002, 43.5961865],
     [21.8422285, 43.596489500000004],
     [21.842099700000002, 43.5967964], [21.8419549, 43.5970334],
     [21.8417081, 43.597247], [21.8415365, 43.5976161],
     [21.8415526, 43.598024], [21.841568600000002, 43.598416400000005],
     [21.8413594, 43.5987583], [21.8410751, 43.5992283]]}},
  {"type":"Feature",
   "properties":{},
   "geometry":
   {"type":"LineString",
    "coordinates":
    [[21.8410751, 43.5992283], [21.841397, 43.599414800000005],
     [21.8415955, 43.599644000000005],
     [21.8417135, 43.599814900000005],
     [21.841917300000002, 43.5999859]]}},
  {"type":"Feature",
   "properties":{},
   "geometry":
   {"type":"LineString",
    "coordinates":
    [[21.8410751, 43.5992283], [21.841397, 43.599414800000005],
     [21.8415955, 43.599644000000005],
     [21.8417135, 43.599814900000005],
     [21.841917300000002, 43.5999859]]}},
  {"type":"Feature",
   "properties":{},
   "geometry":
   {"type":"LineString",
    "coordinates":
    [[21.8410751, 43.5992283], [21.840941, 43.5994498],
     [21.8407264, 43.599764400000005],
     [21.8403831, 43.599974200000005],
     [21.840195400000002, 43.600292800000005],
     [21.8400344, 43.6005453],
     [21.839755800000002, 43.600710500000005]]}},
  {"type":"Feature",
   "properties":{},
   "geometry":
   {"type":"LineString",
    "coordinates":
    [[21.839755800000002, 43.600710500000005],
     [21.839530200000002, 43.600871600000005],
     [21.839176100000003, 43.6010192], [21.8390045, 43.601295],
     [21.8391439, 43.601500900000005],
     [21.8389776, 43.601749500000004],
     [21.838956900000003, 43.6019317]]}},
  {"type":"Feature",
   "properties":{},
   "geometry":
   {"type":"LineString",
    "coordinates":
    [[21.851737200000002, 43.6082819],
     [21.851694400000003, 43.608161800000005],
     [21.851501300000002, 43.6075869], [21.8515121, 43.6074004],
     [21.8513273, 43.6068572],
     [21.851134100000003, 43.606701900000004],
     [21.850833700000003, 43.606701900000004],
     [21.850533300000002, 43.606624200000006],
     [21.8502329, 43.606344500000006], [21.8495463, 43.6061581],
     [21.8490742, 43.6062202], [21.848795300000003, 43.6062668],
     [21.848537800000003, 43.6062202], [21.8481515, 43.6061114],
     [21.847507800000002, 43.6060493], [21.8471216, 43.605319],
     [21.847143000000003, 43.604433400000005],
     [21.846177400000002, 43.6038896], [21.8460058, 43.6034389],
     [21.8460272, 43.602755300000005],
     [21.8463491, 43.601924000000004],
     [21.846338300000003, 43.6017996],
     [21.8461667, 43.601698600000006], [21.8459307, 43.601652],
     [21.8455766, 43.601745300000005], [21.8452977, 43.601753],
     [21.8450831, 43.601652], [21.8444715, 43.6012325],
     [21.8443608, 43.601115400000005],
     [21.844133600000003, 43.6010732], [21.8437634, 43.6011393],
     [21.842830000000003, 43.601325700000004],
     [21.841896600000002, 43.601527700000005],
     [21.8411671, 43.6015899], [21.8401049, 43.6015743],
     [21.8397079, 43.601698600000006], [21.8393753, 43.6018385],
     [21.838956900000003, 43.6019317]]}},
  {"type":"Feature",
   "properties":{},
   "geometry":
   {"type":"LineString",
    "coordinates":
    [[21.851737200000002, 43.6082819],
     [21.851326500000003, 43.6089299],
     [21.850951000000002, 43.609566900000004],
     [21.8507043, 43.610079600000006],
     [21.850693500000002, 43.6107166],
     [21.851176300000002, 43.6110739], [21.8511978, 43.6119362],
     [21.8514553, 43.6124488], [21.851873700000002, 43.6128761],
     [21.852324300000003, 43.6133654],
     [21.8527856, 43.613582900000004],
     [21.852871500000003, 43.6138703],
     [21.852646200000002, 43.6141267],
     [21.852474500000003, 43.6146083],
     [21.8520775, 43.615035500000005],
     [21.851766400000002, 43.6153307],
     [21.851433800000002, 43.6154549],
     [21.851541100000002, 43.615555900000004],
     [21.8520775, 43.615587000000005], [21.8528071, 43.6156802],
     [21.853611800000003, 43.6153928],
     [21.8540087, 43.615517100000005]]}},
  {"type":"Feature",
   "properties":{},
   "geometry":
   {"type":"LineString",
    "coordinates":
    [[21.8540087, 43.615517100000005],
     [21.853686900000003, 43.6157307],
     [21.853171900000003, 43.6159948],
     [21.853096800000003, 43.616157900000005],
     [21.853311400000003, 43.616460800000006],
     [21.8531075, 43.616717200000004],
     [21.852463800000002, 43.616740500000006],
     [21.8520346, 43.6168725], [21.8518201, 43.6171754],
     [21.851573300000002, 43.617291900000005],
     [21.8516377, 43.6176492], [21.8520346, 43.6179599],
     [21.851766400000002, 43.618293900000005],
     [21.851734200000003, 43.618457], [21.851991700000003, 43.6186434],
     [21.8524101, 43.6187677], [21.852463800000002, 43.6190395],
     [21.8529895, 43.6190395], [21.853429400000003, 43.6191405],
     [21.8538049, 43.619295900000004], [21.8541053, 43.6195133],
     [21.8541482, 43.6198551],
     [21.853944900000002, 43.620301500000004]]}},
  {"type":"Feature",
   "properties":{},
   "geometry":
   {"type":"LineString",
    "coordinates":
    [[21.8545728, 43.6231725], [21.854467900000003, 43.6230859],
     [21.854331100000003, 43.6229364],
     [21.854290900000002, 43.622783000000005],
     [21.854256000000003, 43.6226762], [21.8540898, 43.6226276],
     [21.8539315, 43.6225383], [21.8537384, 43.6224587],
     [21.853700800000002, 43.622293600000006],
     [21.8537062, 43.6221442], [21.8537679, 43.622018000000004],
     [21.853869800000002, 43.6218044],
     [21.853910000000003, 43.621577200000004],
     [21.8540388, 43.621287900000006], [21.854012, 43.6210995],
     [21.8540227, 43.6208782], [21.8540442, 43.620666500000006],
     [21.8540227, 43.6204763],
     [21.853944900000002, 43.620301500000004]]}},
  {"type":"Feature",
   "properties":{},
   "geometry":
   {"type":"LineString",
    "coordinates":
    [[21.854615900000002, 43.623673000000004],
     [21.8545728, 43.6231725]]}}]}
