{"type":"FeatureCollection",
 "properties":{},
 "features":
 [{"type":"Feature",
   "properties":{},
   "geometry":
   {"type":"LineString",
    "coordinates":
    [[22.165111200000002, 43.3922249],
     [22.1651111, 43.392360700000005], [22.1651111, 43.3924035],
     [22.1651123, 43.3926388]]}},
  {"type":"Feature",
   "properties":{},
   "geometry":
   {"type":"LineString",
    "coordinates":
    [[22.1651123, 43.3926388], [22.1650972, 43.392669100000006],
     [22.165079900000002, 43.3926834],
     [22.165054400000002, 43.3926918],
     [22.165038300000003, 43.3926943], [22.1650093, 43.3926943],
     [22.164982700000003, 43.3926783],
     [22.1647676, 43.392480000000006],
     [22.1645687, 43.392318700000004],
     [22.1644736, 43.392242800000005],
     [22.164381600000002, 43.392189300000005],
     [22.164268200000002, 43.3922005]]}},
  {"type":"Feature",
   "properties":{},
   "geometry":
   {"type":"LineString",
    "coordinates":
    [[22.164268200000002, 43.3922005],
     [22.164343000000002, 43.3923788], [22.164406800000002, 43.392598],
     [22.164415700000003, 43.392760300000006],
     [22.164388300000002, 43.3929361],
     [22.164315100000003, 43.3930219], [22.1641787, 43.3930998],
     [22.164020500000003, 43.3930869]]}},
  {"type":"Feature",
   "properties":{},
   "geometry":
   {"type":"LineString",
    "coordinates":
    [[22.1572926, 43.385888], [22.157294500000003, 43.3859791],
     [22.1572718, 43.3860557], [22.1572205, 43.3861142],
     [22.1571445, 43.3861635], [22.1570694, 43.386258700000006],
     [22.157018700000002, 43.3864074],
     [22.157078300000002, 43.3866298],
     [22.157458000000002, 43.3872513],
     [22.1578386, 43.387597500000005], [22.1580552, 43.3877946],
     [22.1583888, 43.3880605], [22.1586839, 43.388283],
     [22.1588667, 43.3884995], [22.1590405, 43.388767900000005],
     [22.1591574, 43.3889006],
     [22.159298200000002, 43.389006900000005],
     [22.159907, 43.389468400000005], [22.1600521, 43.3895539],
     [22.160231900000003, 43.3895835], [22.1604147, 43.3895539],
     [22.1607743, 43.389482900000004],
     [22.1610677, 43.389550500000006],
     [22.1614396, 43.389698800000005],
     [22.1620791, 43.390049700000006],
     [22.162651200000003, 43.390491100000006],
     [22.1628472, 43.390779900000005], [22.1629587, 43.3910999],
     [22.1631234, 43.3913409], [22.163285700000003, 43.3915476],
     [22.163269600000003, 43.391753900000005],
     [22.163231900000003, 43.3919623], [22.1634506, 43.3922469],
     [22.163683900000002, 43.392574800000006],
     [22.164020500000003, 43.3930869]]}},
  {"type":"Feature",
   "properties":{},
   "geometry":
   {"type":"LineString",
    "coordinates":
    [[22.1565419, 43.383158800000004],
     [22.157001700000002, 43.3833545],
     [22.157222700000002, 43.383711600000005],
     [22.1574272, 43.3841417], [22.157290200000002, 43.3844336],
     [22.1571505, 43.384970800000005], [22.1572095, 43.385387],
     [22.1572926, 43.385888]]}},
  {"type":"Feature",
   "properties":{},
   "geometry":
   {"type":"LineString",
    "coordinates":
    [[22.157308, 43.378792100000005], [22.1573168, 43.3789813],
     [22.157467, 43.3797299], [22.157445600000003, 43.380275700000006],
     [22.1572095, 43.380774800000005],
     [22.156823300000003, 43.3823499],
     [22.1565419, 43.383158800000004]]}},
  {"type":"Feature",
   "properties":{},
   "geometry":
   {"type":"LineString",
    "coordinates":
    [[22.164712, 43.372943500000005], [22.1642724, 43.3732215],
     [22.1632821, 43.3737737], [22.1621363, 43.374595],
     [22.161019600000003, 43.3752354], [22.1601283, 43.3759655],
     [22.158677100000002, 43.377121200000005],
     [22.157718900000003, 43.3779255],
     [22.157308, 43.378792100000005]]}},
  {"type":"Feature",
   "properties":{},
   "geometry":
   {"type":"LineString",
    "coordinates":
    [[22.1636683, 43.3712608], [22.1644817, 43.371972],
     [22.164795, 43.372272800000005], [22.164909, 43.372505800000006],
     [22.164884100000002, 43.372663800000005],
     [22.164712, 43.372943500000005]]}},
  {"type":"Feature",
   "properties":{},
   "geometry":
   {"type":"LineString",
    "coordinates":
    [[22.158723600000002, 43.367049], [22.159140700000002, 43.3669868],
     [22.159527, 43.3670336], [22.159805900000002, 43.3672364],
     [22.160106300000002, 43.3676419],
     [22.160428200000002, 43.3678759],
     [22.161179200000003, 43.3679032],
     [22.161694200000003, 43.368484300000006],
     [22.1619946, 43.368936600000005], [22.162059000000003, 43.369467],
     [22.1623503, 43.3697917], [22.1636683, 43.3712608]]}},
  {"type":"Feature",
   "properties":{},
   "geometry":
   {"type":"LineString",
    "coordinates":
    [[22.153905, 43.3653332], [22.154365900000002, 43.366052700000004],
     [22.1547515, 43.366403000000005],
     [22.155747400000003, 43.3670337],
     [22.157064700000003, 43.367080400000006],
     [22.158723600000002, 43.367049]]}},
  {"type":"Feature",
   "properties":{},
   "geometry":
   {"type":"LineString",
    "coordinates":
    [[22.160610600000002, 43.364058], [22.159634200000003, 43.3644909],
     [22.1585828, 43.364818500000005], [22.1574026, 43.3650213],
     [22.156007900000002, 43.3650992],
     [22.155385600000002, 43.3650992], [22.154935000000002, 43.365146],
     [22.154556000000003, 43.365307200000004],
     [22.1542913, 43.3653332], [22.153905, 43.3653332]]}},
  {"type":"Feature",
   "properties":{},
   "geometry":
   {"type":"LineString",
    "coordinates":
    [[22.160610600000002, 43.364058], [22.160930500000003, 43.363616],
     [22.1612416, 43.363046600000004], [22.1614347, 43.362524],
     [22.161703000000003, 43.362274400000004],
     [22.1619926, 43.3619858], [22.1624111, 43.361861000000005],
     [22.1627222, 43.361775200000004], [22.1628402, 43.3615646],
     [22.1626149, 43.361361800000005], [22.1624754, 43.3611434],
     [22.1624862, 43.3607534], [22.1624541, 43.360441400000006],
     [22.1622287, 43.360230800000004], [22.1618494, 43.3599632],
     [22.1614344, 43.3599862], [22.1607266, 43.359942100000005],
     [22.160147300000002, 43.359981100000006],
     [22.1598469, 43.3598251], [22.1597721, 43.3595569]]}},
  {"type":"Feature",
   "properties":{},
   "geometry":
   {"type":"LineString",
    "coordinates":
    [[22.1597721, 43.3595569], [22.160115400000002, 43.3593307],
     [22.1602119, 43.3591903], [22.1603514, 43.3590498],
     [22.160448000000002, 43.358925], [22.160662600000002, 43.3588158],
     [22.160855700000003, 43.3587846],
     [22.161177000000002, 43.358642800000005],
     [22.1616719, 43.358334400000004], [22.1619016, 43.3581931],
     [22.162127100000003, 43.3579372],
     [22.1622197, 43.357679100000006],
     [22.162272700000003, 43.357357900000004],
     [22.1622904, 43.3570495], [22.1624848, 43.356664],
     [22.1625555, 43.356497000000005],
     [22.162661500000002, 43.3563428], [22.1627356, 43.3555246],
     [22.1630764, 43.355457300000005],
     [22.1634816, 43.355592800000004], [22.1643037, 43.3556034],
     [22.164982600000002, 43.3556201], [22.1652947, 43.3556102],
     [22.165434700000002, 43.355557700000006],
     [22.165603100000002, 43.355341]]}},
  {"type":"Feature",
   "properties":{},
   "geometry":
   {"type":"LineString",
    "coordinates":
    [[22.164716900000002, 43.3540384], [22.1650023, 43.3544673],
     [22.1653242, 43.3549978], [22.165603100000002, 43.355341]]}},
  {"type":"Feature",
   "properties":{},
   "geometry":
   {"type":"LineString",
    "coordinates":
    [[22.164716900000002, 43.3540384], [22.1650023, 43.3544673],
     [22.1653242, 43.3549978], [22.165603100000002, 43.355341]]}},
  {"type":"Feature",
   "properties":{},
   "geometry":
   {"type":"LineString",
    "coordinates":
    [[22.1597721, 43.3595569], [22.160115400000002, 43.3593307],
     [22.1602119, 43.3591903], [22.1603514, 43.3590498],
     [22.160448000000002, 43.358925], [22.160662600000002, 43.3588158],
     [22.160855700000003, 43.3587846],
     [22.161177000000002, 43.358642800000005],
     [22.1616719, 43.358334400000004], [22.1619016, 43.3581931],
     [22.162127100000003, 43.3579372],
     [22.1622197, 43.357679100000006],
     [22.162272700000003, 43.357357900000004],
     [22.1622904, 43.3570495], [22.1624848, 43.356664],
     [22.1625555, 43.356497000000005],
     [22.162661500000002, 43.3563428], [22.1627356, 43.3555246],
     [22.1630764, 43.355457300000005],
     [22.1634816, 43.355592800000004], [22.1643037, 43.3556034],
     [22.164982600000002, 43.3556201], [22.1652947, 43.3556102],
     [22.165434700000002, 43.355557700000006],
     [22.165603100000002, 43.355341]]}},
  {"type":"Feature",
   "properties":{},
   "geometry":
   {"type":"LineString",
    "coordinates":
    [[22.160610600000002, 43.364058], [22.160930500000003, 43.363616],
     [22.1612416, 43.363046600000004], [22.1614347, 43.362524],
     [22.161703000000003, 43.362274400000004],
     [22.1619926, 43.3619858], [22.1624111, 43.361861000000005],
     [22.1627222, 43.361775200000004], [22.1628402, 43.3615646],
     [22.1626149, 43.361361800000005], [22.1624754, 43.3611434],
     [22.1624862, 43.3607534], [22.1624541, 43.360441400000006],
     [22.1622287, 43.360230800000004], [22.1618494, 43.3599632],
     [22.1614344, 43.3599862], [22.1607266, 43.359942100000005],
     [22.160147300000002, 43.359981100000006],
     [22.1598469, 43.3598251], [22.1597721, 43.3595569]]}},
  {"type":"Feature",
   "properties":{},
   "geometry":
   {"type":"LineString",
    "coordinates":
    [[22.160610600000002, 43.364058], [22.159634200000003, 43.3644909],
     [22.1585828, 43.364818500000005], [22.1574026, 43.3650213],
     [22.156007900000002, 43.3650992],
     [22.155385600000002, 43.3650992], [22.154935000000002, 43.365146],
     [22.154556000000003, 43.365307200000004],
     [22.1542913, 43.3653332], [22.153905, 43.3653332]]}},
  {"type":"Feature",
   "properties":{},
   "geometry":
   {"type":"LineString",
    "coordinates":
    [[22.153905, 43.3653332], [22.154365900000002, 43.366052700000004],
     [22.1547515, 43.366403000000005],
     [22.155747400000003, 43.3670337],
     [22.157064700000003, 43.367080400000006],
     [22.158723600000002, 43.367049]]}},
  {"type":"Feature",
   "properties":{},
   "geometry":
   {"type":"LineString",
    "coordinates":
    [[22.158723600000002, 43.367049], [22.159140700000002, 43.3669868],
     [22.159527, 43.3670336], [22.159805900000002, 43.3672364],
     [22.160106300000002, 43.3676419],
     [22.160428200000002, 43.3678759],
     [22.161179200000003, 43.3679032],
     [22.161694200000003, 43.368484300000006],
     [22.1619946, 43.368936600000005], [22.162059000000003, 43.369467],
     [22.1623503, 43.3697917], [22.1636683, 43.3712608]]}},
  {"type":"Feature",
   "properties":{},
   "geometry":
   {"type":"LineString",
    "coordinates":
    [[22.1636683, 43.3712608], [22.1644817, 43.371972],
     [22.164795, 43.372272800000005], [22.164909, 43.372505800000006],
     [22.164884100000002, 43.372663800000005],
     [22.164712, 43.372943500000005]]}},
  {"type":"Feature",
   "properties":{},
   "geometry":
   {"type":"LineString",
    "coordinates":
    [[22.164712, 43.372943500000005], [22.1642724, 43.3732215],
     [22.1632821, 43.3737737], [22.1621363, 43.374595],
     [22.161019600000003, 43.3752354], [22.1601283, 43.3759655],
     [22.158677100000002, 43.377121200000005],
     [22.157718900000003, 43.3779255],
     [22.157308, 43.378792100000005]]}},
  {"type":"Feature",
   "properties":{},
   "geometry":
   {"type":"LineString",
    "coordinates":
    [[22.157308, 43.378792100000005], [22.1573168, 43.3789813],
     [22.157467, 43.3797299], [22.157445600000003, 43.380275700000006],
     [22.1572095, 43.380774800000005],
     [22.156823300000003, 43.3823499],
     [22.1565419, 43.383158800000004]]}},
  {"type":"Feature",
   "properties":{},
   "geometry":
   {"type":"LineString",
    "coordinates":
    [[22.1565419, 43.383158800000004],
     [22.157001700000002, 43.3833545],
     [22.157222700000002, 43.383711600000005],
     [22.1574272, 43.3841417], [22.157290200000002, 43.3844336],
     [22.1571505, 43.384970800000005], [22.1572095, 43.385387],
     [22.1572926, 43.385888]]}},
  {"type":"Feature",
   "properties":{},
   "geometry":
   {"type":"LineString",
    "coordinates":
    [[22.1572926, 43.385888], [22.157294500000003, 43.3859791],
     [22.1572718, 43.3860557], [22.1572205, 43.3861142],
     [22.1571445, 43.3861635], [22.1570694, 43.386258700000006],
     [22.157018700000002, 43.3864074],
     [22.157078300000002, 43.3866298],
     [22.157458000000002, 43.3872513],
     [22.1578386, 43.387597500000005], [22.1580552, 43.3877946],
     [22.1583888, 43.3880605], [22.1586839, 43.388283],
     [22.1588667, 43.3884995], [22.1590405, 43.388767900000005],
     [22.1591574, 43.3889006],
     [22.159298200000002, 43.389006900000005],
     [22.159907, 43.389468400000005], [22.1600521, 43.3895539],
     [22.160231900000003, 43.3895835], [22.1604147, 43.3895539],
     [22.1607743, 43.389482900000004],
     [22.1610677, 43.389550500000006],
     [22.1614396, 43.389698800000005],
     [22.1620791, 43.390049700000006],
     [22.162651200000003, 43.390491100000006],
     [22.1628472, 43.390779900000005], [22.1629587, 43.3910999],
     [22.1631234, 43.3913409], [22.163285700000003, 43.3915476],
     [22.163269600000003, 43.391753900000005],
     [22.163231900000003, 43.3919623], [22.1634506, 43.3922469],
     [22.163683900000002, 43.392574800000006],
     [22.164020500000003, 43.3930869]]}},
  {"type":"Feature",
   "properties":{},
   "geometry":
   {"type":"LineString",
    "coordinates":
    [[22.164268200000002, 43.3922005],
     [22.164343000000002, 43.3923788], [22.164406800000002, 43.392598],
     [22.164415700000003, 43.392760300000006],
     [22.164388300000002, 43.3929361],
     [22.164315100000003, 43.3930219], [22.1641787, 43.3930998],
     [22.164020500000003, 43.3930869]]}},
  {"type":"Feature",
   "properties":{},
   "geometry":
   {"type":"LineString",
    "coordinates":
    [[22.1651123, 43.3926388], [22.1650972, 43.392669100000006],
     [22.165079900000002, 43.3926834],
     [22.165054400000002, 43.3926918],
     [22.165038300000003, 43.3926943], [22.1650093, 43.3926943],
     [22.164982700000003, 43.3926783],
     [22.1647676, 43.392480000000006],
     [22.1645687, 43.392318700000004],
     [22.1644736, 43.392242800000005],
     [22.164381600000002, 43.392189300000005],
     [22.164268200000002, 43.3922005]]}},
  {"type":"Feature",
   "properties":{},
   "geometry":
   {"type":"LineString",
    "coordinates":
    [[22.165111200000002, 43.3922249],
     [22.1651111, 43.392360700000005], [22.1651111, 43.3924035],
     [22.1651123, 43.3926388]]}}]}
