{"type":"FeatureCollection",
 "properties":{},
 "features":
 [{"type":"Feature",
   "properties":{},
   "geometry":
   {"type":"LineString",
    "coordinates":
    [[21.637862100000003, 44.3831677], [21.637805, 44.3828466],
     [21.6377846, 44.382797700000005],
     [21.637745000000002, 44.3827398],
     [21.6376977, 44.382696900000006],
     [21.637636500000003, 44.382656600000004],
     [21.6375625, 44.382614000000004], [21.6375104, 44.3825723],
     [21.637425800000003, 44.382470700000006]]}},
  {"type":"Feature",
   "properties":{},
   "geometry":
   {"type":"LineString",
    "coordinates":
    [[21.637425800000003, 44.382470700000006],
     [21.6374295, 44.382378900000006], [21.6371934, 44.3821795],
     [21.637021800000003, 44.381964800000006],
     [21.6368823, 44.3817425], [21.6369359, 44.3816428],
     [21.6369252, 44.381412700000006],
     [21.6369574, 44.381121400000005], [21.636978900000003, 44.38083],
     [21.6371398, 44.3806651],
     [21.637161300000002, 44.380519400000004],
     [21.637037900000003, 44.3804121], [21.6370915, 44.3802012],
     [21.6372846, 44.380143700000005],
     [21.6373651, 44.379994200000006], [21.637349, 44.379829300000004],
     [21.637408, 44.3796759], [21.6374563, 44.3794344],
     [21.637536800000003, 44.3792312],
     [21.6375314, 44.379039500000005],
     [21.6376923, 44.378778800000006], [21.6378586, 44.3785564],
     [21.638202, 44.378326300000005], [21.638491600000002, 44.3781039],
     [21.6386617, 44.378008300000005]]}},
  {"type":"Feature",
   "properties":{},
   "geometry":
   {"type":"LineString",
    "coordinates":
    [[21.636746600000002, 44.3755773], [21.637047000000003, 44.376026],
     [21.6375198, 44.3764242],
     [21.637637100000003, 44.376769800000005],
     [21.637731600000002, 44.3770005],
     [21.6377819, 44.377057400000005], [21.6378387, 44.3771031],
     [21.637923, 44.3771488], [21.6380395, 44.3771946],
     [21.638211100000003, 44.377233700000005],
     [21.638470400000003, 44.377256900000006],
     [21.638726100000003, 44.377279800000004],
     [21.6387958, 44.3773143], [21.6388329, 44.3773593],
     [21.6388494, 44.377410100000006],
     [21.6386617, 44.378008300000005]]}},
  {"type":"Feature",
   "properties":{},
   "geometry":
   {"type":"LineString",
    "coordinates":
    [[21.636746600000002, 44.3755773],
     [21.636571200000002, 44.3754852], [21.636362000000002, 44.375374],
     [21.6360025, 44.3752896], [21.6356968, 44.3752052],
     [21.635310500000003, 44.375258900000006], [21.6350745, 44.375489],
     [21.634870600000003, 44.375730600000004],
     [21.6346507, 44.3759491], [21.6344469, 44.376171500000005],
     [21.634312700000002, 44.3763747], [21.6342055, 44.3766316],
     [21.634103500000002, 44.3768923], [21.6339694, 44.3771569],
     [21.6338729, 44.377433], [21.6338139, 44.3777014],
     [21.6338836, 44.377973600000004], [21.6339158, 44.3782458],
     [21.633948, 44.378495], [21.6338246, 44.3786484],
     [21.6334759, 44.3787366], [21.633014000000003, 44.378849],
     [21.632816100000003, 44.3788708],
     [21.6325748, 44.378852800000004],
     [21.632354300000003, 44.3787899]]}},
  {"type":"Feature",
   "properties":{},
   "geometry":
   {"type":"LineString",
    "coordinates":
    [[21.632354300000003, 44.3787899],
     [21.6321723, 44.378702100000005],
     [21.632038100000003, 44.3786539],
     [21.6319866, 44.378596200000004],
     [21.631956600000002, 44.3785165],
     [21.631942600000002, 44.378443600000004],
     [21.6318573, 44.378411500000006], [21.631772, 44.3784367],
     [21.6317226, 44.378514100000004],
     [21.6316425, 44.378608500000006], [21.6315023, 44.3786962],
     [21.6313698, 44.378718], [21.6312979, 44.3786791],
     [21.6312733, 44.3786044],
     [21.631320000000002, 44.378428400000004],
     [21.631299300000002, 44.378308000000004],
     [21.6312606, 44.3781836], [21.631241300000003, 44.3780091],
     [21.6311788, 44.3778985],
     [21.630997100000002, 44.377724900000004],
     [21.6308413, 44.3775047], [21.6308259, 44.3773946],
     [21.6309171, 44.3772796], [21.631045800000003, 44.3771646],
     [21.6310995, 44.3769882],
     [21.631255000000003, 44.376785000000005],
     [21.631340700000003, 44.376670100000005],
     [21.6315399, 44.376544700000004], [21.6316209, 44.3764411],
     [21.6316972, 44.3762963], [21.6317692, 44.376230500000005],
     [21.6319522, 44.376133800000005],
     [21.6321164, 44.376018800000004],
     [21.632397700000002, 44.3758993],
     [21.6326587, 44.375748200000004],
     [21.6328353, 44.375550800000006], [21.6329341, 44.3754046],
     [21.632939500000003, 44.375281900000004]]}},
  {"type":"Feature",
   "properties":{},
   "geometry":
   {"type":"LineString",
    "coordinates":
    [[21.632939500000003, 44.375281900000004],
     [21.6330832, 44.375128200000006],
     [21.633139500000002, 44.374976800000006],
     [21.6331154, 44.374798500000004], [21.633094, 44.374562600000004],
     [21.6330001, 44.374415000000006],
     [21.632910000000003, 44.374267700000004]]}},
  {"type":"Feature",
   "properties":{},
   "geometry":
   {"type":"LineString",
    "coordinates":
    [[21.632910000000003, 44.374267700000004],
     [21.6331326, 44.374231300000005],
     [21.633422300000003, 44.3741776], [21.633669, 44.374147],
     [21.6337388, 44.3739744], [21.6337441, 44.3737482],
     [21.6337066, 44.3735104], [21.6336315, 44.3732344],
     [21.63361, 44.3729851], [21.6336476, 44.372831700000006],
     [21.6335939, 44.3727129], [21.6334383, 44.3726132],
     [21.6333096, 44.3723486], [21.6332023, 44.372064800000004],
     [21.633105800000003, 44.3717235],
     [21.6330682, 44.371466600000005], [21.633036, 44.3710985],
     [21.6329877, 44.3708608],
     [21.632923400000003, 44.370592300000006],
     [21.6328885, 44.3704466]]}},
  {"type":"Feature",
   "properties":{},
   "geometry":
   {"type":"LineString",
    "coordinates":
    [[21.6328885, 44.3704466],
     [21.632848300000003, 44.370013300000004],
     [21.632977, 44.369714200000004], [21.6331916, 44.369453400000005],
     [21.6334008, 44.369154300000005], [21.6335725, 44.3688859],
     [21.6336583, 44.368690300000004], [21.6336154, 44.3685829],
     [21.6337087, 44.3685221], [21.6337978, 44.368464100000004],
     [21.6339909, 44.3682838], [21.6342323, 44.3680001],
     [21.634420000000002, 44.367727800000004],
     [21.6345171, 44.3675146], [21.6345408, 44.367255],
     [21.634489300000002, 44.367063200000004],
     [21.6343804, 44.366873000000005],
     [21.634155500000002, 44.3666782],
     [21.633888900000002, 44.3665363], [21.6337066, 44.3664086],
     [21.633565, 44.3662617], [21.6334869, 44.3660927],
     [21.633534400000002, 44.3659307],
     [21.633618600000002, 44.3657267], [21.6337431, 44.3651795],
     [21.633847600000003, 44.365023400000005],
     [21.634127200000002, 44.3648381], [21.6343074, 44.3646606],
     [21.634421500000002, 44.3645362]]}},
  {"type":"Feature",
   "properties":{},
   "geometry":
   {"type":"LineString",
    "coordinates":
    [[21.634421500000002, 44.3645362],
     [21.634372900000002, 44.3644502], [21.6342871, 44.3642454],
     [21.634191100000002, 44.3639383],
     [21.634126900000002, 44.3636763], [21.634047000000002, 44.363467],
     [21.6340118, 44.363291800000006],
     [21.634072500000002, 44.3630384], [21.6340565, 44.3629298]]}},
  {"type":"Feature",
   "properties":{},
   "geometry":
   {"type":"LineString",
    "coordinates":
    [[21.6340565, 44.3629298], [21.633968300000003, 44.3628852],
     [21.6337119, 44.362865], [21.633528100000003, 44.362864],
     [21.633308300000003, 44.3627867], [21.6331226, 44.3626834],
     [21.632891200000003, 44.3625313],
     [21.6327333, 44.362365600000004],
     [21.632665900000003, 44.3622092],
     [21.6324882, 44.361972800000004],
     [21.632408400000003, 44.361837200000004],
     [21.632397700000002, 44.3615955], [21.632404, 44.3613859],
     [21.632391900000002, 44.361186000000004],
     [21.6323897, 44.360951500000006],
     [21.6324459, 44.360794000000006],
     [21.632606900000003, 44.3606214], [21.6326018, 44.3605256],
     [21.632426600000002, 44.3602962],
     [21.6322528, 44.360145800000005],
     [21.6320748, 44.360047200000004],
     [21.631792500000003, 44.3599893],
     [21.6315984, 44.359919500000004], [21.6312672, 44.3598853],
     [21.631094100000002, 44.359723900000006],
     [21.631019000000002, 44.359570500000004],
     [21.630921200000003, 44.359390000000005],
     [21.6309267, 44.3591368], [21.630778900000003, 44.35878]]}},
  {"type":"Feature",
   "properties":{},
   "geometry":
   {"type":"LineString",
    "coordinates":
    [[21.630778900000003, 44.35878], [21.6304562, 44.359152],
     [21.6301661, 44.359248400000006], [21.6299944, 44.3590565],
     [21.629812, 44.3588916], [21.629731500000002, 44.358738200000005],
     [21.6295317, 44.3585276]]}},
  {"type":"Feature",
   "properties":{},
   "geometry":
   {"type":"LineString",
    "coordinates":
    [[21.628977300000003, 44.358097], [21.6290197, 44.358168400000004],
     [21.6290923, 44.3582818],
     [21.629198900000002, 44.358404400000005],
     [21.6293332, 44.3584894], [21.6295317, 44.3585276]]}},
  {"type":"Feature",
   "properties":{},
   "geometry":
   {"type":"LineString",
    "coordinates":
    [[21.628977300000003, 44.358097], [21.6290197, 44.358168400000004],
     [21.6290923, 44.3582818],
     [21.629198900000002, 44.358404400000005],
     [21.6293332, 44.3584894], [21.6295317, 44.3585276]]}},
  {"type":"Feature",
   "properties":{},
   "geometry":
   {"type":"LineString",
    "coordinates":
    [[21.630778900000003, 44.35878], [21.6304562, 44.359152],
     [21.6301661, 44.359248400000006], [21.6299944, 44.3590565],
     [21.629812, 44.3588916], [21.629731500000002, 44.358738200000005],
     [21.6295317, 44.3585276]]}},
  {"type":"Feature",
   "properties":{},
   "geometry":
   {"type":"LineString",
    "coordinates":
    [[21.6340565, 44.3629298], [21.633968300000003, 44.3628852],
     [21.6337119, 44.362865], [21.633528100000003, 44.362864],
     [21.633308300000003, 44.3627867], [21.6331226, 44.3626834],
     [21.632891200000003, 44.3625313],
     [21.6327333, 44.362365600000004],
     [21.632665900000003, 44.3622092],
     [21.6324882, 44.361972800000004],
     [21.632408400000003, 44.361837200000004],
     [21.632397700000002, 44.3615955], [21.632404, 44.3613859],
     [21.632391900000002, 44.361186000000004],
     [21.6323897, 44.360951500000006],
     [21.6324459, 44.360794000000006],
     [21.632606900000003, 44.3606214], [21.6326018, 44.3605256],
     [21.632426600000002, 44.3602962],
     [21.6322528, 44.360145800000005],
     [21.6320748, 44.360047200000004],
     [21.631792500000003, 44.3599893],
     [21.6315984, 44.359919500000004], [21.6312672, 44.3598853],
     [21.631094100000002, 44.359723900000006],
     [21.631019000000002, 44.359570500000004],
     [21.630921200000003, 44.359390000000005],
     [21.6309267, 44.3591368], [21.630778900000003, 44.35878]]}},
  {"type":"Feature",
   "properties":{},
   "geometry":
   {"type":"LineString",
    "coordinates":
    [[21.634421500000002, 44.3645362],
     [21.634372900000002, 44.3644502], [21.6342871, 44.3642454],
     [21.634191100000002, 44.3639383],
     [21.634126900000002, 44.3636763], [21.634047000000002, 44.363467],
     [21.6340118, 44.363291800000006],
     [21.634072500000002, 44.3630384], [21.6340565, 44.3629298]]}},
  {"type":"Feature",
   "properties":{},
   "geometry":
   {"type":"LineString",
    "coordinates":
    [[21.6328885, 44.3704466],
     [21.632848300000003, 44.370013300000004],
     [21.632977, 44.369714200000004], [21.6331916, 44.369453400000005],
     [21.6334008, 44.369154300000005], [21.6335725, 44.3688859],
     [21.6336583, 44.368690300000004], [21.6336154, 44.3685829],
     [21.6337087, 44.3685221], [21.6337978, 44.368464100000004],
     [21.6339909, 44.3682838], [21.6342323, 44.3680001],
     [21.634420000000002, 44.367727800000004],
     [21.6345171, 44.3675146], [21.6345408, 44.367255],
     [21.634489300000002, 44.367063200000004],
     [21.6343804, 44.366873000000005],
     [21.634155500000002, 44.3666782],
     [21.633888900000002, 44.3665363], [21.6337066, 44.3664086],
     [21.633565, 44.3662617], [21.6334869, 44.3660927],
     [21.633534400000002, 44.3659307],
     [21.633618600000002, 44.3657267], [21.6337431, 44.3651795],
     [21.633847600000003, 44.365023400000005],
     [21.634127200000002, 44.3648381], [21.6343074, 44.3646606],
     [21.634421500000002, 44.3645362]]}},
  {"type":"Feature",
   "properties":{},
   "geometry":
   {"type":"LineString",
    "coordinates":
    [[21.632910000000003, 44.374267700000004],
     [21.6331326, 44.374231300000005],
     [21.633422300000003, 44.3741776], [21.633669, 44.374147],
     [21.6337388, 44.3739744], [21.6337441, 44.3737482],
     [21.6337066, 44.3735104], [21.6336315, 44.3732344],
     [21.63361, 44.3729851], [21.6336476, 44.372831700000006],
     [21.6335939, 44.3727129], [21.6334383, 44.3726132],
     [21.6333096, 44.3723486], [21.6332023, 44.372064800000004],
     [21.633105800000003, 44.3717235],
     [21.6330682, 44.371466600000005], [21.633036, 44.3710985],
     [21.6329877, 44.3708608],
     [21.632923400000003, 44.370592300000006],
     [21.6328885, 44.3704466]]}},
  {"type":"Feature",
   "properties":{},
   "geometry":
   {"type":"LineString",
    "coordinates":
    [[21.632939500000003, 44.375281900000004],
     [21.6330832, 44.375128200000006],
     [21.633139500000002, 44.374976800000006],
     [21.6331154, 44.374798500000004], [21.633094, 44.374562600000004],
     [21.6330001, 44.374415000000006],
     [21.632910000000003, 44.374267700000004]]}},
  {"type":"Feature",
   "properties":{},
   "geometry":
   {"type":"LineString",
    "coordinates":
    [[21.632354300000003, 44.3787899],
     [21.6321723, 44.378702100000005],
     [21.632038100000003, 44.3786539],
     [21.6319866, 44.378596200000004],
     [21.631956600000002, 44.3785165],
     [21.631942600000002, 44.378443600000004],
     [21.6318573, 44.378411500000006], [21.631772, 44.3784367],
     [21.6317226, 44.378514100000004],
     [21.6316425, 44.378608500000006], [21.6315023, 44.3786962],
     [21.6313698, 44.378718], [21.6312979, 44.3786791],
     [21.6312733, 44.3786044],
     [21.631320000000002, 44.378428400000004],
     [21.631299300000002, 44.378308000000004],
     [21.6312606, 44.3781836], [21.631241300000003, 44.3780091],
     [21.6311788, 44.3778985],
     [21.630997100000002, 44.377724900000004],
     [21.6308413, 44.3775047], [21.6308259, 44.3773946],
     [21.6309171, 44.3772796], [21.631045800000003, 44.3771646],
     [21.6310995, 44.3769882],
     [21.631255000000003, 44.376785000000005],
     [21.631340700000003, 44.376670100000005],
     [21.6315399, 44.376544700000004], [21.6316209, 44.3764411],
     [21.6316972, 44.3762963], [21.6317692, 44.376230500000005],
     [21.6319522, 44.376133800000005],
     [21.6321164, 44.376018800000004],
     [21.632397700000002, 44.3758993],
     [21.6326587, 44.375748200000004],
     [21.6328353, 44.375550800000006], [21.6329341, 44.3754046],
     [21.632939500000003, 44.375281900000004]]}},
  {"type":"Feature",
   "properties":{},
   "geometry":
   {"type":"LineString",
    "coordinates":
    [[21.636746600000002, 44.3755773],
     [21.636571200000002, 44.3754852], [21.636362000000002, 44.375374],
     [21.6360025, 44.3752896], [21.6356968, 44.3752052],
     [21.635310500000003, 44.375258900000006], [21.6350745, 44.375489],
     [21.634870600000003, 44.375730600000004],
     [21.6346507, 44.3759491], [21.6344469, 44.376171500000005],
     [21.634312700000002, 44.3763747], [21.6342055, 44.3766316],
     [21.634103500000002, 44.3768923], [21.6339694, 44.3771569],
     [21.6338729, 44.377433], [21.6338139, 44.3777014],
     [21.6338836, 44.377973600000004], [21.6339158, 44.3782458],
     [21.633948, 44.378495], [21.6338246, 44.3786484],
     [21.6334759, 44.3787366], [21.633014000000003, 44.378849],
     [21.632816100000003, 44.3788708],
     [21.6325748, 44.378852800000004],
     [21.632354300000003, 44.3787899]]}},
  {"type":"Feature",
   "properties":{},
   "geometry":
   {"type":"LineString",
    "coordinates":
    [[21.636746600000002, 44.3755773], [21.637047000000003, 44.376026],
     [21.6375198, 44.3764242],
     [21.637637100000003, 44.376769800000005],
     [21.637731600000002, 44.3770005],
     [21.6377819, 44.377057400000005], [21.6378387, 44.3771031],
     [21.637923, 44.3771488], [21.6380395, 44.3771946],
     [21.638211100000003, 44.377233700000005],
     [21.638470400000003, 44.377256900000006],
     [21.638726100000003, 44.377279800000004],
     [21.6387958, 44.3773143], [21.6388329, 44.3773593],
     [21.6388494, 44.377410100000006],
     [21.6386617, 44.378008300000005]]}},
  {"type":"Feature",
   "properties":{},
   "geometry":
   {"type":"LineString",
    "coordinates":
    [[21.637425800000003, 44.382470700000006],
     [21.6374295, 44.382378900000006], [21.6371934, 44.3821795],
     [21.637021800000003, 44.381964800000006],
     [21.6368823, 44.3817425], [21.6369359, 44.3816428],
     [21.6369252, 44.381412700000006],
     [21.6369574, 44.381121400000005], [21.636978900000003, 44.38083],
     [21.6371398, 44.3806651],
     [21.637161300000002, 44.380519400000004],
     [21.637037900000003, 44.3804121], [21.6370915, 44.3802012],
     [21.6372846, 44.380143700000005],
     [21.6373651, 44.379994200000006], [21.637349, 44.379829300000004],
     [21.637408, 44.3796759], [21.6374563, 44.3794344],
     [21.637536800000003, 44.3792312],
     [21.6375314, 44.379039500000005],
     [21.6376923, 44.378778800000006], [21.6378586, 44.3785564],
     [21.638202, 44.378326300000005], [21.638491600000002, 44.3781039],
     [21.6386617, 44.378008300000005]]}},
  {"type":"Feature",
   "properties":{},
   "geometry":
   {"type":"LineString",
    "coordinates":
    [[21.637862100000003, 44.3831677], [21.637805, 44.3828466],
     [21.6377846, 44.382797700000005],
     [21.637745000000002, 44.3827398],
     [21.6376977, 44.382696900000006],
     [21.637636500000003, 44.382656600000004],
     [21.6375625, 44.382614000000004], [21.6375104, 44.3825723],
     [21.637425800000003, 44.382470700000006]]}}]}
