{"type":"FeatureCollection",
 "properties":{},
 "features":
 [{"type":"Feature",
   "properties":{},
   "geometry":
   {"type":"LineString",
    "coordinates":
    [[21.910399700000003, 43.4293349], [21.9103046, 43.429344],
     [21.9100983, 43.4293448], [21.9099091, 43.4293459],
     [21.909469, 43.4293059], [21.908936800000003, 43.429213000000004],
     [21.908730000000002, 43.429165600000005],
     [21.908540600000002, 43.429137700000005],
     [21.9083043, 43.4291039],
     [21.908181300000003, 43.429090900000006]]}},
  {"type":"Feature",
   "properties":{},
   "geometry":
   {"type":"LineString",
    "coordinates":
    [[21.908181300000003, 43.429090900000006],
     [21.907581200000003, 43.4290462],
     [21.907378700000002, 43.4290917],
     [21.907226400000003, 43.4291396], [21.9070971, 43.4291944],
     [21.906960700000003, 43.4292626], [21.906801, 43.429298900000006],
     [21.906609200000002, 43.429304], [21.906316500000003, 43.429262],
     [21.906103400000003, 43.4292579],
     [21.9059531, 43.429256300000006], [21.9058072, 43.429274],
     [21.905700600000003, 43.4293105],
     [21.9055643, 43.429391900000006], [21.9054785, 43.4294272],
     [21.905359, 43.429435000000005], [21.9052517, 43.429424700000006],
     [21.905078200000002, 43.4293983],
     [21.904984300000002, 43.4293883],
     [21.904890400000003, 43.4293829],
     [21.9047728, 43.429385800000006], [21.9046552, 43.4294024],
     [21.9045622, 43.4294426], [21.904494500000002, 43.4294827],
     [21.904114, 43.4297033], [21.9040314, 43.429750500000004],
     [21.903942500000003, 43.429793100000005], [21.903852, 43.4298335],
     [21.9037426, 43.4298693],
     [21.902985100000002, 43.430089100000004],
     [21.9026077, 43.430181100000006], [21.9022744, 43.4302416],
     [21.9020563, 43.430267900000004],
     [21.901846300000003, 43.4302676],
     [21.901590600000002, 43.4302897],
     [21.901368100000003, 43.4303292], [21.901149200000003, 43.430393],
     [21.900956500000003, 43.430458300000005], [21.9007015, 43.430553],
     [21.9004669, 43.4306385], [21.9001363, 43.4307305],
     [21.8999491, 43.4307838], [21.8998272, 43.430837000000004],
     [21.899672900000002, 43.430913700000005],
     [21.899475000000002, 43.4310337],
     [21.8993009, 43.431138000000004], [21.8992486, 43.431165],
     [21.899188600000002, 43.4311822], [21.8991286, 43.4311884],
     [21.8990854, 43.4311887], [21.899044500000002, 43.4311847],
     [21.8989932, 43.4311707], [21.8989292, 43.4311493],
     [21.8988939, 43.4311294], [21.898858500000003, 43.4311061],
     [21.8987561, 43.4310193], [21.8985723, 43.4308355],
     [21.8982566, 43.4305153],
     [21.898215500000003, 43.430473600000006],
     [21.898159200000002, 43.4304318], [21.898088, 43.4303989],
     [21.898011800000003, 43.4303734],
     [21.8978928, 43.430347700000006],
     [21.897669800000003, 43.430320200000004],
     [21.897318300000002, 43.4302926], [21.8971914, 43.4302864],
     [21.8970747, 43.4302912], [21.8968712, 43.4303219],
     [21.896538600000003, 43.430381100000005],
     [21.896206000000003, 43.4304551],
     [21.895852700000002, 43.4305522], [21.8955857, 43.430653],
     [21.895459600000002, 43.430689300000004],
     [21.8953436, 43.4307292], [21.895235500000002, 43.4307916],
     [21.895112700000002, 43.4308743],
     [21.8949819, 43.430966600000005],
     [21.8948921, 43.431005600000006], [21.8948195, 43.4310161],
     [21.894776500000003, 43.431002],
     [21.894736100000003, 43.430974000000006],
     [21.8947101, 43.4309269], [21.8946994, 43.430868700000005],
     [21.894696200000002, 43.430739800000005],
     [21.894705700000003, 43.4304599], [21.8947252, 43.4303092],
     [21.8947457, 43.430206600000005],
     [21.8947408, 43.430140800000004], [21.8947128, 43.4300864],
     [21.894679800000002, 43.430049800000006],
     [21.8946323, 43.4300149], [21.8945736, 43.429986400000004],
     [21.8945033, 43.4299625]]}},
  {"type":"Feature",
   "properties":{},
   "geometry":
   {"type":"LineString",
    "coordinates":
    [[21.8945033, 43.4299625], [21.8940527, 43.4302119],
     [21.8939044, 43.4302968], [21.893793000000002, 43.4304013],
     [21.893661400000003, 43.430580400000004],
     [21.8935354, 43.4307071], [21.8933766, 43.4308197],
     [21.893250600000002, 43.4309512],
     [21.8932006, 43.431023200000006],
     [21.8931998, 43.431105300000006],
     [21.893171900000002, 43.4311875],
     [21.8931548, 43.431246400000006], [21.8931013, 43.4313273],
     [21.8929517, 43.431452900000004], [21.8928975, 43.4315282],
     [21.8928796, 43.4315949],
     [21.892826900000003, 43.431746000000004],
     [21.8927847, 43.4318406], [21.8927662, 43.4319113],
     [21.8927382, 43.4319749], [21.892688, 43.4320238],
     [21.8926379, 43.4320657], [21.892321900000002, 43.4323427],
     [21.891839400000002, 43.4327951], [21.8917131, 43.4329648],
     [21.8916723, 43.4330263], [21.891664000000002, 43.4330744],
     [21.891679, 43.433140300000005], [21.8917587, 43.433195700000006],
     [21.891789300000003, 43.433231], [21.8917864, 43.4332733],
     [21.891703800000002, 43.433382300000005],
     [21.891639400000003, 43.433507000000006],
     [21.8915107, 43.433600500000004], [21.8912961, 43.4338186],
     [21.8908026, 43.434519800000004], [21.8907382, 43.43466],
     [21.8906309, 43.4349093], [21.890528800000002, 43.4350411],
     [21.8904378, 43.4351586], [21.890330900000002, 43.4352584],
     [21.8901374, 43.4354391], [21.8899228, 43.435688400000004],
     [21.8896224, 43.4359845], [21.8891718, 43.4362805],
     [21.888785600000002, 43.436455800000005],
     [21.888479800000002, 43.4367401],
     [21.888404700000002, 43.4369115], [21.8883456, 43.4371725],
     [21.8882277, 43.437231000000004],
     [21.887991600000003, 43.437308900000005],
     [21.8877127, 43.437433500000004],
     [21.887390800000002, 43.4377451], [21.8871977, 43.4379477],
     [21.886875800000002, 43.438181400000005],
     [21.886725700000003, 43.438352800000004],
     [21.8866827, 43.438711100000006], [21.8864896, 43.4390383],
     [21.8864252, 43.439225300000004],
     [21.8864252, 43.439311000000004]]}},
  {"type":"Feature",
   "properties":{},
   "geometry":
   {"type":"LineString",
    "coordinates":
    [[21.8864252, 43.439311000000004], [21.8862814, 43.4394847],
     [21.8859435, 43.439776800000004],
     [21.885793200000002, 43.4399248], [21.8855733, 43.4401546],
     [21.8853909, 43.440400000000004],
     [21.8852836, 43.440719400000006], [21.885289, 43.4410037],
     [21.8853426, 43.441284200000005],
     [21.8854714, 43.441545100000006], [21.8856591, 43.4417866],
     [21.8858576, 43.4419346], [21.8861634, 43.441993100000005],
     [21.886501300000003, 43.442032000000005],
     [21.886758800000003, 43.441868400000004],
     [21.887059200000003, 43.441662], [21.887381100000002, 43.4414517],
     [21.887794200000002, 43.4413387],
     [21.8879895, 43.441232400000004],
     [21.888023800000003, 43.4410949]]}},
  {"type":"Feature",
   "properties":{},
   "geometry":
   {"type":"LineString",
    "coordinates":
    [[21.889627800000003, 43.439665500000004],
     [21.889434700000002, 43.439762900000005], [21.8891503, 43.439942],
     [21.888753400000002, 43.440253600000005],
     [21.888431500000003, 43.4405574],
     [21.888249100000003, 43.4408145],
     [21.888023800000003, 43.4410949]]}},
  {"type":"Feature",
   "properties":{},
   "geometry":
   {"type":"LineString",
    "coordinates":
    [[21.889627800000003, 43.439665500000004],
     [21.8902833, 43.4398488], [21.8909914, 43.440113700000005],
     [21.891570700000003, 43.4404954],
     [21.892085700000003, 43.440775900000006],
     [21.892547, 43.440612300000005], [21.8931264, 43.4402461],
     [21.8936628, 43.4400124], [21.8943495, 43.4400047],
     [21.8949825, 43.4400436], [21.8956799, 43.4397709],
     [21.896323600000002, 43.4395918], [21.8967849, 43.4397242],
     [21.8971497, 43.439545], [21.8978471, 43.4395606],
     [21.8986179, 43.4397621]]}},
  {"type":"Feature",
   "properties":{},
   "geometry":
   {"type":"LineString",
    "coordinates":
    [[21.905044500000002, 43.438617], [21.9031133, 43.4391545],
     [21.9011928, 43.4397621], [21.900205800000002, 43.4398089],
     [21.899326000000002, 43.439621900000006],
     [21.8986179, 43.4397621]]}},
  {"type":"Feature",
   "properties":{},
   "geometry":
   {"type":"LineString",
    "coordinates":
    [[21.905044500000002, 43.438617],
     [21.905174900000002, 43.439089300000006],
     [21.905282200000002, 43.439642400000004],
     [21.905657700000003, 43.4401098],
     [21.906204900000002, 43.440514900000004],
     [21.906612600000003, 43.4408265], [21.9069988, 43.4413562],
     [21.9074065, 43.4417691], [21.907782, 43.4418859],
     [21.9082863, 43.442197500000006],
     [21.908693900000003, 43.4426416],
     [21.909090900000002, 43.4430934],
     [21.909541500000003, 43.4433738],
     [21.909895600000002, 43.4435919], [21.9103247, 43.4436386],
     [21.9105822, 43.4438801], [21.910936300000003, 43.4441761],
     [21.9114942, 43.4443709], [21.911977, 43.444526700000004],
     [21.9124705, 43.444923900000006],
     [21.9128031, 43.444768100000005],
     [21.912738700000002, 43.4445033],
     [21.912631400000002, 43.4442151], [21.9125349, 43.443958],
     [21.9128997, 43.4438879], [21.9130177, 43.4436231],
     [21.9129748, 43.4433816], [21.9133181, 43.443366000000005],
     [21.913768700000002, 43.4433816],
     [21.913886700000003, 43.443155700000005],
     [21.9138223, 43.4429609],
     [21.913736500000002, 43.442828500000005],
     [21.913843800000002, 43.442454600000005],
     [21.913715, 43.442213100000004], [21.913371700000003, 43.441847],
     [21.9132752, 43.4413952], [21.9133181, 43.441052400000004],
     [21.9131679, 43.440764200000004], [21.9129748, 43.4403591],
     [21.9128997, 43.4399462], [21.912964000000002, 43.4394866],
     [21.9127709, 43.4391283], [21.9125027, 43.4388166],
     [21.912041300000002, 43.4387154],
     [21.911451300000003, 43.438598500000005],
     [21.9108719, 43.438473900000005],
     [21.910271100000003, 43.4382791],
     [21.909906300000003, 43.437936300000004],
     [21.9096274, 43.4376169], [21.9092197, 43.4374066],
     [21.908897800000002, 43.4369547],
     [21.9086725, 43.436643100000005],
     [21.9083399, 43.436393800000005], [21.9081575, 43.4360822],
     [21.9081897, 43.4356537], [21.9082541, 43.435194],
     [21.9083168, 43.4347373]]}},
  {"type":"Feature",
   "properties":{},
   "geometry":
   {"type":"LineString",
    "coordinates":
    [[21.910357100000002, 43.431717600000006],
     [21.909958300000003, 43.4321117],
     [21.909829600000002, 43.432680500000004], [21.9097866, 43.432735],
     [21.9097115, 43.432703800000006], [21.9095613, 43.4323532],
     [21.909400400000003, 43.4330544], [21.9085743, 43.4335998],
     [21.9083168, 43.4347373]]}},
  {"type":"Feature",
   "properties":{},
   "geometry":
   {"type":"LineString",
    "coordinates":
    [[21.9118861, 43.4297045], [21.9119128, 43.429783400000005],
     [21.9119342, 43.4299392], [21.911815, 43.430331900000006],
     [21.9118055, 43.430406700000006],
     [21.9117277, 43.430634600000005], [21.9116794, 43.4308333],
     [21.9116231, 43.4311586], [21.9115828, 43.4312112],
     [21.9114809, 43.4312443], [21.9112395, 43.4312267],
     [21.911151, 43.431228700000005], [21.9111027, 43.431236500000004],
     [21.910872100000002, 43.4313767],
     [21.9106816, 43.431505300000005], [21.9105287, 43.4316903],
     [21.910467, 43.431727300000006],
     [21.910357100000002, 43.431717600000006]]}},
  {"type":"Feature",
   "properties":{},
   "geometry":
   {"type":"LineString",
    "coordinates":
    [[21.910399700000003, 43.4293349],
     [21.9105238, 43.429363900000006],
     [21.9106984, 43.429371200000006], [21.9110339, 43.4293702],
     [21.911201400000003, 43.429359500000004],
     [21.9114036, 43.429383300000005],
     [21.911521800000003, 43.429422300000006],
     [21.911549800000003, 43.429445], [21.911609300000002, 43.429512],
     [21.911702100000003, 43.4295947], [21.9117879, 43.4296537],
     [21.911832800000003, 43.429678800000005],
     [21.9118861, 43.4297045]]}}]}
