{"type":"FeatureCollection",
 "properties":{},
 "features":
 [{"type":"Feature",
   "properties":{},
   "geometry":
   {"type":"LineString",
    "coordinates":
    [[21.9845472, 43.3970962],
     [21.984461300000003, 43.397283300000005],
     [21.984461300000003, 43.3974938], [21.9845042, 43.3977354],
     [21.9845793, 43.3980395],
     [21.984600800000003, 43.398242200000006],
     [21.9845042, 43.3987333], [21.984343300000003, 43.3992322],
     [21.984118000000002, 43.4000819],
     [21.9839249, 43.400767800000004],
     [21.983828300000003, 43.4010407],
     [21.983635200000002, 43.401368100000006],
     [21.983377700000002, 43.4016253], [21.9829593, 43.4018826],
     [21.9823692, 43.402171], [21.981135400000003, 43.402771200000004],
     [21.980609700000002, 43.4030986],
     [21.979944500000002, 43.4035663], [21.9793866, 43.4039872],
     [21.978474600000002, 43.404415900000004],
     [21.976843900000002, 43.404922500000005],
     [21.976114300000003, 43.405140800000005], [21.9751702, 43.405476],
     [21.9741295, 43.4059125], [21.9736681, 43.4060995],
     [21.9727454, 43.4064191], [21.9724021, 43.4064581],
     [21.971908600000003, 43.4065516], [21.9714473, 43.4067309],
     [21.9710503, 43.4069725],
     [21.970664000000003, 43.407253100000005],
     [21.9702078, 43.407396500000004]]}},
  {"type":"Feature",
   "properties":{},
   "geometry":
   {"type":"LineString",
    "coordinates":
    [[21.9702078, 43.407396500000004], [21.9698487, 43.4075961],
     [21.9691513, 43.407892200000006], [21.9683573, 43.4082586],
     [21.9677243, 43.4084846], [21.9670592, 43.4087028],
     [21.966233000000003, 43.408944500000004],
     [21.9654284, 43.409147100000006],
     [21.964827600000003, 43.4094199],
     [21.964131000000002, 43.409685200000006]]}},
  {"type":"Feature",
   "properties":{},
   "geometry":
   {"type":"LineString",
    "coordinates":
    [[21.9627456, 43.4097626],
     [21.964131000000002, 43.409685200000006]]}},
  {"type":"Feature",
   "properties":{},
   "geometry":
   {"type":"LineString",
    "coordinates":
    [[21.957640400000003, 43.406483],
     [21.958842100000002, 43.407028600000004],
     [21.9593785, 43.4071221], [21.959700400000003, 43.4072624],
     [21.959807700000002, 43.407449500000006],
     [21.9599149, 43.407963900000006], [21.9601724, 43.4082133],
     [21.9606016, 43.4086342], [21.9608162, 43.409211000000006],
     [21.9610522, 43.409600700000006],
     [21.9612668, 43.409741000000004],
     [21.9617389, 43.409818900000005], [21.9627456, 43.4097626]]}},
  {"type":"Feature",
   "properties":{},
   "geometry":
   {"type":"LineString",
    "coordinates":
    [[21.9545961, 43.402160800000004],
     [21.9545755, 43.402377800000004],
     [21.954378900000002, 43.4029442], [21.9542287, 43.4034898],
     [21.9542287, 43.403786000000004],
     [21.954378900000002, 43.4040978],
     [21.954765100000003, 43.4045031],
     [21.955194300000002, 43.4046746], [21.955559, 43.4047058],
     [21.9558809, 43.4047682], [21.9562671, 43.4050176],
     [21.956674800000002, 43.405547600000006],
     [21.957189800000002, 43.4061868],
     [21.957640400000003, 43.406483]]}},
  {"type":"Feature",
   "properties":{},
   "geometry":
   {"type":"LineString",
    "coordinates":
    [[21.952726600000002, 43.400823900000006],
     [21.9528339, 43.400964200000004], [21.9529788, 43.4010812],
     [21.9534209, 43.4012217], [21.953890700000002, 43.401432],
     [21.9541858, 43.401580100000004],
     [21.954435200000002, 43.4017847],
     [21.9546202, 43.402020500000006],
     [21.9545961, 43.402160800000004]]}},
  {"type":"Feature",
   "properties":{},
   "geometry":
   {"type":"LineString",
    "coordinates":
    [[21.952726600000002, 43.400823900000006],
     [21.9525249, 43.4008246], [21.952203100000002, 43.4008519],
     [21.9517244, 43.400799], [21.951425200000003, 43.400801200000004],
     [21.951092600000003, 43.4008051], [21.9508781, 43.400809],
     [21.9504631, 43.400665000000004]]}},
  {"type":"Feature",
   "properties":{},
   "geometry":
   {"type":"LineString",
    "coordinates":
    [[21.9510645, 43.4004173], [21.9509411, 43.40039],
     [21.950828400000002, 43.400403700000005],
     [21.9507453, 43.400440700000004],
     [21.9506514, 43.400538100000006],
     [21.950573600000002, 43.4005674],
     [21.9504631, 43.400665000000004]]}},
  {"type":"Feature",
   "properties":{},
   "geometry":
   {"type":"LineString",
    "coordinates":
    [[21.952000400000003, 43.3997752],
     [21.951831600000002, 43.3999067],
     [21.951490900000003, 43.400109400000005],
     [21.9511664, 43.400310100000006], [21.9510645, 43.4004173]]}},
  {"type":"Feature",
   "properties":{},
   "geometry":
   {"type":"LineString",
    "coordinates":
    [[21.952235100000003, 43.3997084],
     [21.952000400000003, 43.3997752]]}},
  {"type":"Feature",
   "properties":{},
   "geometry":
   {"type":"LineString",
    "coordinates":
    [[21.9534746, 43.398495600000004], [21.9535926, 43.3985932],
     [21.953674600000003, 43.398728600000005],
     [21.9536821, 43.3988128], [21.9536604, 43.3988766],
     [21.953620200000003, 43.3989611], [21.9534524, 43.3991351],
     [21.953158700000003, 43.3993519],
     [21.9527843, 43.399549400000005],
     [21.952535100000002, 43.3996293],
     [21.952235100000003, 43.3997084]]}},
  {"type":"Feature",
   "properties":{},
   "geometry":
   {"type":"LineString",
    "coordinates":
    [[21.9534746, 43.398495600000004],
     [21.953564800000002, 43.3984457]]}},
  {"type":"Feature",
   "properties":{},
   "geometry":
   {"type":"LineString",
    "coordinates":
    [[21.953564800000002, 43.3984457],
     [21.953658800000003, 43.3982655], [21.953809, 43.3981252],
     [21.954023600000003, 43.3979927],
     [21.954227500000002, 43.3978758],
     [21.954721000000003, 43.3974314],
     [21.954946300000003, 43.3971742], [21.9551072, 43.3968545],
     [21.955128700000003, 43.3966518], [21.9551394, 43.3964647],
     [21.955193100000002, 43.396277600000005], [21.9553325, 43.396075],
     [21.955493500000003, 43.3959112], [21.9555578, 43.3957709],
     [21.9556866, 43.3955215], [21.9558114, 43.395312700000005],
     [21.956083600000003, 43.3951549],
     [21.9562452, 43.395006900000006], [21.956302, 43.3948194],
     [21.956244400000003, 43.3947159],
     [21.956083200000002, 43.3946029], [21.9559119, 43.3945236],
     [21.955708, 43.3944884], [21.955525700000003, 43.394531400000005],
     [21.9550386, 43.3946358]]}},
  {"type":"Feature",
   "properties":{},
   "geometry":
   {"type":"LineString",
    "coordinates":
    [[21.9550386, 43.3946358], [21.954721000000003, 43.3947263],
     [21.9540319, 43.3946769],
     [21.953525300000003, 43.394687600000005],
     [21.953072300000002, 43.3948587], [21.9526396, 43.3949523],
     [21.9523821, 43.395100500000005], [21.9521568, 43.3953032],
     [21.952010400000002, 43.3955215], [21.9519211, 43.3957167],
     [21.9517744, 43.3957763], [21.951532800000003, 43.3956992],
     [21.950847900000003, 43.3956072],
     [21.950397300000002, 43.395498100000005],
     [21.9501612, 43.395529200000006], [21.949742800000003, 43.395654],
     [21.949399500000002, 43.3957008],
     [21.949195600000003, 43.3957319],
     [21.949051100000002, 43.395837400000005],
     [21.948893400000003, 43.395871400000004],
     [21.9487251, 43.3958231]]}},
  {"type":"Feature",
   "properties":{},
   "geometry":
   {"type":"LineString",
    "coordinates":
    [[21.9487251, 43.3958231],
     [21.948339200000003, 43.395503000000005],
     [21.947672100000002, 43.3950303], [21.9474182, 43.3947726],
     [21.947234400000003, 43.394572700000005],
     [21.947035900000003, 43.394495500000005],
     [21.9469597, 43.3944167], [21.946705400000003, 43.394314]]}},
  {"type":"Feature",
   "properties":{},
   "geometry":
   {"type":"LineString",
    "coordinates":
    [[21.946705400000003, 43.394314], [21.9468257, 43.394100300000005],
     [21.9467602, 43.393705000000004],
     [21.946749500000003, 43.3933775],
     [21.9468031, 43.393034500000006], [21.9468664, 43.3928619],
     [21.946769800000002, 43.392484], [21.9465027, 43.3921925],
     [21.946341800000003, 43.3919742], [21.9463121, 43.3917792],
     [21.946234500000003, 43.391639000000005], [21.9461808, 43.391257],
     [21.946172400000002, 43.3907606], [21.9459555, 43.3904149]]}},
  {"type":"Feature",
   "properties":{},
   "geometry":
   {"type":"LineString",
    "coordinates":
    [[21.9459555, 43.3904149], [21.9458053, 43.390266800000006],
     [21.945586600000002, 43.3900304],
     [21.945133300000002, 43.3895707],
     [21.944884300000002, 43.3892797],
     [21.944451100000002, 43.3891058], [21.9439129, 43.3891502],
     [21.9436727, 43.389246400000005]]}},
  {"type":"Feature",
   "properties":{},
   "geometry":
   {"type":"LineString",
    "coordinates":
    [[21.9436727, 43.389246400000005], [21.943445, 43.389214300000006],
     [21.942816500000003, 43.389150400000005],
     [21.942365300000002, 43.3890679], [21.9419419, 43.389085],
     [21.9415245, 43.388964800000004],
     [21.9410525, 43.388853600000004],
     [21.940685000000002, 43.388794700000005],
     [21.9406669, 43.388790400000005],
     [21.9404785, 43.388745500000006],
     [21.940392600000003, 43.3886899]]}},
  {"type":"Feature",
   "properties":{},
   "geometry":
   {"type":"LineString",
    "coordinates":
    [[21.940392600000003, 43.3886899], [21.9403256, 43.38861],
     [21.94028, 43.3884892], [21.940140500000002, 43.3883176],
     [21.9400924, 43.388199500000006], [21.9400547, 43.3881071],
     [21.940033200000002, 43.387881], [21.9400225, 43.3875146],
     [21.9402478, 43.3871559], [21.9403489, 43.386792]]}},
  {"type":"Feature",
   "properties":{},
   "geometry":
   {"type":"LineString",
    "coordinates":
    [[21.9403489, 43.386792], [21.9404189, 43.3865399],
     [21.9405787, 43.3859919], [21.9405016, 43.385857200000004],
     [21.9403633, 43.3858138], [21.9402049, 43.385682300000006]]}},
  {"type":"Feature",
   "properties":{},
   "geometry":
   {"type":"LineString",
    "coordinates":
    [[21.9402049, 43.385682300000006], [21.9401298, 43.3854405],
     [21.940076100000002, 43.3851832], [21.940162, 43.384848000000005],
     [21.9403444, 43.3845283], [21.940376500000003, 43.3842008],
     [21.9404302, 43.3838889], [21.9404946, 43.3835302],
     [21.9405375, 43.383257300000004], [21.940566, 43.383049],
     [21.940541, 43.3828126], [21.9403516, 43.3827033],
     [21.9401645, 43.3826107], [21.9397923, 43.3825324],
     [21.9395273, 43.3825146], [21.9391642, 43.3825087]]}},
  {"type":"Feature",
   "properties":{},
   "geometry":
   {"type":"LineString",
    "coordinates":
    [[21.9391642, 43.3825087], [21.9392721, 43.382350100000004],
     [21.939639600000003, 43.382217700000005],
     [21.939857200000002, 43.3819795]]}},
  {"type":"Feature",
   "properties":{},
   "geometry":
   {"type":"LineString",
    "coordinates":
    [[21.939857200000002, 43.3819795],
     [21.9400635, 43.381903900000005],
     [21.940208900000002, 43.3817017],
     [21.940248500000003, 43.381492300000005],
     [21.940548900000003, 43.381274000000005],
     [21.9407098, 43.3810245], [21.941033, 43.380870900000005],
     [21.9412731, 43.380576100000006],
     [21.9415145, 43.380338300000005],
     [21.9418772, 43.380017900000006],
     [21.9422783, 43.379658400000004]]}},
  {"type":"Feature",
   "properties":{},
   "geometry":
   {"type":"LineString",
    "coordinates":
    [[21.9422783, 43.379658400000004],
     [21.942793400000003, 43.3792927],
     [21.943129300000003, 43.3791261], [21.943417, 43.3788545]]}},
  {"type":"Feature",
   "properties":{},
   "geometry":
   {"type":"LineString",
    "coordinates":
    [[21.943417, 43.3788545], [21.943714800000002, 43.3785261],
     [21.9440975, 43.3782414], [21.9443392, 43.378075700000004],
     [21.9444202, 43.3779516]]}},
  {"type":"Feature",
   "properties":{},
   "geometry":
   {"type":"LineString",
    "coordinates":
    [[21.9442735, 43.377769400000005], [21.9443133, 43.3778507],
     [21.9444202, 43.3779516]]}},
  {"type":"Feature",
   "properties":{},
   "geometry":
   {"type":"LineString",
    "coordinates":
    [[21.941557200000002, 43.376186100000005],
     [21.942314800000002, 43.376745], [21.942417000000003, 43.3768204],
     [21.9425525, 43.376921800000005],
     [21.942752300000002, 43.3769861],
     [21.9429199, 43.377059300000006], [21.9429689, 43.377136],
     [21.9430027, 43.3771593], [21.9430598, 43.377174800000006],
     [21.9431343, 43.377194200000005], [21.9432511, 43.3772207],
     [21.943325100000003, 43.377264800000006],
     [21.943358800000002, 43.3773354],
     [21.9433623, 43.377385200000006], [21.9433563, 43.3774144],
     [21.943309600000003, 43.3774681], [21.9433098, 43.3775022],
     [21.9433349, 43.3775448], [21.9433814, 43.3775874],
     [21.9435247, 43.3776584], [21.9437174, 43.3776996],
     [21.943909, 43.3777058], [21.9440741, 43.3776838],
     [21.944157, 43.3776706], [21.9441858, 43.377676],
     [21.9442106, 43.3776912], [21.944235900000002, 43.377716],
     [21.9442735, 43.377769400000005]]}},
  {"type":"Feature",
   "properties":{},
   "geometry":
   {"type":"LineString",
    "coordinates":
    [[21.941137700000002, 43.376001900000006],
     [21.941557200000002, 43.376186100000005]]}},
  {"type":"Feature",
   "properties":{},
   "geometry":
   {"type":"LineString",
    "coordinates":
    [[21.9406761, 43.3754372], [21.940754700000003, 43.3755712],
     [21.9410373, 43.3758989],
     [21.941137700000002, 43.376001900000006]]}},
  {"type":"Feature",
   "properties":{},
   "geometry":
   {"type":"LineString",
    "coordinates":
    [[21.939344000000002, 43.374006],
     [21.939533800000003, 43.374142500000005],
     [21.939665100000003, 43.3742607],
     [21.9399236, 43.374496300000004],
     [21.940289800000002, 43.374943200000004],
     [21.940549800000003, 43.375295900000005],
     [21.9406761, 43.3754372]]}},
  {"type":"Feature",
   "properties":{},
   "geometry":
   {"type":"LineString",
    "coordinates":
    [[21.939924400000002, 43.3695145],
     [21.939700700000003, 43.3700843],
     [21.939633200000003, 43.3704489], [21.9395312, 43.3708868],
     [21.939551700000003, 43.3710796],
     [21.9395682, 43.371506800000006], [21.9395214, 43.3718846],
     [21.9394253, 43.372600600000005],
     [21.939406700000003, 43.372689300000005],
     [21.9394019, 43.3727876], [21.9394305, 43.373114400000006],
     [21.939420400000003, 43.3734204], [21.9393692, 43.3739147],
     [21.939344000000002, 43.374006]]}},
  {"type":"Feature",
   "properties":{},
   "geometry":
   {"type":"LineString",
    "coordinates":
    [[21.9418186, 43.366216200000004],
     [21.941842100000002, 43.3663626],
     [21.9418317, 43.366440100000005], [21.9417797, 43.3665554],
     [21.941655, 43.3666914], [21.9412418, 43.3671051],
     [21.9410691, 43.367331300000004], [21.9409144, 43.3675963],
     [21.9407816, 43.367867700000005], [21.9404752, 43.3684937],
     [21.9402881, 43.3688129], [21.9401061, 43.3691247],
     [21.939924400000002, 43.3695145]]}},
  {"type":"Feature",
   "properties":{},
   "geometry":
   {"type":"LineString",
    "coordinates":
    [[21.9418186, 43.366216200000004], [21.9418866, 43.3661995],
     [21.9419183, 43.3661917],
     [21.942215100000002, 43.366095300000005],
     [21.942233400000003, 43.366089300000006],
     [21.9422785, 43.366068500000004],
     [21.9423496, 43.366020500000005],
     [21.942594500000002, 43.3656838], [21.9426144, 43.3656548],
     [21.9426527, 43.365599], [21.942731600000002, 43.3654838]]}},
  {"type":"Feature",
   "properties":{},
   "geometry":
   {"type":"LineString",
    "coordinates":
    [[21.942731600000002, 43.3654838],
     [21.942754700000002, 43.3654499]]}},
  {"type":"Feature",
   "properties":{},
   "geometry":
   {"type":"LineString",
    "coordinates":
    [[21.9427349, 43.3654017], [21.942713400000002, 43.3654365],
     [21.942754700000002, 43.3654499]]}},
  {"type":"Feature",
   "properties":{},
   "geometry":
   {"type":"LineString",
    "coordinates":
    [[21.9427987, 43.365382200000006],
     [21.9427556, 43.365368200000006], [21.9427349, 43.3654017]]}},
  {"type":"Feature",
   "properties":{},
   "geometry":
   {"type":"LineString",
    "coordinates":
    [[21.9428242, 43.365344400000005],
     [21.9427987, 43.365382200000006]]}},
  {"type":"Feature",
   "properties":{},
   "geometry":
   {"type":"LineString",
    "coordinates":
    [[21.942927, 43.365194900000006], [21.9429215, 43.365203],
     [21.9428915, 43.365246600000006],
     [21.942860500000002, 43.365291600000006],
     [21.9428242, 43.365344400000005]]}},
  {"type":"Feature",
   "properties":{},
   "geometry":
   {"type":"LineString",
    "coordinates":
    [[21.9429838, 43.364503600000006],
     [21.943133800000002, 43.3646242],
     [21.943164900000003, 43.3646991], [21.9431708, 43.3647817],
     [21.9431346, 43.364890900000006],
     [21.943098600000003, 43.364959000000006],
     [21.942927, 43.365194900000006]]}},
  {"type":"Feature",
   "properties":{},
   "geometry":
   {"type":"LineString",
    "coordinates":
    [[21.9439554, 43.357479600000005],
     [21.943903000000002, 43.357561700000005],
     [21.943857700000002, 43.3576579], [21.9438183, 43.3578379],
     [21.9438198, 43.358022500000004],
     [21.943898700000002, 43.358290800000006],
     [21.943933100000002, 43.3584625], [21.9439239, 43.3586004],
     [21.9438961, 43.3587628], [21.9438797, 43.358960200000006],
     [21.9438615, 43.3590772], [21.943943, 43.359243500000005],
     [21.9440096, 43.3594074], [21.944050700000002, 43.3595373],
     [21.944090300000003, 43.3596871],
     [21.944129200000003, 43.359820500000005],
     [21.9441749, 43.3601474],
     [21.944174500000003, 43.360544000000004],
     [21.9441919, 43.3606757], [21.944245000000002, 43.3607895],
     [21.94432, 43.360863200000004], [21.9444184, 43.360949100000006],
     [21.944475200000003, 43.361004300000005],
     [21.9444982, 43.3610648], [21.944540800000002, 43.3611974],
     [21.9445352, 43.36133], [21.9444936, 43.361541200000005],
     [21.944318000000003, 43.361996100000006],
     [21.9442157, 43.362152800000004], [21.9440458, 43.362279],
     [21.9439731, 43.3623762], [21.9437548, 43.362648300000004],
     [21.943664000000002, 43.3628014],
     [21.9435554, 43.363123200000004],
     [21.943236900000002, 43.3640175],
     [21.9431493, 43.364199400000004], [21.9430064, 43.3644564],
     [21.9429838, 43.364503600000006]]}},
  {"type":"Feature",
   "properties":{},
   "geometry":
   {"type":"LineString",
    "coordinates":
    [[21.9439554, 43.357479600000005], [21.9437913, 43.3574719],
     [21.9430859, 43.357621800000004], [21.942242, 43.3577965],
     [21.941738100000002, 43.357933200000005],
     [21.9412443, 43.3581111], [21.9411744, 43.358127700000004],
     [21.940796000000002, 43.358314400000005],
     [21.94046, 43.358559400000004], [21.9402191, 43.3587849],
     [21.939858400000002, 43.3590382],
     [21.9398152, 43.359060400000004]]}},
  {"type":"Feature",
   "properties":{},
   "geometry":
   {"type":"LineString",
    "coordinates":
    [[21.9398152, 43.359060400000004], [21.939437, 43.359255100000006],
     [21.939012, 43.3594942], [21.9385039, 43.359708600000005],
     [21.9382975, 43.3598276]]}},
  {"type":"Feature",
   "properties":{},
   "geometry":
   {"type":"LineString",
    "coordinates":
    [[21.932587, 43.3605406], [21.9330348, 43.360396300000005],
     [21.9338222, 43.3603113], [21.9342188, 43.3602423],
     [21.934551000000003, 43.3602032], [21.9351303, 43.3601466],
     [21.9356894, 43.360100200000005],
     [21.9361861, 43.360083200000005], [21.936622, 43.3601898],
     [21.936825000000002, 43.3601844],
     [21.937003500000003, 43.3601797],
     [21.9375252, 43.360072100000004],
     [21.938017900000002, 43.3599532], [21.9382975, 43.3598276]]}},
  {"type":"Feature",
   "properties":{},
   "geometry":
   {"type":"LineString",
    "coordinates":
    [[21.9322601, 43.3587135],
     [21.932300400000003, 43.358940000000004],
     [21.932587, 43.3605406]]}},
  {"type":"Feature",
   "properties":{},
   "geometry":
   {"type":"LineString",
    "coordinates":
    [[21.9283584, 43.349581], [21.928550400000002, 43.349724300000005],
     [21.928785400000002, 43.349830100000005],
     [21.9292097, 43.349970600000006],
     [21.929315900000002, 43.3500242],
     [21.929478600000003, 43.3501435], [21.9295738, 43.3502364],
     [21.9296197, 43.3502929], [21.9296608, 43.3503564],
     [21.9297207, 43.350472200000006], [21.9297587, 43.3506129],
     [21.929761300000003, 43.3508024],
     [21.9297875, 43.351095900000004],
     [21.929934900000003, 43.3527721],
     [21.929961600000002, 43.353075600000004],
     [21.929973800000003, 43.353261100000005],
     [21.930009400000003, 43.3533716], [21.9300366, 43.3534561],
     [21.930122200000003, 43.353660500000004],
     [21.9310383, 43.355674900000004], [21.9311985, 43.3560272],
     [21.9316812, 43.356764600000005],
     [21.9317825, 43.356919500000004], [21.9319734, 43.3572416],
     [21.932109800000003, 43.357565400000006],
     [21.9321521, 43.3576988],
     [21.932178200000003, 43.357832200000004],
     [21.932183900000002, 43.358130800000005],
     [21.9322538, 43.358672000000006], [21.9322601, 43.3587135]]}},
  {"type":"Feature",
   "properties":{},
   "geometry":
   {"type":"LineString",
    "coordinates":
    [[21.9196826, 43.343420900000005],
     [21.919983000000002, 43.3436979], [21.9200406, 43.3437542],
     [21.9205352, 43.3442382], [21.9206313, 43.344329],
     [21.9206785, 43.344373600000004], [21.9208615, 43.3445103],
     [21.920999600000002, 43.3446069],
     [21.921985300000003, 43.3452447], [21.9229628, 43.345759],
     [21.923153600000003, 43.3458666], [21.9233282, 43.3459742],
     [21.9235256, 43.3461117], [21.923712300000002, 43.346257],
     [21.924204500000002, 43.346614800000005],
     [21.924557800000002, 43.346871500000006],
     [21.9248689, 43.3470564], [21.9252739, 43.3472358],
     [21.925518500000003, 43.3473969],
     [21.925748900000002, 43.3476161],
     [21.9259449, 43.347812600000005],
     [21.926177300000003, 43.347965800000004],
     [21.927092100000003, 43.3484509],
     [21.9273063, 43.348546600000006], [21.9275646, 43.3486415],
     [21.9277121, 43.3487221], [21.927800700000002, 43.3487863],
     [21.927878500000002, 43.348872],
     [21.927991900000002, 43.349033600000006],
     [21.9281225, 43.3492759],
     [21.928178000000003, 43.349375800000004],
     [21.9282575, 43.3494784], [21.9283584, 43.349581]]}},
  {"type":"Feature",
   "properties":{},
   "geometry":
   {"type":"LineString",
    "coordinates":
    [[21.9185802, 43.3424543], [21.9196826, 43.343420900000005]]}},
  {"type":"Feature",
   "properties":{},
   "geometry":
   {"type":"LineString",
    "coordinates":
    [[21.9185802, 43.3424543], [21.9180679, 43.342021300000006],
     [21.9176012, 43.3416536]]}},
  {"type":"Feature",
   "properties":{},
   "geometry":
   {"type":"LineString",
    "coordinates":
    [[21.9176012, 43.3416536], [21.917404100000002, 43.3415229],
     [21.9172136, 43.3413902], [21.9171675, 43.341345600000004],
     [21.917014, 43.3412293], [21.9166916, 43.3409525],
     [21.9165943, 43.340861700000005],
     [21.916483600000003, 43.3407435], [21.9163585, 43.340608],
     [21.916241600000003, 43.3404162],
     [21.916125400000002, 43.3402229]]}},
  {"type":"Feature",
   "properties":{},
   "geometry":
   {"type":"LineString",
    "coordinates":
    [[21.916125400000002, 43.3402229],
     [21.9160827, 43.340217900000006]]}},
  {"type":"Feature",
   "properties":{},
   "geometry":
   {"type":"LineString",
    "coordinates":
    [[21.914458800000002, 43.339039400000004],
     [21.9150426, 43.3392144], [21.915278800000003, 43.3393196],
     [21.9154796, 43.3394613], [21.9156966, 43.3397093],
     [21.9158826, 43.3399413], [21.9159083, 43.3399717],
     [21.915968000000003, 43.340047500000004],
     [21.915985900000003, 43.340069], [21.915999300000003, 43.3400872],
     [21.9160736, 43.340203200000005],
     [21.9160827, 43.340217900000006]]}},
  {"type":"Feature",
   "properties":{},
   "geometry":
   {"type":"LineString",
    "coordinates":
    [[21.9143988, 43.339025], [21.914427, 43.3390318],
     [21.914458800000002, 43.339039400000004]]}},
  {"type":"Feature",
   "properties":{},
   "geometry":
   {"type":"LineString",
    "coordinates":
    [[21.913542600000003, 43.3387985],
     [21.9137676, 43.338866200000005], [21.9143988, 43.339025]]}},
  {"type":"Feature",
   "properties":{},
   "geometry":
   {"type":"LineString",
    "coordinates":
    [[21.9134655, 43.3387617], [21.913503300000002, 43.3387797],
     [21.913542600000003, 43.3387985]]}},
  {"type":"Feature",
   "properties":{},
   "geometry":
   {"type":"LineString",
    "coordinates":
    [[21.9132594, 43.3386597], [21.9134655, 43.3387617]]}},
  {"type":"Feature",
   "properties":{},
   "geometry":
   {"type":"LineString",
    "coordinates":
    [[21.9132059, 43.3386287], [21.913230300000002, 43.3386428],
     [21.9132594, 43.3386597]]}},
  {"type":"Feature",
   "properties":{},
   "geometry":
   {"type":"LineString",
    "coordinates":
    [[21.9128994, 43.338399], [21.9132059, 43.3386287]]}},
  {"type":"Feature",
   "properties":{},
   "geometry":
   {"type":"LineString",
    "coordinates":
    [[21.9128463, 43.3383601], [21.912875, 43.3383811],
     [21.9128994, 43.338399]]}},
  {"type":"Feature",
   "properties":{},
   "geometry":
   {"type":"LineString",
    "coordinates":
    [[21.9123613, 43.3378754], [21.912384600000003, 43.3379014],
     [21.912594300000002, 43.3381472], [21.9128463, 43.3383601]]}},
  {"type":"Feature",
   "properties":{},
   "geometry":
   {"type":"LineString",
    "coordinates":
    [[21.9123288, 43.337832500000005],
     [21.912343200000002, 43.3378515], [21.9123613, 43.3378754]]}},
  {"type":"Feature",
   "properties":{},
   "geometry":
   {"type":"LineString",
    "coordinates":
    [[21.9121169, 43.3375173], [21.9123288, 43.337832500000005]]}},
  {"type":"Feature",
   "properties":{},
   "geometry":
   {"type":"LineString",
    "coordinates":
    [[21.9120937, 43.3374797], [21.9121069, 43.337501],
     [21.9121169, 43.3375173]]}},
  {"type":"Feature",
   "properties":{},
   "geometry":
   {"type":"LineString",
    "coordinates":
    [[21.910986, 43.335830800000004], [21.9109936, 43.335834000000006],
     [21.910998600000003, 43.335835],
     [21.911002500000002, 43.335835800000005], [21.9110067, 43.335838],
     [21.9110099, 43.3358408], [21.911016, 43.3358465],
     [21.9110231, 43.335853900000004], [21.9114021, 43.3363743],
     [21.9120937, 43.3374797]]}},
  {"type":"Feature",
   "properties":{},
   "geometry":
   {"type":"LineString",
    "coordinates":
    [[21.9109297, 43.3357964], [21.910953900000003, 43.3358112],
     [21.910986, 43.335830800000004]]}},
  {"type":"Feature",
   "properties":{},
   "geometry":
   {"type":"LineString",
    "coordinates":
    [[21.910781200000002, 43.3356538], [21.9107974, 43.33567],
     [21.9108021, 43.3356748], [21.9109051, 43.3357788],
     [21.9109297, 43.3357964]]}},
  {"type":"Feature",
   "properties":{},
   "geometry":
   {"type":"LineString",
    "coordinates":
    [[21.9107515, 43.3356232], [21.910770600000003, 43.3356429],
     [21.910781200000002, 43.3356538]]}},
  {"type":"Feature",
   "properties":{},
   "geometry":
   {"type":"LineString",
    "coordinates":
    [[21.909412800000002, 43.3345417], [21.9095012, 43.3345378],
     [21.9095735, 43.334534000000005],
     [21.9095844, 43.334534500000004], [21.909593, 43.334536500000006],
     [21.9096031, 43.334541400000006],
     [21.909609900000003, 43.3345471], [21.9096526, 43.3345849],
     [21.9097061, 43.3346284], [21.9098215, 43.334747500000006],
     [21.9101946, 43.335110300000004],
     [21.9106832, 43.335560300000004], [21.9107515, 43.3356232]]}},
  {"type":"Feature",
   "properties":{},
   "geometry":
   {"type":"LineString",
    "coordinates":
    [[21.9094096, 43.334527900000005],
     [21.909412800000002, 43.3345417]]}},
  {"type":"Feature",
   "properties":{},
   "geometry":
   {"type":"LineString",
    "coordinates":
    [[21.9093799, 43.334425800000005],
     [21.9093871, 43.334450700000005],
     [21.9094096, 43.334527900000005]]}},
  {"type":"Feature",
   "properties":{},
   "geometry":
   {"type":"LineString",
    "coordinates":
    [[21.9093249, 43.3343591], [21.9093799, 43.334425800000005]]}},
  {"type":"Feature",
   "properties":{},
   "geometry":
   {"type":"LineString",
    "coordinates":
    [[21.9092808, 43.3343422],
     [21.909311600000002, 43.334354000000005],
     [21.9093249, 43.3343591]]}},
  {"type":"Feature",
   "properties":{},
   "geometry":
   {"type":"LineString",
    "coordinates":
    [[21.909265, 43.334235500000005], [21.9092786, 43.334260300000004],
     [21.9092857, 43.3342869], [21.9092856, 43.3343141],
     [21.9092808, 43.3343422]]}},
  {"type":"Feature",
   "properties":{},
   "geometry":
   {"type":"LineString",
    "coordinates":
    [[21.908920400000003, 43.3337415], [21.9089972, 43.3338946],
     [21.909021900000003, 43.3339526],
     [21.909265, 43.334235500000005]]}},
  {"type":"Feature",
   "properties":{},
   "geometry":
   {"type":"LineString",
    "coordinates":
    [[21.9089008, 43.333626200000005],
     [21.908914000000003, 43.3337039],
     [21.908920400000003, 43.3337415]]}},
  {"type":"Feature",
   "properties":{},
   "geometry":
   {"type":"LineString",
    "coordinates":
    [[21.9080361, 43.3317312], [21.9081954, 43.332143900000005],
     [21.9086187, 43.3329949], [21.9086722, 43.3331024],
     [21.9089008, 43.333626200000005]]}},
  {"type":"Feature",
   "properties":{},
   "geometry":
   {"type":"LineString",
    "coordinates":
    [[21.908006500000003, 43.331667100000004], [21.908021, 43.3316986],
     [21.9080361, 43.3317312]]}},
  {"type":"Feature",
   "properties":{},
   "geometry":
   {"type":"LineString",
    "coordinates":
    [[21.9077851, 43.331239700000005],
     [21.907979700000002, 43.3316153],
     [21.908006500000003, 43.331667100000004]]}},
  {"type":"Feature",
   "properties":{},
   "geometry":
   {"type":"LineString",
    "coordinates":
    [[21.9077562, 43.331177100000005],
     [21.907770000000003, 43.331207000000006],
     [21.9077851, 43.331239700000005]]}},
  {"type":"Feature",
   "properties":{},
   "geometry":
   {"type":"LineString",
    "coordinates":
    [[21.907480900000003, 43.330662200000006],
     [21.9077562, 43.331177100000005]]}},
  {"type":"Feature",
   "properties":{},
   "geometry":
   {"type":"LineString",
    "coordinates":
    [[21.907453200000003, 43.3306058],
     [21.907465600000002, 43.330631000000004],
     [21.907480900000003, 43.330662200000006]]}},
  {"type":"Feature",
   "properties":{},
   "geometry":
   {"type":"LineString",
    "coordinates":
    [[21.907226400000003, 43.330088100000005],
     [21.9072761, 43.3302015], [21.907453200000003, 43.3306058]]}},
  {"type":"Feature",
   "properties":{},
   "geometry":
   {"type":"LineString",
    "coordinates":
    [[21.9072026, 43.3300416], [21.907214800000002, 43.3300654],
     [21.907226400000003, 43.330088100000005]]}},
  {"type":"Feature",
   "properties":{},
   "geometry":
   {"type":"LineString",
    "coordinates":
    [[21.906912300000002, 43.3294184], [21.9072026, 43.3300416]]}},
  {"type":"Feature",
   "properties":{},
   "geometry":
   {"type":"LineString",
    "coordinates":
    [[21.9068833, 43.3293422], [21.9068967, 43.3293775],
     [21.906912300000002, 43.3294184]]}},
  {"type":"Feature",
   "properties":{},
   "geometry":
   {"type":"LineString",
    "coordinates":
    [[21.906670700000003, 43.3288868], [21.9068833, 43.3293422]]}},
  {"type":"Feature",
   "properties":{},
   "geometry":
   {"type":"LineString",
    "coordinates":
    [[21.906524700000002, 43.3285805],
     [21.906670700000003, 43.3288868]]}},
  {"type":"Feature",
   "properties":{},
   "geometry":
   {"type":"LineString",
    "coordinates":
    [[21.906471500000002, 43.3284816],
     [21.906524700000002, 43.3285805]]}},
  {"type":"Feature",
   "properties":{},
   "geometry":
   {"type":"LineString",
    "coordinates":
    [[21.905381600000002, 43.3279732],
     [21.9061974, 43.328159400000004],
     [21.9062765, 43.328179600000006],
     [21.906283600000002, 43.3281836], [21.906288, 43.3281876],
     [21.906299500000003, 43.3282041],
     [21.9063056, 43.328212400000005], [21.90631, 43.3282168],
     [21.9063132, 43.328219100000005],
     [21.9063154, 43.328221400000004],
     [21.906471500000002, 43.3284816]]}},
  {"type":"Feature",
   "properties":{},
   "geometry":
   {"type":"LineString",
    "coordinates":
    [[21.9052565, 43.327946100000005],
     [21.905335400000002, 43.3279632],
     [21.905381600000002, 43.3279732]]}},
  {"type":"Feature",
   "properties":{},
   "geometry":
   {"type":"LineString",
    "coordinates":
    [[21.903021300000002, 43.327479800000006],
     [21.9031063, 43.3274885], [21.9031901, 43.3274989],
     [21.903272100000002, 43.3275124], [21.903348, 43.3275268],
     [21.903683, 43.327609], [21.903919700000003, 43.327658],
     [21.90407, 43.327693800000006], [21.9052404, 43.3279275],
     [21.9052505, 43.327930300000006],
     [21.905255500000003, 43.327935200000006],
     [21.9052575, 43.327940500000004],
     [21.9052565, 43.327946100000005]]}},
  {"type":"Feature",
   "properties":{},
   "geometry":
   {"type":"LineString",
    "coordinates":
    [[21.903021300000002, 43.327479800000006],
     [21.9029725, 43.327475500000006],
     [21.902923700000002, 43.327472900000004],
     [21.902883600000003, 43.327472900000004],
     [21.9028423, 43.3274756], [21.9027822, 43.3274829],
     [21.902725200000003, 43.327493700000005],
     [21.9026843, 43.3275056], [21.9026506, 43.327522],
     [21.902593600000003, 43.327562500000006]]}},
  {"type":"Feature",
   "properties":{},
   "geometry":
   {"type":"LineString",
    "coordinates":
    [[21.902593600000003, 43.327562500000006],
     [21.902543400000003, 43.327524700000005],
     [21.902463100000002, 43.3274642],
     [21.902423300000002, 43.327434200000006]]}},
  {"type":"Feature",
   "properties":{},
   "geometry":
   {"type":"LineString",
    "coordinates":
    [[21.902423300000002, 43.327434200000006],
     [21.9024398, 43.327409200000005], [21.902455, 43.327381300000006],
     [21.902464700000003, 43.327351400000005],
     [21.9024658, 43.327316100000004], [21.90246, 43.327287600000005],
     [21.9024542, 43.327259500000004],
     [21.902442200000003, 43.327222400000004]]}},
  {"type":"Feature",
   "properties":{},
   "geometry":
   {"type":"LineString",
    "coordinates":
    [[21.902442200000003, 43.327222400000004],
     [21.9024763, 43.3271874]]}},
  {"type":"Feature",
   "properties":{},
   "geometry":
   {"type":"LineString",
    "coordinates":
    [[21.9024763, 43.3271874], [21.902102600000003, 43.3269371],
     [21.9018516, 43.326796800000004],
     [21.901812300000003, 43.3267693], [21.901692, 43.3266914]]}},
  {"type":"Feature",
   "properties":{},
   "geometry":
   {"type":"LineString",
    "coordinates":
    [[21.901692, 43.3266914], [21.9011096, 43.326477700000005]]}},
  {"type":"Feature",
   "properties":{},
   "geometry":
   {"type":"LineString",
    "coordinates":
    [[21.9011096, 43.326477700000005], [21.9005139, 43.3262495],
     [21.900184000000003, 43.326116000000006],
     [21.899935600000003, 43.3260006], [21.8998321, 43.3259525],
     [21.8996751, 43.3258736], [21.8995065, 43.325788800000005],
     [21.8990906, 43.3255494], [21.8987392, 43.325323700000006],
     [21.898577200000002, 43.3252189], [21.8981873, 43.3249592],
     [21.898115, 43.3249045], [21.8980734, 43.3248672],
     [21.8980402, 43.3248331], [21.8980104, 43.3247987],
     [21.8979329, 43.3247111], [21.897856100000002, 43.3246216],
     [21.8977864, 43.324538600000004], [21.8976992, 43.324444],
     [21.897614700000002, 43.3243523], [21.8972102, 43.3239771],
     [21.897174900000003, 43.323942100000004],
     [21.897100400000003, 43.3238927], [21.8969509, 43.3238196],
     [21.8967423, 43.3237492], [21.8958786, 43.323409700000006],
     [21.895642000000002, 43.323306900000006],
     [21.8955407, 43.3232693], [21.8954603, 43.3232408],
     [21.895370500000002, 43.3232171]]}}]}
