{"type":"FeatureCollection",
 "properties":{},
 "features":
 [{"type":"Feature",
   "properties":{},
   "geometry":
   {"type":"LineString",
    "coordinates":
    [[21.635608400000002, 44.0903932], [21.6353583, 44.0902529],
     [21.6350982, 44.090131500000005],
     [21.634773600000003, 44.0899948]]}},
  {"type":"Feature",
   "properties":{},
   "geometry":
   {"type":"LineString",
    "coordinates":
    [[21.634773600000003, 44.0899948], [21.6347226, 44.0901547],
     [21.6349185, 44.090383900000006],
     [21.635028400000003, 44.090563100000004],
     [21.6349158, 44.090817400000006]]}},
  {"type":"Feature",
   "properties":{},
   "geometry":
   {"type":"LineString",
    "coordinates":
    [[21.6349158, 44.090817400000006], [21.6344196, 44.0908251],
     [21.6338885, 44.090817400000006], [21.6334996, 44.0908559],
     [21.6332287, 44.0907095], [21.6332233, 44.0904321],
     [21.6328612, 44.0904224], [21.6326627, 44.090094900000004],
     [21.632550100000003, 44.0897578],
     [21.632210800000003, 44.0891144],
     [21.631652900000002, 44.088505600000005],
     [21.631320300000002, 44.0880432],
     [21.631105700000003, 44.0875038], [21.631052, 44.0868795],
     [21.630955500000002, 44.086317],
     [21.6307677, 44.085785300000005]]}},
  {"type":"Feature",
   "properties":{},
   "geometry":
   {"type":"LineString",
    "coordinates":
    [[21.6307677, 44.085785300000005],
     [21.6307557, 44.085582900000006],
     [21.630828100000002, 44.0853691], [21.6310292, 44.0852323],
     [21.631219700000003, 44.0850512],
     [21.631284100000002, 44.084814200000004], [21.6314691, 44.084558],
     [21.631571100000002, 44.0843769], [21.6315737, 44.0841514],
     [21.6314825, 44.083902900000005],
     [21.6312438, 44.084074400000006],
     [21.631080200000003, 44.0842266], [21.6307878, 44.0843653],
     [21.630860300000002, 44.0841707],
     [21.6309085, 44.083949100000005],
     [21.630868300000003, 44.0837141],
     [21.6307288, 44.083511800000004], [21.6305337, 44.0833851]]}},
  {"type":"Feature",
   "properties":{},
   "geometry":
   {"type":"LineString",
    "coordinates":
    [[21.6305337, 44.0833851], [21.6303372, 44.0832709],
     [21.630023400000002, 44.0833692],
     [21.629788700000002, 44.083455900000004],
     [21.6299014, 44.0832941], [21.6300677, 44.0829973],
     [21.629955000000002, 44.0828355],
     [21.629579500000002, 44.083116800000006], [21.62885, 44.0832825],
     [21.6290002, 44.0828702], [21.6291504, 44.0826158],
     [21.629198600000002, 44.0823076],
     [21.629064500000002, 44.0820841],
     [21.6286193, 44.081983900000004], [21.6283189, 44.0817951],
     [21.6279071, 44.081363800000005]]}},
  {"type":"Feature",
   "properties":{},
   "geometry":
   {"type":"LineString",
    "coordinates":
    [[21.625823800000003, 44.0769077],
     [21.6259471, 44.077111900000006], [21.6259954, 44.0772314],
     [21.6260222, 44.077439500000004],
     [21.6258184, 44.078468400000006], [21.625813, 44.0787883],
     [21.6258881, 44.0790542], [21.6260008, 44.0793162],
     [21.6260705, 44.079493500000005], [21.6260544, 44.0797478],
     [21.626124100000002, 44.0800793], [21.6262046, 44.080218],
     [21.6263387, 44.080345200000004],
     [21.6264246, 44.080441500000006], [21.6265372, 44.0806188],
     [21.6266499, 44.080711300000004], [21.6270093, 44.0809386],
     [21.627712000000002, 44.0813008],
     [21.6279071, 44.081363800000005]]}},
  {"type":"Feature",
   "properties":{},
   "geometry":
   {"type":"LineString",
    "coordinates":
    [[21.625823800000003, 44.0769077], [21.6259263, 44.0766253],
     [21.626146300000002, 44.076297800000006],
     [21.6264252, 44.075977900000005],
     [21.6267149, 44.075704300000005],
     [21.627219200000003, 44.0754229],
     [21.6276054, 44.075033700000006], [21.6278414, 44.074683],
     [21.628115, 44.074336100000004], [21.6282384, 44.0740393],
     [21.6283779, 44.073815800000006], [21.628233, 44.073600000000006],
     [21.6280775, 44.0733186], [21.6285656, 44.0730566],
     [21.6288607, 44.0728523], [21.629087300000002, 44.0727848],
     [21.629318, 44.0726731]]}},
  {"type":"Feature",
   "properties":{},
   "geometry":
   {"type":"LineString",
    "coordinates":
    [[21.629318, 44.0726731], [21.6294521, 44.0726056],
     [21.629645200000002, 44.072538200000004],
     [21.6296855, 44.072449500000005],
     [21.629768600000002, 44.0723782], [21.629864, 44.0722728]]}},
  {"type":"Feature",
   "properties":{},
   "geometry":
   {"type":"LineString",
    "coordinates":
    [[21.629864, 44.0722728], [21.630903200000002, 44.071853100000006],
     [21.632081900000003, 44.0714874], [21.6323392, 44.0713966],
     [21.6331308, 44.0710878], [21.6337668, 44.070933100000005],
     [21.6349175, 44.070675], [21.635947400000003, 44.0705169],
     [21.636491900000003, 44.0705593],
     [21.637036400000003, 44.070520800000004],
     [21.638238100000002, 44.070382], [21.6386243, 44.070351200000005],
     [21.6391661, 44.0703011], [21.6396355, 44.0702201],
     [21.6399493, 44.0701218], [21.640204100000002, 44.0700525],
     [21.6403512, 44.0699836]]}},
  {"type":"Feature",
   "properties":{},
   "geometry":
   {"type":"LineString",
    "coordinates":
    [[21.6403512, 44.0699836], [21.640768, 44.069932],
     [21.640864500000003, 44.0699782]]}},
  {"type":"Feature",
   "properties":{},
   "geometry":
   {"type":"LineString",
    "coordinates":
    [[21.640864500000003, 44.0699782], [21.6410325, 44.0700426],
     [21.641453700000003, 44.070017500000006],
     [21.6418292, 44.069834500000006], [21.6421135, 44.0696803],
     [21.642255600000002, 44.069809400000004],
     [21.642376300000002, 44.0700407], [21.6425319, 44.0702584],
     [21.642601600000003, 44.0704781],
     [21.642706200000003, 44.070638100000004],
     [21.642985200000002, 44.0705456], [21.643288300000002, 44.070428],
     [21.643679900000002, 44.0702237], [21.6441412, 44.0700464],
     [21.6445301, 44.069846000000005], [21.6449888, 44.06974],
     [21.6455333, 44.0695512], [21.645796100000002, 44.0694664],
     [21.6458927, 44.0693411], [21.646346, 44.0691098],
     [21.6466196, 44.0689518], [21.6470273, 44.0689749],
     [21.647531500000003, 44.0690809], [21.6479205, 44.0690809],
     [21.6482557, 44.0690193], [21.6484998, 44.0690809],
     [21.648872, 44.069084700000005]]}},
  {"type":"Feature",
   "properties":{},
   "geometry":
   {"type":"LineString",
    "coordinates":
    [[21.648872, 44.069084700000005], [21.648239, 44.0692292],
     [21.6477428, 44.0693506],
     [21.647174200000002, 44.069618500000004],
     [21.6469221, 44.0698054], [21.6465384, 44.0701368],
     [21.6460933, 44.0703546], [21.645202700000002, 44.0709463],
     [21.6449667, 44.0711505], [21.6445805, 44.071472400000005],
     [21.6444544, 44.0715475], [21.6443739, 44.071571600000006],
     [21.6442774, 44.0715918],
     [21.644052000000002, 44.071620700000004],
     [21.6431079, 44.0718405], [21.642539300000003, 44.071958],
     [21.6422093, 44.0720255], [21.6418392, 44.0720813],
     [21.641469100000002, 44.072189200000004],
     [21.6410695, 44.0723627], [21.6409117, 44.0724467],
     [21.6406709, 44.0726212],
     [21.640275000000003, 44.072827800000006],
     [21.640055800000003, 44.0729022], [21.6398608, 44.0729246],
     [21.639637200000003, 44.072954100000004],
     [21.6394473, 44.073051500000005],
     [21.6391557, 44.073290400000005], [21.6388766, 44.073447],
     [21.638633300000002, 44.0736374], [21.638368, 44.0739548],
     [21.637787900000003, 44.0744169],
     [21.637534600000002, 44.074629900000005],
     [21.637338200000002, 44.0747439],
     [21.636696500000003, 44.0750533],
     [21.6361619, 44.075324300000005],
     [21.6357512, 44.075610700000006],
     [21.6355276, 44.075829000000006],
     [21.635297400000002, 44.076145000000004], [21.6350094, 44.076647],
     [21.6349224, 44.076932], [21.634861400000002, 44.0772606],
     [21.635051800000003, 44.0775986], [21.6353666, 44.0781026],
     [21.6353842, 44.078461100000006],
     [21.6352431, 44.078673300000005], [21.635202, 44.0788054],
     [21.635224100000002, 44.0789174], [21.635511, 44.0792775],
     [21.6358283, 44.079396900000006], [21.6360564, 44.0794827],
     [21.636217300000002, 44.079798700000005],
     [21.636351400000002, 44.080026100000005],
     [21.636501600000003, 44.080134], [21.6366197, 44.0803267],
     [21.6367055, 44.0808739], [21.636608900000002, 44.0812669],
     [21.6368128, 44.0820762], [21.6367699, 44.082376800000006],
     [21.6364802, 44.0826696], [21.6364801, 44.0829779],
     [21.6362978, 44.083263], [21.635804200000003, 44.083779400000005],
     [21.635239000000002, 44.0843982],
     [21.634936200000002, 44.084813600000004],
     [21.6347014, 44.085007700000006],
     [21.634498800000003, 44.085151700000004],
     [21.634222700000002, 44.085303700000004],
     [21.6339948, 44.0854018], [21.6338912, 44.085456],
     [21.633795000000003, 44.085536700000006],
     [21.633731, 44.085607700000004], [21.633680400000003, 44.0857279],
     [21.6336459, 44.085852], [21.6336029, 44.0861527],
     [21.6335139, 44.086508300000006],
     [21.6335005, 44.086831000000004], [21.6337443, 44.0871318],
     [21.633873100000002, 44.087332100000005],
     [21.6340769, 44.087825300000006], [21.6342164, 44.0881528],
     [21.6343371, 44.0885613], [21.6345195, 44.0889235],
     [21.6348226, 44.089303], [21.6350345, 44.0896093],
     [21.6350841, 44.0896758], [21.635141800000003, 44.0897422],
     [21.6352048, 44.0897981], [21.6352732, 44.0898443],
     [21.6356481, 44.0900046], [21.635702000000002, 44.0900326],
     [21.6357567, 44.090076200000006], [21.635797, 44.0901531],
     [21.6358041, 44.0902163]]}},
  {"type":"Feature",
   "properties":{},
   "geometry":
   {"type":"LineString",
    "coordinates":
    [[21.6358041, 44.0902163],
     [21.635743400000003, 44.090268900000005]]}},
  {"type":"Feature",
   "properties":{},
   "geometry":
   {"type":"LineString",
    "coordinates":
    [[21.635743400000003, 44.090268900000005],
     [21.635608400000002, 44.0903932]]}}]}
