{"type":"FeatureCollection",
 "properties":{},
 "features":
 [{"type":"Feature",
   "properties":{},
   "geometry":
   {"type":"LineString",
    "coordinates":
    [[21.635930400000003, 44.091124400000005],
     [21.635682900000003, 44.0911795],
     [21.635460300000002, 44.0911988], [21.6352671, 44.0910601],
     [21.6349158, 44.090817400000006]]}},
  {"type":"Feature",
   "properties":{},
   "geometry":
   {"type":"LineString",
    "coordinates":
    [[21.6349158, 44.090817400000006], [21.6344196, 44.0908251],
     [21.6338885, 44.090817400000006], [21.6334996, 44.0908559],
     [21.6332287, 44.0907095], [21.6332233, 44.0904321],
     [21.6328612, 44.0904224], [21.6326627, 44.090094900000004],
     [21.632550100000003, 44.0897578],
     [21.632210800000003, 44.0891144],
     [21.631652900000002, 44.088505600000005],
     [21.631320300000002, 44.0880432],
     [21.631105700000003, 44.0875038], [21.631052, 44.0868795],
     [21.630955500000002, 44.086317],
     [21.6307677, 44.085785300000005]]}},
  {"type":"Feature",
   "properties":{},
   "geometry":
   {"type":"LineString",
    "coordinates":
    [[21.6307677, 44.085785300000005],
     [21.6305371, 44.085615700000005], [21.6302045, 44.0852766],
     [21.629772600000003, 44.084941400000005],
     [21.629472200000002, 44.0847063],
     [21.6295098, 44.084471300000004],
     [21.629853100000002, 44.0842401],
     [21.630019400000002, 44.0838855],
     [21.630164200000003, 44.0837121],
     [21.6304164, 44.083469400000006], [21.6305337, 44.0833851],
     [21.630668500000002, 44.0832883],
     [21.6307811, 44.082968400000006], [21.6307811, 44.0827295],
     [21.630603400000002, 44.0825186]]}},
  {"type":"Feature",
   "properties":{},
   "geometry":
   {"type":"LineString",
    "coordinates":
    [[21.6279071, 44.081363800000005], [21.6290853, 44.081744],
     [21.629847100000003, 44.0820754], [21.6302923, 44.0823182],
     [21.630603400000002, 44.0825186]]}},
  {"type":"Feature",
   "properties":{},
   "geometry":
   {"type":"LineString",
    "coordinates":
    [[21.625823800000003, 44.0769077],
     [21.6259471, 44.077111900000006], [21.6259954, 44.0772314],
     [21.6260222, 44.077439500000004],
     [21.6258184, 44.078468400000006], [21.625813, 44.0787883],
     [21.6258881, 44.0790542], [21.6260008, 44.0793162],
     [21.6260705, 44.079493500000005], [21.6260544, 44.0797478],
     [21.626124100000002, 44.0800793], [21.6262046, 44.080218],
     [21.6263387, 44.080345200000004],
     [21.6264246, 44.080441500000006], [21.6265372, 44.0806188],
     [21.6266499, 44.080711300000004], [21.6270093, 44.0809386],
     [21.627712000000002, 44.0813008],
     [21.6279071, 44.081363800000005]]}},
  {"type":"Feature",
   "properties":{},
   "geometry":
   {"type":"LineString",
    "coordinates":
    [[21.625823800000003, 44.0769077], [21.6259263, 44.0766253],
     [21.626146300000002, 44.076297800000006],
     [21.6264252, 44.075977900000005],
     [21.6267149, 44.075704300000005],
     [21.627219200000003, 44.0754229],
     [21.6276054, 44.075033700000006], [21.6278414, 44.074683],
     [21.628115, 44.074336100000004], [21.6282384, 44.0740393],
     [21.6283779, 44.073815800000006], [21.628233, 44.073600000000006],
     [21.6280775, 44.0733186], [21.6285656, 44.0730566],
     [21.6288607, 44.0728523], [21.629087300000002, 44.0727848],
     [21.629318, 44.0726731]]}},
  {"type":"Feature",
   "properties":{},
   "geometry":
   {"type":"LineString",
    "coordinates":
    [[21.625823800000003, 44.0769077], [21.6259263, 44.0766253],
     [21.626146300000002, 44.076297800000006],
     [21.6264252, 44.075977900000005],
     [21.6267149, 44.075704300000005],
     [21.627219200000003, 44.0754229],
     [21.6276054, 44.075033700000006], [21.6278414, 44.074683],
     [21.628115, 44.074336100000004], [21.6282384, 44.0740393],
     [21.6283779, 44.073815800000006], [21.628233, 44.073600000000006],
     [21.6280775, 44.0733186], [21.6285656, 44.0730566],
     [21.6288607, 44.0728523], [21.629087300000002, 44.0727848],
     [21.629318, 44.0726731]]}},
  {"type":"Feature",
   "properties":{},
   "geometry":
   {"type":"LineString",
    "coordinates":
    [[21.625823800000003, 44.0769077],
     [21.6259471, 44.077111900000006], [21.6259954, 44.0772314],
     [21.6260222, 44.077439500000004],
     [21.6258184, 44.078468400000006], [21.625813, 44.0787883],
     [21.6258881, 44.0790542], [21.6260008, 44.0793162],
     [21.6260705, 44.079493500000005], [21.6260544, 44.0797478],
     [21.626124100000002, 44.0800793], [21.6262046, 44.080218],
     [21.6263387, 44.080345200000004],
     [21.6264246, 44.080441500000006], [21.6265372, 44.0806188],
     [21.6266499, 44.080711300000004], [21.6270093, 44.0809386],
     [21.627712000000002, 44.0813008],
     [21.6279071, 44.081363800000005]]}},
  {"type":"Feature",
   "properties":{},
   "geometry":
   {"type":"LineString",
    "coordinates":
    [[21.6279071, 44.081363800000005], [21.6290853, 44.081744],
     [21.629847100000003, 44.0820754], [21.6302923, 44.0823182],
     [21.630603400000002, 44.0825186]]}},
  {"type":"Feature",
   "properties":{},
   "geometry":
   {"type":"LineString",
    "coordinates":
    [[21.6307677, 44.085785300000005],
     [21.6305371, 44.085615700000005], [21.6302045, 44.0852766],
     [21.629772600000003, 44.084941400000005],
     [21.629472200000002, 44.0847063],
     [21.6295098, 44.084471300000004],
     [21.629853100000002, 44.0842401],
     [21.630019400000002, 44.0838855],
     [21.630164200000003, 44.0837121],
     [21.6304164, 44.083469400000006], [21.6305337, 44.0833851],
     [21.630668500000002, 44.0832883],
     [21.6307811, 44.082968400000006], [21.6307811, 44.0827295],
     [21.630603400000002, 44.0825186]]}},
  {"type":"Feature",
   "properties":{},
   "geometry":
   {"type":"LineString",
    "coordinates":
    [[21.6349158, 44.090817400000006], [21.6344196, 44.0908251],
     [21.6338885, 44.090817400000006], [21.6334996, 44.0908559],
     [21.6332287, 44.0907095], [21.6332233, 44.0904321],
     [21.6328612, 44.0904224], [21.6326627, 44.090094900000004],
     [21.632550100000003, 44.0897578],
     [21.632210800000003, 44.0891144],
     [21.631652900000002, 44.088505600000005],
     [21.631320300000002, 44.0880432],
     [21.631105700000003, 44.0875038], [21.631052, 44.0868795],
     [21.630955500000002, 44.086317],
     [21.6307677, 44.085785300000005]]}},
  {"type":"Feature",
   "properties":{},
   "geometry":
   {"type":"LineString",
    "coordinates":
    [[21.635930400000003, 44.091124400000005],
     [21.635682900000003, 44.0911795],
     [21.635460300000002, 44.0911988], [21.6352671, 44.0910601],
     [21.6349158, 44.090817400000006]]}}]}
