{"type":"FeatureCollection",
 "properties":{},
 "features":
 [{"type":"Feature",
   "properties":{},
   "geometry":
   {"type":"LineString",
    "coordinates":
    [[21.6362121, 44.091041700000005], [21.6363382, 44.091143],
     [21.6364884, 44.091193100000005], [21.6365903, 44.091301],
     [21.6366547, 44.0914735], [21.636965800000002, 44.0915351],
     [21.637158900000003, 44.091515900000005],
     [21.637279600000003, 44.091540900000005],
     [21.637555900000002, 44.09167],
     [21.637657800000003, 44.0917316]]}},
  {"type":"Feature",
   "properties":{},
   "geometry":
   {"type":"LineString",
    "coordinates":
    [[21.637657800000003, 44.0917316],
     [21.637800000000002, 44.091793300000006],
     [21.6382023, 44.092020600000005]]}},
  {"type":"Feature",
   "properties":{},
   "geometry":
   {"type":"LineString",
    "coordinates":
    [[21.6382023, 44.092020600000005],
     [21.6385326, 44.092087400000004], [21.6392701, 44.0919437],
     [21.640133300000002, 44.0919806],
     [21.6404877, 44.091935500000005], [21.6410334, 44.0917498]]}},
  {"type":"Feature",
   "properties":{},
   "geometry":
   {"type":"LineString",
    "coordinates":
    [[21.6410334, 44.0917498], [21.6409851, 44.0918172],
     [21.640982400000002, 44.091892400000006],
     [21.641009200000003, 44.091946300000004],
     [21.6410924, 44.091971400000006], [21.6416825, 44.0920677],
     [21.6421706, 44.092210200000004]]}},
  {"type":"Feature",
   "properties":{},
   "geometry":
   {"type":"LineString",
    "coordinates":
    [[21.6421706, 44.092210200000004], [21.6424217, 44.092315],
     [21.6426845, 44.0924537], [21.6429313, 44.092600100000006],
     [21.6432156, 44.092750300000006],
     [21.643302700000003, 44.0927579],
     [21.6435999, 44.092606700000005], [21.6437348, 44.0925935],
     [21.644061800000003, 44.092673700000006]]}},
  {"type":"Feature",
   "properties":{},
   "geometry":
   {"type":"LineString",
    "coordinates":
    [[21.644061800000003, 44.092673700000006],
     [21.6441722, 44.092678500000005], [21.6443854, 44.0926587],
     [21.644453900000002, 44.0926509], [21.6445092, 44.0926685],
     [21.6445258, 44.0927013], [21.644497100000002, 44.0928151],
     [21.644241, 44.093246400000005], [21.6439659, 44.093562600000006],
     [21.6438215, 44.0937898], [21.643814600000002, 44.0939083],
     [21.6438658, 44.093955400000006], [21.6439489, 44.0939605],
     [21.6441722, 44.0939083], [21.644468, 44.0938589],
     [21.644541, 44.0938619], [21.6445849, 44.0938935],
     [21.6446124, 44.0940219], [21.644740600000002, 44.0942026],
     [21.6448737, 44.094343], [21.6449266, 44.0943668],
     [21.6450113, 44.0943677], [21.6452533, 44.0942822],
     [21.645633, 44.094106800000006], [21.6458578, 44.0940048],
     [21.6459282, 44.093999600000004], [21.645984000000002, 44.094025],
     [21.6460763, 44.0941653],
     [21.646155500000003, 44.094422200000004],
     [21.6461766, 44.0944778], [21.6462389, 44.0944981],
     [21.646400500000002, 44.0944566],
     [21.646620600000002, 44.0943331],
     [21.646689900000002, 44.0943217],
     [21.646751300000002, 44.0943331],
     [21.6468957, 44.094402300000006],
     [21.6469232, 44.094520800000005],
     [21.6469507, 44.094673900000004],
     [21.6470814, 44.094836900000004],
     [21.647294600000002, 44.0949406], [21.6475666, 44.0949572],
     [21.6476268, 44.094935500000005],
     [21.6476578, 44.094892800000004],
     [21.6477724, 44.094716000000005],
     [21.6478591, 44.094673300000004],
     [21.647968300000002, 44.0946486], [21.648197, 44.0947004],
     [21.648318, 44.0946762], [21.6483783, 44.094586400000004],
     [21.6485738, 44.094506], [21.648697600000002, 44.094357800000004],
     [21.6489452, 44.0943282], [21.6493511, 44.0941374],
     [21.6494658, 44.0941199], [21.6495779, 44.0941405],
     [21.649830100000003, 44.094302600000006],
     [21.649999100000002, 44.094334100000005], [21.650265, 44.0943502],
     [21.6507058, 44.0944615], [21.6510496, 44.0947381],
     [21.6512353, 44.0947826], [21.6515036, 44.094757900000005],
     [21.6517236, 44.0946146], [21.6519139, 44.094498800000004],
     [21.6520793, 44.094456900000004], [21.652258, 44.094476900000004],
     [21.6523979, 44.0944547], [21.652542, 44.0943825],
     [21.652734600000002, 44.094343],
     [21.653298600000003, 44.094392400000004],
     [21.654, 44.094441800000006], [21.6542889, 44.0944912],
     [21.6548391, 44.094481300000005], [21.6552517, 44.0944171],
     [21.6556988, 44.094323200000005], [21.6561252, 44.0943133],
     [21.6565172, 44.094234300000004], [21.6569848, 44.0940565],
     [21.6574525, 44.093923100000005], [21.6580508, 44.0938145],
     [21.658628500000003, 44.093755200000004],
     [21.659213100000002, 44.093715700000004],
     [21.659887100000002, 44.093641600000005],
     [21.660544700000003, 44.093540700000005],
     [21.6610446, 44.093456100000004],
     [21.661269700000002, 44.093468400000006],
     [21.661571300000002, 44.0935275],
     [21.661663400000002, 44.0935683],
     [21.6617068, 44.093630000000005],
     [21.661734000000003, 44.093725600000006],
     [21.661945300000003, 44.0937312],
     [21.6620217, 44.093751000000005],
     [21.662067200000003, 44.093794700000004], [21.6620712, 44.093912],
     [21.662046500000002, 44.094060600000006]]}},
  {"type":"Feature",
   "properties":{},
   "geometry":
   {"type":"LineString",
    "coordinates":
    [[21.662046500000002, 44.094060600000006], [21.6623842, 44.094051],
     [21.662639000000002, 44.094005900000006],
     [21.663649300000003, 44.0937767], [21.6639954, 44.0937689],
     [21.6649886, 44.0938579], [21.6657082, 44.094007700000006]]}},
  {"type":"Feature",
   "properties":{},
   "geometry":
   {"type":"LineString",
    "coordinates":
    [[21.6657082, 44.094007700000006], [21.6658289, 44.0936736],
     [21.6659349, 44.093218400000005], [21.6660384, 44.093091],
     [21.665988900000002, 44.0930647],
     [21.6659855, 44.093013000000006], [21.666066, 44.0929122],
     [21.6662108, 44.092791600000005], [21.6662721, 44.0924953],
     [21.666369000000003, 44.0923267],
     [21.666369600000003, 44.0921577],
     [21.6664067, 44.091959100000004],
     [21.6666688, 44.091694600000004]]}},
  {"type":"Feature",
   "properties":{},
   "geometry":
   {"type":"LineString",
    "coordinates":
    [[21.6657082, 44.094007700000006], [21.6658289, 44.0936736],
     [21.6659349, 44.093218400000005], [21.6660384, 44.093091],
     [21.665988900000002, 44.0930647],
     [21.6659855, 44.093013000000006], [21.666066, 44.0929122],
     [21.6662108, 44.092791600000005], [21.6662721, 44.0924953],
     [21.666369000000003, 44.0923267],
     [21.666369600000003, 44.0921577],
     [21.6664067, 44.091959100000004],
     [21.6666688, 44.091694600000004]]}},
  {"type":"Feature",
   "properties":{},
   "geometry":
   {"type":"LineString",
    "coordinates":
    [[21.6657082, 44.094007700000006],
     [21.6660441, 44.094119400000004],
     [21.6661754, 44.094147500000005],
     [21.6663362, 44.094149300000005],
     [21.6664996, 44.094122500000005], [21.666651, 44.0940579],
     [21.6667361, 44.0940371], [21.6668494, 44.0940396],
     [21.6671379, 44.0941459], [21.6672985, 44.0942379],
     [21.667394100000003, 44.0943327]]}},
  {"type":"Feature",
   "properties":{},
   "geometry":
   {"type":"LineString",
    "coordinates":
    [[21.667394100000003, 44.0943327], [21.667284300000002, 44.094562],
     [21.667016, 44.0949897], [21.666930200000003, 44.095378800000006],
     [21.666801500000002, 44.0956677],
     [21.666951700000002, 44.0958411],
     [21.6671555, 44.096257200000004],
     [21.6671716, 44.096422800000006],
     [21.666967800000002, 44.0967233], [21.6671662, 44.0970893],
     [21.667402300000003, 44.0977134],
     [21.6675042, 44.098083300000006],
     [21.6672574, 44.098195000000004], [21.6671716, 44.0983838],
     [21.667375500000002, 44.098584100000004],
     [21.667692000000002, 44.0986958],
     [21.6677992, 44.098930800000005],
     [21.667643700000003, 44.0991273],
     [21.6678904, 44.099458600000006], [21.6680996, 44.0997282],
     [21.6680782, 44.0999324], [21.6682713, 44.1002367],
     [21.6684644, 44.1005411], [21.6686254, 44.1008993],
     [21.6687273, 44.101038]]}},
  {"type":"Feature",
   "properties":{},
   "geometry":
   {"type":"LineString",
    "coordinates":
    [[21.667394100000003, 44.0943327], [21.667284300000002, 44.094562],
     [21.667016, 44.0949897], [21.666930200000003, 44.095378800000006],
     [21.666801500000002, 44.0956677],
     [21.666951700000002, 44.0958411],
     [21.6671555, 44.096257200000004],
     [21.6671716, 44.096422800000006],
     [21.666967800000002, 44.0967233], [21.6671662, 44.0970893],
     [21.667402300000003, 44.0977134],
     [21.6675042, 44.098083300000006],
     [21.6672574, 44.098195000000004], [21.6671716, 44.0983838],
     [21.667375500000002, 44.098584100000004],
     [21.667692000000002, 44.0986958],
     [21.6677992, 44.098930800000005],
     [21.667643700000003, 44.0991273],
     [21.6678904, 44.099458600000006], [21.6680996, 44.0997282],
     [21.6680782, 44.0999324], [21.6682713, 44.1002367],
     [21.6684644, 44.1005411], [21.6686254, 44.1008993],
     [21.6687273, 44.101038]]}},
  {"type":"Feature",
   "properties":{},
   "geometry":
   {"type":"LineString",
    "coordinates":
    [[21.6657082, 44.094007700000006],
     [21.6660441, 44.094119400000004],
     [21.6661754, 44.094147500000005],
     [21.6663362, 44.094149300000005],
     [21.6664996, 44.094122500000005], [21.666651, 44.0940579],
     [21.6667361, 44.0940371], [21.6668494, 44.0940396],
     [21.6671379, 44.0941459], [21.6672985, 44.0942379],
     [21.667394100000003, 44.0943327]]}},
  {"type":"Feature",
   "properties":{},
   "geometry":
   {"type":"LineString",
    "coordinates":
    [[21.662046500000002, 44.094060600000006], [21.6623842, 44.094051],
     [21.662639000000002, 44.094005900000006],
     [21.663649300000003, 44.0937767], [21.6639954, 44.0937689],
     [21.6649886, 44.0938579], [21.6657082, 44.094007700000006]]}},
  {"type":"Feature",
   "properties":{},
   "geometry":
   {"type":"LineString",
    "coordinates":
    [[21.644061800000003, 44.092673700000006],
     [21.6441722, 44.092678500000005], [21.6443854, 44.0926587],
     [21.644453900000002, 44.0926509], [21.6445092, 44.0926685],
     [21.6445258, 44.0927013], [21.644497100000002, 44.0928151],
     [21.644241, 44.093246400000005], [21.6439659, 44.093562600000006],
     [21.6438215, 44.0937898], [21.643814600000002, 44.0939083],
     [21.6438658, 44.093955400000006], [21.6439489, 44.0939605],
     [21.6441722, 44.0939083], [21.644468, 44.0938589],
     [21.644541, 44.0938619], [21.6445849, 44.0938935],
     [21.6446124, 44.0940219], [21.644740600000002, 44.0942026],
     [21.6448737, 44.094343], [21.6449266, 44.0943668],
     [21.6450113, 44.0943677], [21.6452533, 44.0942822],
     [21.645633, 44.094106800000006], [21.6458578, 44.0940048],
     [21.6459282, 44.093999600000004], [21.645984000000002, 44.094025],
     [21.6460763, 44.0941653],
     [21.646155500000003, 44.094422200000004],
     [21.6461766, 44.0944778], [21.6462389, 44.0944981],
     [21.646400500000002, 44.0944566],
     [21.646620600000002, 44.0943331],
     [21.646689900000002, 44.0943217],
     [21.646751300000002, 44.0943331],
     [21.6468957, 44.094402300000006],
     [21.6469232, 44.094520800000005],
     [21.6469507, 44.094673900000004],
     [21.6470814, 44.094836900000004],
     [21.647294600000002, 44.0949406], [21.6475666, 44.0949572],
     [21.6476268, 44.094935500000005],
     [21.6476578, 44.094892800000004],
     [21.6477724, 44.094716000000005],
     [21.6478591, 44.094673300000004],
     [21.647968300000002, 44.0946486], [21.648197, 44.0947004],
     [21.648318, 44.0946762], [21.6483783, 44.094586400000004],
     [21.6485738, 44.094506], [21.648697600000002, 44.094357800000004],
     [21.6489452, 44.0943282], [21.6493511, 44.0941374],
     [21.6494658, 44.0941199], [21.6495779, 44.0941405],
     [21.649830100000003, 44.094302600000006],
     [21.649999100000002, 44.094334100000005], [21.650265, 44.0943502],
     [21.6507058, 44.0944615], [21.6510496, 44.0947381],
     [21.6512353, 44.0947826], [21.6515036, 44.094757900000005],
     [21.6517236, 44.0946146], [21.6519139, 44.094498800000004],
     [21.6520793, 44.094456900000004], [21.652258, 44.094476900000004],
     [21.6523979, 44.0944547], [21.652542, 44.0943825],
     [21.652734600000002, 44.094343],
     [21.653298600000003, 44.094392400000004],
     [21.654, 44.094441800000006], [21.6542889, 44.0944912],
     [21.6548391, 44.094481300000005], [21.6552517, 44.0944171],
     [21.6556988, 44.094323200000005], [21.6561252, 44.0943133],
     [21.6565172, 44.094234300000004], [21.6569848, 44.0940565],
     [21.6574525, 44.093923100000005], [21.6580508, 44.0938145],
     [21.658628500000003, 44.093755200000004],
     [21.659213100000002, 44.093715700000004],
     [21.659887100000002, 44.093641600000005],
     [21.660544700000003, 44.093540700000005],
     [21.6610446, 44.093456100000004],
     [21.661269700000002, 44.093468400000006],
     [21.661571300000002, 44.0935275],
     [21.661663400000002, 44.0935683],
     [21.6617068, 44.093630000000005],
     [21.661734000000003, 44.093725600000006],
     [21.661945300000003, 44.0937312],
     [21.6620217, 44.093751000000005],
     [21.662067200000003, 44.093794700000004], [21.6620712, 44.093912],
     [21.662046500000002, 44.094060600000006]]}},
  {"type":"Feature",
   "properties":{},
   "geometry":
   {"type":"LineString",
    "coordinates":
    [[21.6421706, 44.092210200000004], [21.6424217, 44.092315],
     [21.6426845, 44.0924537], [21.6429313, 44.092600100000006],
     [21.6432156, 44.092750300000006],
     [21.643302700000003, 44.0927579],
     [21.6435999, 44.092606700000005], [21.6437348, 44.0925935],
     [21.644061800000003, 44.092673700000006]]}},
  {"type":"Feature",
   "properties":{},
   "geometry":
   {"type":"LineString",
    "coordinates":
    [[21.6410334, 44.0917498], [21.6409851, 44.0918172],
     [21.640982400000002, 44.091892400000006],
     [21.641009200000003, 44.091946300000004],
     [21.6410924, 44.091971400000006], [21.6416825, 44.0920677],
     [21.6421706, 44.092210200000004]]}},
  {"type":"Feature",
   "properties":{},
   "geometry":
   {"type":"LineString",
    "coordinates":
    [[21.6382023, 44.092020600000005],
     [21.6385326, 44.092087400000004], [21.6392701, 44.0919437],
     [21.640133300000002, 44.0919806],
     [21.6404877, 44.091935500000005], [21.6410334, 44.0917498]]}},
  {"type":"Feature",
   "properties":{},
   "geometry":
   {"type":"LineString",
    "coordinates":
    [[21.637657800000003, 44.0917316],
     [21.637800000000002, 44.091793300000006],
     [21.6382023, 44.092020600000005]]}},
  {"type":"Feature",
   "properties":{},
   "geometry":
   {"type":"LineString",
    "coordinates":
    [[21.6362121, 44.091041700000005], [21.6363382, 44.091143],
     [21.6364884, 44.091193100000005], [21.6365903, 44.091301],
     [21.6366547, 44.0914735], [21.636965800000002, 44.0915351],
     [21.637158900000003, 44.091515900000005],
     [21.637279600000003, 44.091540900000005],
     [21.637555900000002, 44.09167],
     [21.637657800000003, 44.0917316]]}}]}
