{"type":"FeatureCollection",
 "properties":{},
 "features":
 [{"type":"Feature",
   "properties":{},
   "geometry":
   {"type":"LineString",
    "coordinates":
    [[21.635930400000003, 44.091124400000005],
     [21.6360479, 44.0910899]]}},
  {"type":"Feature",
   "properties":{},
   "geometry":
   {"type":"LineString",
    "coordinates":
    [[21.6360479, 44.0910899], [21.6362121, 44.091041700000005]]}},
  {"type":"Feature",
   "properties":{},
   "geometry":
   {"type":"LineString",
    "coordinates":
    [[21.6362121, 44.091041700000005], [21.6363382, 44.091143],
     [21.6364884, 44.091193100000005], [21.6365903, 44.091301],
     [21.6366547, 44.0914735], [21.636965800000002, 44.0915351],
     [21.637158900000003, 44.091515900000005],
     [21.637279600000003, 44.091540900000005],
     [21.637555900000002, 44.09167],
     [21.637657800000003, 44.0917316]]}},
  {"type":"Feature",
   "properties":{},
   "geometry":
   {"type":"LineString",
    "coordinates":
    [[21.637657800000003, 44.0917316],
     [21.637800000000002, 44.091793300000006],
     [21.6382023, 44.092020600000005]]}},
  {"type":"Feature",
   "properties":{},
   "geometry":
   {"type":"LineString",
    "coordinates":
    [[21.6382023, 44.092020600000005],
     [21.6385326, 44.092087400000004], [21.6392701, 44.0919437],
     [21.640133300000002, 44.0919806],
     [21.6404877, 44.091935500000005], [21.6410334, 44.0917498]]}},
  {"type":"Feature",
   "properties":{},
   "geometry":
   {"type":"LineString",
    "coordinates":
    [[21.6410334, 44.0917498], [21.6409851, 44.0918172],
     [21.640982400000002, 44.091892400000006],
     [21.641009200000003, 44.091946300000004],
     [21.6410924, 44.091971400000006], [21.6416825, 44.0920677],
     [21.6421706, 44.092210200000004]]}},
  {"type":"Feature",
   "properties":{},
   "geometry":
   {"type":"LineString",
    "coordinates":
    [[21.6421706, 44.092210200000004], [21.6428519, 44.0922064]]}},
  {"type":"Feature",
   "properties":{},
   "geometry":
   {"type":"LineString",
    "coordinates":
    [[21.6428519, 44.0922064],
     [21.643395100000003, 44.092204200000005], [21.643739, 44.0923771],
     [21.644061800000003, 44.092673700000006]]}},
  {"type":"Feature",
   "properties":{},
   "geometry":
   {"type":"LineString",
    "coordinates":
    [[21.644061800000003, 44.092673700000006],
     [21.6441722, 44.092678500000005], [21.6443854, 44.0926587],
     [21.644453900000002, 44.0926509], [21.6445092, 44.0926685],
     [21.6445258, 44.0927013], [21.644497100000002, 44.0928151],
     [21.644241, 44.093246400000005], [21.6439659, 44.093562600000006],
     [21.6438215, 44.0937898], [21.643814600000002, 44.0939083],
     [21.6438658, 44.093955400000006], [21.6439489, 44.0939605],
     [21.6441722, 44.0939083], [21.644468, 44.0938589],
     [21.644541, 44.0938619], [21.6445849, 44.0938935],
     [21.6446124, 44.0940219], [21.644740600000002, 44.0942026],
     [21.6448737, 44.094343], [21.6449266, 44.0943668],
     [21.6450113, 44.0943677], [21.6452533, 44.0942822],
     [21.645633, 44.094106800000006], [21.6458578, 44.0940048],
     [21.6459282, 44.093999600000004], [21.645984000000002, 44.094025],
     [21.6460763, 44.0941653],
     [21.646155500000003, 44.094422200000004],
     [21.6461766, 44.0944778], [21.6462389, 44.0944981],
     [21.646400500000002, 44.0944566],
     [21.646620600000002, 44.0943331],
     [21.646689900000002, 44.0943217],
     [21.646751300000002, 44.0943331],
     [21.6468957, 44.094402300000006],
     [21.6469232, 44.094520800000005],
     [21.6469507, 44.094673900000004],
     [21.6470814, 44.094836900000004],
     [21.647294600000002, 44.0949406], [21.6475666, 44.0949572],
     [21.6476268, 44.094935500000005],
     [21.6476578, 44.094892800000004],
     [21.6477724, 44.094716000000005],
     [21.6478591, 44.094673300000004],
     [21.647968300000002, 44.0946486], [21.648197, 44.0947004],
     [21.648318, 44.0946762], [21.6483783, 44.094586400000004],
     [21.6485738, 44.094506], [21.648697600000002, 44.094357800000004],
     [21.6489452, 44.0943282], [21.6493511, 44.0941374],
     [21.6494658, 44.0941199], [21.6495779, 44.0941405],
     [21.649830100000003, 44.094302600000006],
     [21.649999100000002, 44.094334100000005], [21.650265, 44.0943502],
     [21.6507058, 44.0944615], [21.6510496, 44.0947381],
     [21.6512353, 44.0947826], [21.6515036, 44.094757900000005],
     [21.6517236, 44.0946146], [21.6519139, 44.094498800000004],
     [21.6520793, 44.094456900000004], [21.652258, 44.094476900000004],
     [21.6523979, 44.0944547], [21.652542, 44.0943825],
     [21.652734600000002, 44.094343],
     [21.653298600000003, 44.094392400000004],
     [21.654, 44.094441800000006], [21.6542889, 44.0944912],
     [21.6548391, 44.094481300000005], [21.6552517, 44.0944171],
     [21.6556988, 44.094323200000005], [21.6561252, 44.0943133],
     [21.6565172, 44.094234300000004], [21.6569848, 44.0940565],
     [21.6574525, 44.093923100000005], [21.6580508, 44.0938145],
     [21.658628500000003, 44.093755200000004],
     [21.659213100000002, 44.093715700000004],
     [21.659887100000002, 44.093641600000005],
     [21.660544700000003, 44.093540700000005],
     [21.6610446, 44.093456100000004],
     [21.661269700000002, 44.093468400000006],
     [21.661571300000002, 44.0935275],
     [21.661663400000002, 44.0935683],
     [21.6617068, 44.093630000000005],
     [21.661734000000003, 44.093725600000006],
     [21.661945300000003, 44.0937312],
     [21.6620217, 44.093751000000005],
     [21.662067200000003, 44.093794700000004], [21.6620712, 44.093912],
     [21.662046500000002, 44.094060600000006]]}},
  {"type":"Feature",
   "properties":{},
   "geometry":
   {"type":"LineString",
    "coordinates":
    [[21.662046500000002, 44.094060600000006], [21.6623842, 44.094051],
     [21.662639000000002, 44.094005900000006],
     [21.663649300000003, 44.0937767], [21.6639954, 44.0937689],
     [21.6649886, 44.0938579], [21.6657082, 44.094007700000006]]}},
  {"type":"Feature",
   "properties":{},
   "geometry":
   {"type":"LineString",
    "coordinates":
    [[21.6657082, 44.094007700000006],
     [21.6660441, 44.094119400000004],
     [21.6661754, 44.094147500000005],
     [21.6663362, 44.094149300000005],
     [21.6664996, 44.094122500000005], [21.666651, 44.0940579],
     [21.6667361, 44.0940371], [21.6668494, 44.0940396],
     [21.6671379, 44.0941459], [21.6672985, 44.0942379],
     [21.667394100000003, 44.0943327]]}},
  {"type":"Feature",
   "properties":{},
   "geometry":
   {"type":"LineString",
    "coordinates":
    [[21.667394100000003, 44.0943327],
     [21.667566500000003, 44.0945947],
     [21.667787500000003, 44.094767700000006],
     [21.6681549, 44.0951577], [21.668394900000003, 44.0953906],
     [21.6686483, 44.0955395], [21.6688301, 44.095596900000004],
     [21.669008100000003, 44.095613300000004],
     [21.6691752, 44.0956032], [21.6693079, 44.095553],
     [21.669481, 44.095421300000005], [21.6699474, 44.095066200000005],
     [21.6701039, 44.094994], [21.670211300000002, 44.094978000000005],
     [21.670544600000003, 44.0950019],
     [21.6712804, 44.095074700000005],
     [21.6713436, 44.095096700000006], [21.6714127, 44.0951207],
     [21.6716021, 44.0952433], [21.671678800000002, 44.0952725],
     [21.6720782, 44.095371300000004],
     [21.6724299, 44.095486400000006], [21.6727259, 44.0956161],
     [21.672945000000002, 44.0957572], [21.6734037, 44.0961074],
     [21.673826700000003, 44.0963957],
     [21.674004800000002, 44.096471900000004],
     [21.6743022, 44.096566200000005], [21.6748444, 44.0967525],
     [21.675379300000003, 44.0969032], [21.6758121, 44.0970892],
     [21.676289500000003, 44.0972373],
     [21.6769207, 44.097366400000006],
     [21.678053300000002, 44.097549400000005],
     [21.680473000000003, 44.0978696], [21.6806096, 44.0979046],
     [21.680717, 44.097951], [21.681145100000002, 44.098113500000004],
     [21.6814751, 44.0982016], [21.6817722, 44.098257700000005],
     [21.681870800000002, 44.098300800000004],
     [21.682161400000002, 44.0984509], [21.6823114, 44.0985067],
     [21.6829764, 44.098657100000004], [21.683239, 44.0987479],
     [21.683365000000002, 44.0988295], [21.6834247, 44.098852],
     [21.6837006, 44.0988507], [21.683881000000003, 44.0988698],
     [21.6840799, 44.098919300000006],
     [21.6844141, 44.098936800000004], [21.6850472, 44.0988643],
     [21.6852823, 44.0988849], [21.6854379, 44.0988533],
     [21.68561, 44.0987662], [21.6858152, 44.0986434],
     [21.6860171, 44.098591600000006],
     [21.686282000000002, 44.0985992],
     [21.686618000000003, 44.0986568],
     [21.6870851, 44.098833400000004],
     [21.687353100000003, 44.0988764],
     [21.6875582, 44.098909400000004]]}},
  {"type":"Feature",
   "properties":{},
   "geometry":
   {"type":"LineString",
    "coordinates":
    [[21.6875582, 44.098909400000004],
     [21.687866200000002, 44.098953300000005],
     [21.6880789, 44.0991717], [21.6882282, 44.0992571],
     [21.688367600000003, 44.099425800000006],
     [21.6884897, 44.099494400000005], [21.6886966, 44.0995344],
     [21.688863700000002, 44.0995125],
     [21.688973500000003, 44.0993889],
     [21.6891363, 44.099322400000005],
     [21.6893186, 44.099296200000005],
     [21.6895075, 44.099322400000005],
     [21.6898787, 44.099425600000004],
     [21.690329900000002, 44.0995962], [21.6905222, 44.0997538],
     [21.690754300000002, 44.099702300000004],
     [21.6909138, 44.0997088], [21.6910402, 44.099743800000006],
     [21.691279700000003, 44.1000877], [21.691355, 44.1001387],
     [21.691522900000002, 44.1001351], [21.6918328, 44.0999974],
     [21.6921268, 44.0999214],
     [21.692304800000002, 44.099933400000005],
     [21.6926142, 44.0998546], [21.692904600000002, 44.0998461],
     [21.6932347, 44.099882900000004],
     [21.693531800000002, 44.1000515],
     [21.693914000000003, 44.1001479],
     [21.694057700000002, 44.100225300000005],
     [21.694381, 44.100285500000005],
     [21.694800100000002, 44.100517700000005],
     [21.695125800000003, 44.1006617],
     [21.695490600000003, 44.1007182], [21.6959935, 44.1008395],
     [21.6961982, 44.100948100000004],
     [21.696366400000002, 44.1011351],
     [21.696476500000003, 44.1012142], [21.6966322, 44.1012056],
     [21.696807200000002, 44.101063800000006],
     [21.6969385, 44.1010159], [21.697063200000002, 44.101025],
     [21.6972579, 44.101176900000006], [21.697353200000002, 44.101343],
     [21.6972969, 44.101487600000006],
     [21.697455100000003, 44.101774400000004],
     [21.6974574, 44.102069500000006],
     [21.697515300000003, 44.102328500000006],
     [21.6976869, 44.1025931], [21.6980201, 44.1027861],
     [21.6982621, 44.103072000000004],
     [21.6984575, 44.103306700000005],
     [21.698839800000002, 44.103477000000005],
     [21.6991699, 44.103679500000005],
     [21.699603200000002, 44.104000500000005],
     [21.7000089, 44.104321500000005],
     [21.7002221, 44.104612800000005], [21.7004491, 44.1047808],
     [21.700744800000002, 44.1051018],
     [21.701068000000003, 44.1052795], [21.7013019, 44.1055561],
     [21.701563200000002, 44.1058425], [21.701632, 44.10604],
     [21.701597600000003, 44.106380800000004],
     [21.701509700000003, 44.1065734],
     [21.701442500000002, 44.1066817], [21.7015053, 44.1068008],
     [21.701666900000003, 44.1068142], [21.7016458, 44.1069388],
     [21.701402700000003, 44.107042500000006],
     [21.7010405, 44.107240000000004], [21.7008136, 44.1074672],
     [21.700648400000002, 44.1082714]]}},
  {"type":"Feature",
   "properties":{},
   "geometry":
   {"type":"LineString",
    "coordinates":
    [[21.700648400000002, 44.1082714], [21.7006389, 44.1084131],
     [21.700614700000003, 44.1085873],
     [21.7005579, 44.108673700000004],
     [21.700454800000003, 44.1087591],
     [21.700124900000002, 44.108949100000004], [21.6998903, 44.109112],
     [21.699746400000002, 44.1093045],
     [21.699658200000002, 44.1098227],
     [21.6997183, 44.110082500000004], [21.6996563, 44.1102885],
     [21.6996724, 44.110671800000006], [21.6996107, 44.1107461]]}},
  {"type":"Feature",
   "properties":{},
   "geometry":
   {"type":"LineString",
    "coordinates":
    [[21.6996107, 44.1107461], [21.699426300000002, 44.1106646],
     [21.6993233, 44.1106525], [21.6992395, 44.1106746],
     [21.699195900000003, 44.1107304], [21.6991862, 44.1108033]]}},
  {"type":"Feature",
   "properties":{},
   "geometry":
   {"type":"LineString",
    "coordinates":
    [[21.6994298, 44.1115615], [21.699327200000003, 44.1115173],
     [21.6992659, 44.1114656],
     [21.699227800000003, 44.111396500000005],
     [21.699182200000003, 44.111037200000005],
     [21.6991862, 44.1108033]]}},
  {"type":"Feature",
   "properties":{},
   "geometry":
   {"type":"LineString",
    "coordinates":
    [[21.6986664, 44.1122126], [21.6990066, 44.112078200000006],
     [21.6994142, 44.111866400000004], [21.6994298, 44.1115615]]}},
  {"type":"Feature",
   "properties":{},
   "geometry":
   {"type":"LineString",
    "coordinates":
    [[21.697819300000003, 44.112214900000005],
     [21.6981635, 44.112254400000005], [21.6986664, 44.1122126]]}},
  {"type":"Feature",
   "properties":{},
   "geometry":
   {"type":"LineString",
    "coordinates":
    [[21.697819300000003, 44.112214900000005],
     [21.6975878, 44.1119585], [21.6973893, 44.1117197],
     [21.6973249, 44.111415400000006], [21.6972445, 44.1111304],
     [21.6974215, 44.1107838], [21.6972337, 44.1105296],
     [21.696944000000002, 44.1102446], [21.6966329, 44.1098979],
     [21.6964076, 44.109628300000004],
     [21.696144800000003, 44.109505000000006],
     [21.6957907, 44.1095975], [21.6954849, 44.1097053],
     [21.6952113, 44.1100135], [21.694923000000003, 44.1100596]]}},
  {"type":"Feature",
   "properties":{},
   "geometry":
   {"type":"LineString",
    "coordinates":
    [[21.6876284, 44.1123157], [21.6878761, 44.1120997],
     [21.6881336, 44.1117627], [21.6886762, 44.1115821],
     [21.689249800000002, 44.111008000000005],
     [21.689874200000002, 44.1104847], [21.690218400000003, 44.110109],
     [21.6908713, 44.1100159], [21.691485200000002, 44.1101782],
     [21.692049800000003, 44.1100596],
     [21.692876000000002, 44.110128800000005],
     [21.693702100000003, 44.110109], [21.694252900000002, 44.1099509],
     [21.694923000000003, 44.1100596]]}},
  {"type":"Feature",
   "properties":{},
   "geometry":
   {"type":"LineString",
    "coordinates":
    [[21.638110700000002, 44.1023537],
     [21.637863900000003, 44.1025277],
     [21.637610900000002, 44.1029034], [21.6376339, 44.1030603],
     [21.6375591, 44.1032832], [21.637409700000003, 44.1033782],
     [21.636811700000003, 44.103597], [21.6366392, 44.103642400000005],
     [21.6362713, 44.1038117], [21.635955000000003, 44.1039107],
     [21.6356733, 44.103993300000006], [21.6355296, 44.10408],
     [21.634856900000003, 44.104113000000005],
     [21.6345752, 44.1041254], [21.6344429, 44.104158500000004],
     [21.6344084, 44.1042617], [21.634236, 44.1043814],
     [21.6339657, 44.1046208], [21.6339715, 44.1047117],
     [21.63373, 44.1048768], [21.633592, 44.1050337],
     [21.633569, 44.105198800000004],
     [21.633741500000003, 44.105252500000006],
     [21.633747300000003, 44.105351600000006],
     [21.6337933, 44.1054837], [21.634121, 44.105648800000004],
     [21.634167, 44.105752], [21.6340232, 44.106008],
     [21.634344300000002, 44.106197900000005],
     [21.6347133, 44.106569400000005],
     [21.6347042, 44.106746900000005], [21.6347215, 44.1070087],
     [21.6345107, 44.1072665], [21.6341351, 44.107438800000004],
     [21.6340623, 44.1076008], [21.6340577, 44.107675900000004],
     [21.6342015, 44.107770800000004], [21.6343797, 44.1079772],
     [21.634483200000002, 44.1081176], [21.6347074, 44.1082332],
     [21.6350869, 44.108357000000005],
     [21.635385900000003, 44.108555200000005],
     [21.6358631, 44.108732700000004],
     [21.6360873, 44.108732700000004],
     [21.636294300000003, 44.1089143], [21.6362425, 44.1091496],
     [21.6363863, 44.1092735], [21.636811700000003, 44.1093478],
     [21.6371337, 44.109471600000006],
     [21.637461400000003, 44.1096615],
     [21.6375074, 44.109888600000005],
     [21.637605100000002, 44.109929900000004],
     [21.637990300000002, 44.109839], [21.6386803, 44.109752400000005],
     [21.6394519, 44.1096755], [21.6397957, 44.1096492],
     [21.640353400000002, 44.109694600000005],
     [21.641060600000003, 44.1098184],
     [21.6416067, 44.109967000000005],
     [21.642239200000002, 44.1101156],
     [21.642802600000003, 44.1104046], [21.6432338, 44.1107555],
     [21.6437628, 44.111160000000005],
     [21.6442921, 44.111352100000005], [21.6446612, 44.1114721],
     [21.6449357, 44.1113912], [21.6453151, 44.1111518],
     [21.645418600000003, 44.110924700000005],
     [21.6455509, 44.110218800000006],
     [21.645884300000002, 44.1098845], [21.6462006, 44.1096203],
     [21.646603000000002, 44.109537700000004],
     [21.647224, 44.109669800000006], [21.647275, 44.1096968],
     [21.647637900000003, 44.109888600000005],
     [21.647896600000003, 44.1099918], [21.6484141, 44.1100207],
     [21.6486556, 44.1101198], [21.6488108, 44.110239500000006],
     [21.6493167, 44.1102477],
     [21.649552500000002, 44.110165200000004],
     [21.649989400000003, 44.110384], [21.650380400000003, 44.1105243],
     [21.6506219, 44.110631600000005],
     [21.6511968, 44.110730700000005],
     [21.651633800000003, 44.1108174], [21.651961500000002, 44.110838],
     [21.652139700000003, 44.110941200000006],
     [21.6526457, 44.111259100000005], [21.6528458, 44.1113428],
     [21.6530516, 44.1114157], [21.653331400000003, 44.1114996],
     [21.6535234, 44.1115962], [21.653726600000002, 44.1117421],
     [21.6543533, 44.111688400000006],
     [21.6548707, 44.111750300000004],
     [21.655359400000002, 44.1119567],
     [21.655664100000003, 44.1120104], [21.6559861, 44.1119609],
     [21.6569334, 44.112059], [21.657336400000002, 44.112521300000004],
     [21.6578322, 44.112857500000004], [21.6582218, 44.1132366],
     [21.6587472, 44.1135455], [21.6593284, 44.1137773],
     [21.6601415, 44.113978700000004], [21.6607646, 44.1139967],
     [21.661908, 44.1134408], [21.6628581, 44.1131639],
     [21.664014700000003, 44.113015600000004],
     [21.664960200000003, 44.1132061],
     [21.665489700000002, 44.1134262],
     [21.6657686, 44.113873000000005],
     [21.6664016, 44.113977000000006],
     [21.667431200000003, 44.113648500000004],
     [21.668007900000003, 44.113737300000004],
     [21.6693849, 44.113707700000006], [21.670877, 44.1136113],
     [21.6734173, 44.1136433], [21.6742916, 44.1138453],
     [21.674656300000002, 44.114073000000005],
     [21.675140300000002, 44.1139281], [21.675505, 44.113803700000005],
     [21.6760084, 44.1139602],
     [21.676524800000003, 44.114042600000005],
     [21.677215800000003, 44.1143063], [21.6774761, 44.1142071],
     [21.677607700000003, 44.114046300000005],
     [21.678437600000002, 44.114097300000005],
     [21.679092500000003, 44.1140515],
     [21.6797885, 44.113813400000005],
     [21.680594900000003, 44.1135965],
     [21.681384400000002, 44.1134185], [21.6824516, 44.1131448],
     [21.683072000000003, 44.113094700000005],
     [21.684765000000002, 44.112590100000006],
     [21.685137400000002, 44.1126894],
     [21.686128800000002, 44.1126597],
     [21.6863767, 44.112521300000004], [21.6876284, 44.1123157]]}},
  {"type":"Feature",
   "properties":{},
   "geometry":
   {"type":"LineString",
    "coordinates":
    [[21.6398237, 44.1017797],
     [21.639565700000002, 44.101912500000005],
     [21.639029400000002, 44.1019791], [21.6384753, 44.1021498],
     [21.638110700000002, 44.1023537]]}},
  {"type":"Feature",
   "properties":{},
   "geometry":
   {"type":"LineString",
    "coordinates":
    [[21.639893400000002, 44.101753300000006],
     [21.6398864, 44.1017637], [21.6398237, 44.1017797]]}},
  {"type":"Feature",
   "properties":{},
   "geometry":
   {"type":"LineString",
    "coordinates":
    [[21.639930900000003, 44.101697200000004],
     [21.639893400000002, 44.101753300000006]]}},
  {"type":"Feature",
   "properties":{},
   "geometry":
   {"type":"LineString",
    "coordinates":
    [[21.6433539, 44.100523800000005],
     [21.643128100000002, 44.100536600000005],
     [21.6428784, 44.1005964], [21.6423612, 44.1007416],
     [21.642123400000003, 44.1007757],
     [21.641901800000003, 44.1008398], [21.6417152, 44.1008733],
     [21.6414575, 44.100887], [21.641383, 44.1008895],
     [21.641308600000002, 44.1008842],
     [21.6411221, 44.100858300000006],
     [21.641002800000003, 44.1008476], [21.6409349, 44.1008605],
     [21.640866900000002, 44.1008888],
     [21.6407123, 44.100997500000005],
     [21.640459500000002, 44.1011843],
     [21.6402779, 44.101326500000006],
     [21.6400861, 44.101476600000005],
     [21.639996800000002, 44.101581100000004],
     [21.6399727, 44.101625500000004],
     [21.639930900000003, 44.101697200000004]]}},
  {"type":"Feature",
   "properties":{},
   "geometry":
   {"type":"LineString",
    "coordinates":
    [[21.6434876, 44.1004686], [21.6433539, 44.100523800000005]]}},
  {"type":"Feature",
   "properties":{},
   "geometry":
   {"type":"LineString",
    "coordinates":
    [[21.6415551, 44.099451900000005], [21.6416217, 44.0994362],
     [21.641696800000002, 44.0994073],
     [21.641808700000002, 44.0993918], [21.6419196, 44.0994353],
     [21.6420281, 44.099492000000005],
     [21.642158600000002, 44.0995671], [21.6422919, 44.0996344],
     [21.642521600000002, 44.099707300000006],
     [21.6428391, 44.0997994], [21.6429815, 44.0999002],
     [21.643166100000002, 44.1000354],
     [21.643342500000003, 44.100156600000005],
     [21.6434524, 44.1002294],
     [21.643516700000003, 44.100267200000005],
     [21.6435464, 44.100319500000005],
     [21.643538200000002, 44.1003843], [21.6434876, 44.1004686]]}},
  {"type":"Feature",
   "properties":{},
   "geometry":
   {"type":"LineString",
    "coordinates":
    [[21.6414908, 44.0994692], [21.6415551, 44.099451900000005]]}},
  {"type":"Feature",
   "properties":{},
   "geometry":
   {"type":"LineString",
    "coordinates":
    [[21.6329867, 44.0948069], [21.6330846, 44.094877600000004],
     [21.633216, 44.0949614], [21.633360800000002, 44.095092400000006],
     [21.6335321, 44.0952282], [21.6336172, 44.0953783],
     [21.6337344, 44.095658400000005], [21.633784900000002, 44.095756],
     [21.6339481, 44.0959962], [21.6339963, 44.0960733],
     [21.6340687, 44.0961948], [21.6341357, 44.0962748],
     [21.634182600000003, 44.0963225], [21.6342591, 44.0963895],
     [21.634346800000003, 44.096440900000005],
     [21.6344362, 44.0964858],
     [21.634520300000002, 44.096523100000006],
     [21.634749000000003, 44.096613700000006],
     [21.6348036, 44.096645200000005],
     [21.6348528, 44.096680600000006], [21.6350692, 44.0969132],
     [21.6351546, 44.096973600000005],
     [21.635261500000002, 44.097018600000006],
     [21.6356147, 44.0971241], [21.6359342, 44.097270300000005],
     [21.6361141, 44.0973568], [21.636183600000003, 44.0974196],
     [21.636258400000003, 44.097632600000004],
     [21.636365700000002, 44.0977539],
     [21.636773400000003, 44.0980332],
     [21.6370551, 44.098212000000004],
     [21.6373582, 44.098379200000004], [21.637739, 44.098572600000004],
     [21.6385276, 44.0989038], [21.6387006, 44.0989725],
     [21.6387854, 44.0990282], [21.638843400000003, 44.0990878],
     [21.638998, 44.0992687], [21.639056500000002, 44.0993293],
     [21.639136500000003, 44.0993822], [21.639433, 44.0994575],
     [21.6396029, 44.099448100000004],
     [21.6400487, 44.099477900000004],
     [21.6407026, 44.099477900000004],
     [21.640988200000002, 44.0994794],
     [21.641143900000003, 44.099502300000005],
     [21.641345700000002, 44.099503500000004],
     [21.6414908, 44.0994692]]}},
  {"type":"Feature",
   "properties":{},
   "geometry":
   {"type":"LineString",
    "coordinates":
    [[21.632780500000003, 44.0946853],
     [21.632880200000002, 44.0947441], [21.6329867, 44.0948069]]}},
  {"type":"Feature",
   "properties":{},
   "geometry":
   {"type":"LineString",
    "coordinates":
    [[21.6327071, 44.0946562], [21.632780500000003, 44.0946853]]}},
  {"type":"Feature",
   "properties":{},
   "geometry":
   {"type":"LineString",
    "coordinates":
    [[21.635930400000003, 44.091124400000005],
     [21.636046800000003, 44.091415500000004],
     [21.6360773, 44.091621700000005], [21.6360645, 44.0918046],
     [21.636008800000003, 44.0919874],
     [21.635891100000002, 44.092174400000005],
     [21.6357198, 44.0923383],
     [21.635551000000003, 44.092386100000006],
     [21.6353821, 44.0923953], [21.635264600000003, 44.0923742],
     [21.635131, 44.092310700000006], [21.6348631, 44.0921843],
     [21.6346908, 44.0921541], [21.6345132, 44.0921509],
     [21.634314800000002, 44.0921913],
     [21.6339818, 44.092353100000004],
     [21.6335976, 44.092651100000005],
     [21.6334316, 44.092868700000004], [21.633365, 44.0930563],
     [21.6333421, 44.0933781], [21.6333728, 44.093711400000004],
     [21.633426800000002, 44.093906800000006], [21.633433, 44.0939703],
     [21.6334151, 44.0940339], [21.633358400000002, 44.0941339],
     [21.633269600000002, 44.0942243], [21.6327071, 44.0946562]]}}]}
