{"type":"FeatureCollection",
 "properties":{},
 "features":
 [{"type":"Feature",
   "properties":{},
   "geometry":
   {"type":"LineString",
    "coordinates":
    [[21.6362121, 44.091041700000005], [21.6363382, 44.091143],
     [21.6364884, 44.091193100000005], [21.6365903, 44.091301],
     [21.6366547, 44.0914735], [21.636965800000002, 44.0915351],
     [21.637158900000003, 44.091515900000005],
     [21.637279600000003, 44.091540900000005],
     [21.637555900000002, 44.09167],
     [21.637657800000003, 44.0917316]]}},
  {"type":"Feature",
   "properties":{},
   "geometry":
   {"type":"LineString",
    "coordinates":
    [[21.637657800000003, 44.0917316],
     [21.637800000000002, 44.091793300000006],
     [21.6382023, 44.092020600000005]]}},
  {"type":"Feature",
   "properties":{},
   "geometry":
   {"type":"LineString",
    "coordinates":
    [[21.6382023, 44.092020600000005],
     [21.6385326, 44.092087400000004], [21.6392701, 44.0919437],
     [21.640133300000002, 44.0919806],
     [21.6404877, 44.091935500000005], [21.6410334, 44.0917498]]}},
  {"type":"Feature",
   "properties":{},
   "geometry":
   {"type":"LineString",
    "coordinates":
    [[21.6410334, 44.0917498], [21.6409851, 44.0918172],
     [21.640982400000002, 44.091892400000006],
     [21.641009200000003, 44.091946300000004],
     [21.6410924, 44.091971400000006], [21.6416825, 44.0920677],
     [21.6421706, 44.092210200000004]]}},
  {"type":"Feature",
   "properties":{},
   "geometry":
   {"type":"LineString",
    "coordinates":
    [[21.6421706, 44.092210200000004], [21.6424217, 44.092315],
     [21.6426845, 44.0924537], [21.6429313, 44.092600100000006],
     [21.6432156, 44.092750300000006],
     [21.643302700000003, 44.0927579],
     [21.6435999, 44.092606700000005], [21.6437348, 44.0925935],
     [21.644061800000003, 44.092673700000006]]}},
  {"type":"Feature",
   "properties":{},
   "geometry":
   {"type":"LineString",
    "coordinates":
    [[21.644061800000003, 44.092673700000006],
     [21.6441722, 44.092678500000005], [21.6443854, 44.0926587],
     [21.644453900000002, 44.0926509], [21.6445092, 44.0926685],
     [21.6445258, 44.0927013], [21.644497100000002, 44.0928151],
     [21.644241, 44.093246400000005], [21.6439659, 44.093562600000006],
     [21.6438215, 44.0937898], [21.643814600000002, 44.0939083],
     [21.6438658, 44.093955400000006], [21.6439489, 44.0939605],
     [21.6441722, 44.0939083], [21.644468, 44.0938589],
     [21.644541, 44.0938619], [21.6445849, 44.0938935],
     [21.6446124, 44.0940219], [21.644740600000002, 44.0942026],
     [21.6448737, 44.094343], [21.6449266, 44.0943668],
     [21.6450113, 44.0943677], [21.6452533, 44.0942822],
     [21.645633, 44.094106800000006], [21.6458578, 44.0940048],
     [21.6459282, 44.093999600000004], [21.645984000000002, 44.094025],
     [21.6460763, 44.0941653],
     [21.646155500000003, 44.094422200000004],
     [21.6461766, 44.0944778], [21.6462389, 44.0944981],
     [21.646400500000002, 44.0944566],
     [21.646620600000002, 44.0943331],
     [21.646689900000002, 44.0943217],
     [21.646751300000002, 44.0943331],
     [21.6468957, 44.094402300000006],
     [21.6469232, 44.094520800000005],
     [21.6469507, 44.094673900000004],
     [21.6470814, 44.094836900000004],
     [21.647294600000002, 44.0949406], [21.6475666, 44.0949572],
     [21.6476268, 44.094935500000005],
     [21.6476578, 44.094892800000004],
     [21.6477724, 44.094716000000005],
     [21.6478591, 44.094673300000004],
     [21.647968300000002, 44.0946486], [21.648197, 44.0947004],
     [21.648318, 44.0946762], [21.6483783, 44.094586400000004],
     [21.6485738, 44.094506], [21.648697600000002, 44.094357800000004],
     [21.6489452, 44.0943282], [21.6493511, 44.0941374],
     [21.6494658, 44.0941199], [21.6495779, 44.0941405],
     [21.649830100000003, 44.094302600000006],
     [21.649999100000002, 44.094334100000005], [21.650265, 44.0943502],
     [21.6507058, 44.0944615], [21.6510496, 44.0947381],
     [21.6512353, 44.0947826], [21.6515036, 44.094757900000005],
     [21.6517236, 44.0946146], [21.6519139, 44.094498800000004],
     [21.6520793, 44.094456900000004], [21.652258, 44.094476900000004],
     [21.6523979, 44.0944547], [21.652542, 44.0943825],
     [21.652734600000002, 44.094343],
     [21.653298600000003, 44.094392400000004],
     [21.654, 44.094441800000006], [21.6542889, 44.0944912],
     [21.6548391, 44.094481300000005], [21.6552517, 44.0944171],
     [21.6556988, 44.094323200000005], [21.6561252, 44.0943133],
     [21.6565172, 44.094234300000004], [21.6569848, 44.0940565],
     [21.6574525, 44.093923100000005], [21.6580508, 44.0938145],
     [21.658628500000003, 44.093755200000004],
     [21.659213100000002, 44.093715700000004],
     [21.659887100000002, 44.093641600000005],
     [21.660544700000003, 44.093540700000005],
     [21.6610446, 44.093456100000004],
     [21.661269700000002, 44.093468400000006],
     [21.661571300000002, 44.0935275],
     [21.661663400000002, 44.0935683],
     [21.6617068, 44.093630000000005],
     [21.661734000000003, 44.093725600000006],
     [21.661945300000003, 44.0937312],
     [21.6620217, 44.093751000000005],
     [21.662067200000003, 44.093794700000004], [21.6620712, 44.093912],
     [21.662046500000002, 44.094060600000006]]}},
  {"type":"Feature",
   "properties":{},
   "geometry":
   {"type":"LineString",
    "coordinates":
    [[21.662046500000002, 44.094060600000006], [21.6623842, 44.094051],
     [21.662639000000002, 44.094005900000006],
     [21.663649300000003, 44.0937767], [21.6639954, 44.0937689],
     [21.6649886, 44.0938579], [21.6657082, 44.094007700000006]]}},
  {"type":"Feature",
   "properties":{},
   "geometry":
   {"type":"LineString",
    "coordinates":
    [[21.6657082, 44.094007700000006], [21.6658289, 44.0936736],
     [21.6659349, 44.093218400000005], [21.6660384, 44.093091],
     [21.665988900000002, 44.0930647],
     [21.6659855, 44.093013000000006], [21.666066, 44.0929122],
     [21.6662108, 44.092791600000005], [21.6662721, 44.0924953],
     [21.666369000000003, 44.0923267],
     [21.666369600000003, 44.0921577],
     [21.6664067, 44.091959100000004],
     [21.6666688, 44.091694600000004]]}},
  {"type":"Feature",
   "properties":{},
   "geometry":
   {"type":"LineString",
    "coordinates":
    [[21.6657082, 44.094007700000006], [21.6658289, 44.0936736],
     [21.6659349, 44.093218400000005], [21.6660384, 44.093091],
     [21.665988900000002, 44.0930647],
     [21.6659855, 44.093013000000006], [21.666066, 44.0929122],
     [21.6662108, 44.092791600000005], [21.6662721, 44.0924953],
     [21.666369000000003, 44.0923267],
     [21.666369600000003, 44.0921577],
     [21.6664067, 44.091959100000004],
     [21.6666688, 44.091694600000004]]}},
  {"type":"Feature",
   "properties":{},
   "geometry":
   {"type":"LineString",
    "coordinates":
    [[21.6657082, 44.094007700000006],
     [21.6660441, 44.094119400000004],
     [21.6661754, 44.094147500000005],
     [21.6663362, 44.094149300000005],
     [21.6664996, 44.094122500000005], [21.666651, 44.0940579],
     [21.6667361, 44.0940371], [21.6668494, 44.0940396],
     [21.6671379, 44.0941459], [21.6672985, 44.0942379],
     [21.667394100000003, 44.0943327]]}},
  {"type":"Feature",
   "properties":{},
   "geometry":
   {"type":"LineString",
    "coordinates":
    [[21.667394100000003, 44.0943327],
     [21.667566500000003, 44.0945947],
     [21.667787500000003, 44.094767700000006],
     [21.6681549, 44.0951577], [21.668394900000003, 44.0953906],
     [21.6686483, 44.0955395], [21.6688301, 44.095596900000004],
     [21.669008100000003, 44.095613300000004],
     [21.6691752, 44.0956032], [21.6693079, 44.095553],
     [21.669481, 44.095421300000005], [21.6699474, 44.095066200000005],
     [21.6701039, 44.094994], [21.670211300000002, 44.094978000000005],
     [21.670544600000003, 44.0950019],
     [21.6712804, 44.095074700000005],
     [21.6713436, 44.095096700000006], [21.6714127, 44.0951207],
     [21.6716021, 44.0952433], [21.671678800000002, 44.0952725],
     [21.6720782, 44.095371300000004],
     [21.6724299, 44.095486400000006], [21.6727259, 44.0956161],
     [21.672945000000002, 44.0957572], [21.6734037, 44.0961074],
     [21.673826700000003, 44.0963957],
     [21.674004800000002, 44.096471900000004],
     [21.6743022, 44.096566200000005], [21.6748444, 44.0967525],
     [21.675379300000003, 44.0969032], [21.6758121, 44.0970892],
     [21.676289500000003, 44.0972373],
     [21.6769207, 44.097366400000006],
     [21.678053300000002, 44.097549400000005],
     [21.680473000000003, 44.0978696], [21.6806096, 44.0979046],
     [21.680717, 44.097951], [21.681145100000002, 44.098113500000004],
     [21.6814751, 44.0982016], [21.6817722, 44.098257700000005],
     [21.681870800000002, 44.098300800000004],
     [21.682161400000002, 44.0984509], [21.6823114, 44.0985067],
     [21.6829764, 44.098657100000004], [21.683239, 44.0987479],
     [21.683365000000002, 44.0988295], [21.6834247, 44.098852],
     [21.6837006, 44.0988507], [21.683881000000003, 44.0988698],
     [21.6840799, 44.098919300000006],
     [21.6844141, 44.098936800000004], [21.6850472, 44.0988643],
     [21.6852823, 44.0988849], [21.6854379, 44.0988533],
     [21.68561, 44.0987662], [21.6858152, 44.0986434],
     [21.6860171, 44.098591600000006],
     [21.686282000000002, 44.0985992],
     [21.686618000000003, 44.0986568],
     [21.6870851, 44.098833400000004],
     [21.687353100000003, 44.0988764],
     [21.6875582, 44.098909400000004]]}},
  {"type":"Feature",
   "properties":{},
   "geometry":
   {"type":"LineString",
    "coordinates":
    [[21.6875582, 44.098909400000004],
     [21.687866200000002, 44.098953300000005],
     [21.6880789, 44.0991717], [21.6882282, 44.0992571],
     [21.688367600000003, 44.099425800000006],
     [21.6884897, 44.099494400000005], [21.6886966, 44.0995344],
     [21.688863700000002, 44.0995125],
     [21.688973500000003, 44.0993889],
     [21.6891363, 44.099322400000005],
     [21.6893186, 44.099296200000005],
     [21.6895075, 44.099322400000005],
     [21.6898787, 44.099425600000004],
     [21.690329900000002, 44.0995962], [21.6905222, 44.0997538],
     [21.690754300000002, 44.099702300000004],
     [21.6909138, 44.0997088], [21.6910402, 44.099743800000006],
     [21.691279700000003, 44.1000877], [21.691355, 44.1001387],
     [21.691522900000002, 44.1001351], [21.6918328, 44.0999974],
     [21.6921268, 44.0999214],
     [21.692304800000002, 44.099933400000005],
     [21.6926142, 44.0998546], [21.692904600000002, 44.0998461],
     [21.6932347, 44.099882900000004],
     [21.693531800000002, 44.1000515],
     [21.693914000000003, 44.1001479],
     [21.694057700000002, 44.100225300000005],
     [21.694381, 44.100285500000005],
     [21.694800100000002, 44.100517700000005],
     [21.695125800000003, 44.1006617],
     [21.695490600000003, 44.1007182], [21.6959935, 44.1008395],
     [21.6961982, 44.100948100000004],
     [21.696366400000002, 44.1011351],
     [21.696476500000003, 44.1012142], [21.6966322, 44.1012056],
     [21.696807200000002, 44.101063800000006],
     [21.6969385, 44.1010159], [21.697063200000002, 44.101025],
     [21.6972579, 44.101176900000006], [21.697353200000002, 44.101343],
     [21.6972969, 44.101487600000006],
     [21.697455100000003, 44.101774400000004],
     [21.6974574, 44.102069500000006],
     [21.697515300000003, 44.102328500000006],
     [21.6976869, 44.1025931], [21.6980201, 44.1027861],
     [21.6982621, 44.103072000000004],
     [21.6984575, 44.103306700000005],
     [21.698839800000002, 44.103477000000005],
     [21.6991699, 44.103679500000005],
     [21.699603200000002, 44.104000500000005],
     [21.7000089, 44.104321500000005],
     [21.7002221, 44.104612800000005], [21.7004491, 44.1047808],
     [21.700744800000002, 44.1051018],
     [21.701068000000003, 44.1052795], [21.7013019, 44.1055561],
     [21.701563200000002, 44.1058425], [21.701632, 44.10604],
     [21.701597600000003, 44.106380800000004],
     [21.701509700000003, 44.1065734],
     [21.701442500000002, 44.1066817], [21.7015053, 44.1068008],
     [21.701666900000003, 44.1068142], [21.7016458, 44.1069388],
     [21.701402700000003, 44.107042500000006],
     [21.7010405, 44.107240000000004], [21.7008136, 44.1074672],
     [21.700648400000002, 44.1082714]]}},
  {"type":"Feature",
   "properties":{},
   "geometry":
   {"type":"LineString",
    "coordinates":
    [[21.700648400000002, 44.1082714], [21.7006389, 44.1084131],
     [21.700614700000003, 44.1085873],
     [21.7005579, 44.108673700000004],
     [21.700454800000003, 44.1087591],
     [21.700124900000002, 44.108949100000004], [21.6998903, 44.109112],
     [21.699746400000002, 44.1093045],
     [21.699658200000002, 44.1098227],
     [21.6997183, 44.110082500000004], [21.6996563, 44.1102885],
     [21.6996724, 44.110671800000006], [21.6996107, 44.1107461]]}},
  {"type":"Feature",
   "properties":{},
   "geometry":
   {"type":"LineString",
    "coordinates":
    [[21.6996107, 44.1107461], [21.699426300000002, 44.1106646],
     [21.6993233, 44.1106525], [21.6992395, 44.1106746],
     [21.699195900000003, 44.1107304], [21.6991862, 44.1108033]]}},
  {"type":"Feature",
   "properties":{},
   "geometry":
   {"type":"LineString",
    "coordinates":
    [[21.6994298, 44.1115615], [21.699327200000003, 44.1115173],
     [21.6992659, 44.1114656],
     [21.699227800000003, 44.111396500000005],
     [21.699182200000003, 44.111037200000005],
     [21.6991862, 44.1108033]]}},
  {"type":"Feature",
   "properties":{},
   "geometry":
   {"type":"LineString",
    "coordinates":
    [[21.6994298, 44.1115615], [21.699327200000003, 44.1115173],
     [21.6992659, 44.1114656],
     [21.699227800000003, 44.111396500000005],
     [21.699182200000003, 44.111037200000005],
     [21.6991862, 44.1108033]]}},
  {"type":"Feature",
   "properties":{},
   "geometry":
   {"type":"LineString",
    "coordinates":
    [[21.6996107, 44.1107461], [21.699426300000002, 44.1106646],
     [21.6993233, 44.1106525], [21.6992395, 44.1106746],
     [21.699195900000003, 44.1107304], [21.6991862, 44.1108033]]}},
  {"type":"Feature",
   "properties":{},
   "geometry":
   {"type":"LineString",
    "coordinates":
    [[21.700648400000002, 44.1082714], [21.7006389, 44.1084131],
     [21.700614700000003, 44.1085873],
     [21.7005579, 44.108673700000004],
     [21.700454800000003, 44.1087591],
     [21.700124900000002, 44.108949100000004], [21.6998903, 44.109112],
     [21.699746400000002, 44.1093045],
     [21.699658200000002, 44.1098227],
     [21.6997183, 44.110082500000004], [21.6996563, 44.1102885],
     [21.6996724, 44.110671800000006], [21.6996107, 44.1107461]]}},
  {"type":"Feature",
   "properties":{},
   "geometry":
   {"type":"LineString",
    "coordinates":
    [[21.6875582, 44.098909400000004],
     [21.687866200000002, 44.098953300000005],
     [21.6880789, 44.0991717], [21.6882282, 44.0992571],
     [21.688367600000003, 44.099425800000006],
     [21.6884897, 44.099494400000005], [21.6886966, 44.0995344],
     [21.688863700000002, 44.0995125],
     [21.688973500000003, 44.0993889],
     [21.6891363, 44.099322400000005],
     [21.6893186, 44.099296200000005],
     [21.6895075, 44.099322400000005],
     [21.6898787, 44.099425600000004],
     [21.690329900000002, 44.0995962], [21.6905222, 44.0997538],
     [21.690754300000002, 44.099702300000004],
     [21.6909138, 44.0997088], [21.6910402, 44.099743800000006],
     [21.691279700000003, 44.1000877], [21.691355, 44.1001387],
     [21.691522900000002, 44.1001351], [21.6918328, 44.0999974],
     [21.6921268, 44.0999214],
     [21.692304800000002, 44.099933400000005],
     [21.6926142, 44.0998546], [21.692904600000002, 44.0998461],
     [21.6932347, 44.099882900000004],
     [21.693531800000002, 44.1000515],
     [21.693914000000003, 44.1001479],
     [21.694057700000002, 44.100225300000005],
     [21.694381, 44.100285500000005],
     [21.694800100000002, 44.100517700000005],
     [21.695125800000003, 44.1006617],
     [21.695490600000003, 44.1007182], [21.6959935, 44.1008395],
     [21.6961982, 44.100948100000004],
     [21.696366400000002, 44.1011351],
     [21.696476500000003, 44.1012142], [21.6966322, 44.1012056],
     [21.696807200000002, 44.101063800000006],
     [21.6969385, 44.1010159], [21.697063200000002, 44.101025],
     [21.6972579, 44.101176900000006], [21.697353200000002, 44.101343],
     [21.6972969, 44.101487600000006],
     [21.697455100000003, 44.101774400000004],
     [21.6974574, 44.102069500000006],
     [21.697515300000003, 44.102328500000006],
     [21.6976869, 44.1025931], [21.6980201, 44.1027861],
     [21.6982621, 44.103072000000004],
     [21.6984575, 44.103306700000005],
     [21.698839800000002, 44.103477000000005],
     [21.6991699, 44.103679500000005],
     [21.699603200000002, 44.104000500000005],
     [21.7000089, 44.104321500000005],
     [21.7002221, 44.104612800000005], [21.7004491, 44.1047808],
     [21.700744800000002, 44.1051018],
     [21.701068000000003, 44.1052795], [21.7013019, 44.1055561],
     [21.701563200000002, 44.1058425], [21.701632, 44.10604],
     [21.701597600000003, 44.106380800000004],
     [21.701509700000003, 44.1065734],
     [21.701442500000002, 44.1066817], [21.7015053, 44.1068008],
     [21.701666900000003, 44.1068142], [21.7016458, 44.1069388],
     [21.701402700000003, 44.107042500000006],
     [21.7010405, 44.107240000000004], [21.7008136, 44.1074672],
     [21.700648400000002, 44.1082714]]}},
  {"type":"Feature",
   "properties":{},
   "geometry":
   {"type":"LineString",
    "coordinates":
    [[21.667394100000003, 44.0943327],
     [21.667566500000003, 44.0945947],
     [21.667787500000003, 44.094767700000006],
     [21.6681549, 44.0951577], [21.668394900000003, 44.0953906],
     [21.6686483, 44.0955395], [21.6688301, 44.095596900000004],
     [21.669008100000003, 44.095613300000004],
     [21.6691752, 44.0956032], [21.6693079, 44.095553],
     [21.669481, 44.095421300000005], [21.6699474, 44.095066200000005],
     [21.6701039, 44.094994], [21.670211300000002, 44.094978000000005],
     [21.670544600000003, 44.0950019],
     [21.6712804, 44.095074700000005],
     [21.6713436, 44.095096700000006], [21.6714127, 44.0951207],
     [21.6716021, 44.0952433], [21.671678800000002, 44.0952725],
     [21.6720782, 44.095371300000004],
     [21.6724299, 44.095486400000006], [21.6727259, 44.0956161],
     [21.672945000000002, 44.0957572], [21.6734037, 44.0961074],
     [21.673826700000003, 44.0963957],
     [21.674004800000002, 44.096471900000004],
     [21.6743022, 44.096566200000005], [21.6748444, 44.0967525],
     [21.675379300000003, 44.0969032], [21.6758121, 44.0970892],
     [21.676289500000003, 44.0972373],
     [21.6769207, 44.097366400000006],
     [21.678053300000002, 44.097549400000005],
     [21.680473000000003, 44.0978696], [21.6806096, 44.0979046],
     [21.680717, 44.097951], [21.681145100000002, 44.098113500000004],
     [21.6814751, 44.0982016], [21.6817722, 44.098257700000005],
     [21.681870800000002, 44.098300800000004],
     [21.682161400000002, 44.0984509], [21.6823114, 44.0985067],
     [21.6829764, 44.098657100000004], [21.683239, 44.0987479],
     [21.683365000000002, 44.0988295], [21.6834247, 44.098852],
     [21.6837006, 44.0988507], [21.683881000000003, 44.0988698],
     [21.6840799, 44.098919300000006],
     [21.6844141, 44.098936800000004], [21.6850472, 44.0988643],
     [21.6852823, 44.0988849], [21.6854379, 44.0988533],
     [21.68561, 44.0987662], [21.6858152, 44.0986434],
     [21.6860171, 44.098591600000006],
     [21.686282000000002, 44.0985992],
     [21.686618000000003, 44.0986568],
     [21.6870851, 44.098833400000004],
     [21.687353100000003, 44.0988764],
     [21.6875582, 44.098909400000004]]}},
  {"type":"Feature",
   "properties":{},
   "geometry":
   {"type":"LineString",
    "coordinates":
    [[21.6657082, 44.094007700000006],
     [21.6660441, 44.094119400000004],
     [21.6661754, 44.094147500000005],
     [21.6663362, 44.094149300000005],
     [21.6664996, 44.094122500000005], [21.666651, 44.0940579],
     [21.6667361, 44.0940371], [21.6668494, 44.0940396],
     [21.6671379, 44.0941459], [21.6672985, 44.0942379],
     [21.667394100000003, 44.0943327]]}},
  {"type":"Feature",
   "properties":{},
   "geometry":
   {"type":"LineString",
    "coordinates":
    [[21.662046500000002, 44.094060600000006], [21.6623842, 44.094051],
     [21.662639000000002, 44.094005900000006],
     [21.663649300000003, 44.0937767], [21.6639954, 44.0937689],
     [21.6649886, 44.0938579], [21.6657082, 44.094007700000006]]}},
  {"type":"Feature",
   "properties":{},
   "geometry":
   {"type":"LineString",
    "coordinates":
    [[21.644061800000003, 44.092673700000006],
     [21.6441722, 44.092678500000005], [21.6443854, 44.0926587],
     [21.644453900000002, 44.0926509], [21.6445092, 44.0926685],
     [21.6445258, 44.0927013], [21.644497100000002, 44.0928151],
     [21.644241, 44.093246400000005], [21.6439659, 44.093562600000006],
     [21.6438215, 44.0937898], [21.643814600000002, 44.0939083],
     [21.6438658, 44.093955400000006], [21.6439489, 44.0939605],
     [21.6441722, 44.0939083], [21.644468, 44.0938589],
     [21.644541, 44.0938619], [21.6445849, 44.0938935],
     [21.6446124, 44.0940219], [21.644740600000002, 44.0942026],
     [21.6448737, 44.094343], [21.6449266, 44.0943668],
     [21.6450113, 44.0943677], [21.6452533, 44.0942822],
     [21.645633, 44.094106800000006], [21.6458578, 44.0940048],
     [21.6459282, 44.093999600000004], [21.645984000000002, 44.094025],
     [21.6460763, 44.0941653],
     [21.646155500000003, 44.094422200000004],
     [21.6461766, 44.0944778], [21.6462389, 44.0944981],
     [21.646400500000002, 44.0944566],
     [21.646620600000002, 44.0943331],
     [21.646689900000002, 44.0943217],
     [21.646751300000002, 44.0943331],
     [21.6468957, 44.094402300000006],
     [21.6469232, 44.094520800000005],
     [21.6469507, 44.094673900000004],
     [21.6470814, 44.094836900000004],
     [21.647294600000002, 44.0949406], [21.6475666, 44.0949572],
     [21.6476268, 44.094935500000005],
     [21.6476578, 44.094892800000004],
     [21.6477724, 44.094716000000005],
     [21.6478591, 44.094673300000004],
     [21.647968300000002, 44.0946486], [21.648197, 44.0947004],
     [21.648318, 44.0946762], [21.6483783, 44.094586400000004],
     [21.6485738, 44.094506], [21.648697600000002, 44.094357800000004],
     [21.6489452, 44.0943282], [21.6493511, 44.0941374],
     [21.6494658, 44.0941199], [21.6495779, 44.0941405],
     [21.649830100000003, 44.094302600000006],
     [21.649999100000002, 44.094334100000005], [21.650265, 44.0943502],
     [21.6507058, 44.0944615], [21.6510496, 44.0947381],
     [21.6512353, 44.0947826], [21.6515036, 44.094757900000005],
     [21.6517236, 44.0946146], [21.6519139, 44.094498800000004],
     [21.6520793, 44.094456900000004], [21.652258, 44.094476900000004],
     [21.6523979, 44.0944547], [21.652542, 44.0943825],
     [21.652734600000002, 44.094343],
     [21.653298600000003, 44.094392400000004],
     [21.654, 44.094441800000006], [21.6542889, 44.0944912],
     [21.6548391, 44.094481300000005], [21.6552517, 44.0944171],
     [21.6556988, 44.094323200000005], [21.6561252, 44.0943133],
     [21.6565172, 44.094234300000004], [21.6569848, 44.0940565],
     [21.6574525, 44.093923100000005], [21.6580508, 44.0938145],
     [21.658628500000003, 44.093755200000004],
     [21.659213100000002, 44.093715700000004],
     [21.659887100000002, 44.093641600000005],
     [21.660544700000003, 44.093540700000005],
     [21.6610446, 44.093456100000004],
     [21.661269700000002, 44.093468400000006],
     [21.661571300000002, 44.0935275],
     [21.661663400000002, 44.0935683],
     [21.6617068, 44.093630000000005],
     [21.661734000000003, 44.093725600000006],
     [21.661945300000003, 44.0937312],
     [21.6620217, 44.093751000000005],
     [21.662067200000003, 44.093794700000004], [21.6620712, 44.093912],
     [21.662046500000002, 44.094060600000006]]}},
  {"type":"Feature",
   "properties":{},
   "geometry":
   {"type":"LineString",
    "coordinates":
    [[21.6421706, 44.092210200000004], [21.6424217, 44.092315],
     [21.6426845, 44.0924537], [21.6429313, 44.092600100000006],
     [21.6432156, 44.092750300000006],
     [21.643302700000003, 44.0927579],
     [21.6435999, 44.092606700000005], [21.6437348, 44.0925935],
     [21.644061800000003, 44.092673700000006]]}},
  {"type":"Feature",
   "properties":{},
   "geometry":
   {"type":"LineString",
    "coordinates":
    [[21.6410334, 44.0917498], [21.6409851, 44.0918172],
     [21.640982400000002, 44.091892400000006],
     [21.641009200000003, 44.091946300000004],
     [21.6410924, 44.091971400000006], [21.6416825, 44.0920677],
     [21.6421706, 44.092210200000004]]}},
  {"type":"Feature",
   "properties":{},
   "geometry":
   {"type":"LineString",
    "coordinates":
    [[21.6382023, 44.092020600000005],
     [21.6385326, 44.092087400000004], [21.6392701, 44.0919437],
     [21.640133300000002, 44.0919806],
     [21.6404877, 44.091935500000005], [21.6410334, 44.0917498]]}},
  {"type":"Feature",
   "properties":{},
   "geometry":
   {"type":"LineString",
    "coordinates":
    [[21.637657800000003, 44.0917316],
     [21.637800000000002, 44.091793300000006],
     [21.6382023, 44.092020600000005]]}},
  {"type":"Feature",
   "properties":{},
   "geometry":
   {"type":"LineString",
    "coordinates":
    [[21.6362121, 44.091041700000005], [21.6363382, 44.091143],
     [21.6364884, 44.091193100000005], [21.6365903, 44.091301],
     [21.6366547, 44.0914735], [21.636965800000002, 44.0915351],
     [21.637158900000003, 44.091515900000005],
     [21.637279600000003, 44.091540900000005],
     [21.637555900000002, 44.09167],
     [21.637657800000003, 44.0917316]]}}]}
