{"type":"FeatureCollection",
 "properties":{},
 "features":
 [{"type":"Feature",
   "properties":{},
   "geometry":
   {"type":"LineString",
    "coordinates":
    [[19.8880641, 43.740623500000005], [19.88804, 43.740973200000006],
     [19.888017, 43.7410833], [19.888022900000003, 43.741163900000004],
     [19.888063900000002, 43.7412116], [19.8881424, 43.7412482],
     [19.8883595, 43.741297200000005],
     [19.888560700000003, 43.7413809], [19.8886614, 43.741442],
     [19.888751600000003, 43.7415022], [19.888875000000002, 43.741604],
     [19.888951600000002, 43.7416946], [19.8889898, 43.7418208],
     [19.8889932, 43.742029], [19.8890312, 43.7421619],
     [19.889111, 43.7423286], [19.8892422, 43.742519400000006],
     [19.889453, 43.7427834], [19.8895325, 43.742952100000004],
     [19.889565700000002, 43.743125400000004],
     [19.8896364, 43.7437861], [19.8896972, 43.7439703],
     [19.8897964, 43.744157300000005],
     [19.889879800000003, 43.7443333],
     [19.889971300000003, 43.7444481], [19.8901246, 43.7445619],
     [19.8904639, 43.7447454], [19.8906154, 43.744795700000005],
     [19.8908282, 43.7448622], [19.8909705, 43.7449267],
     [19.891041700000002, 43.745005600000006],
     [19.8910993, 43.7451093], [19.891213, 43.7453796],
     [19.891325900000002, 43.7455695],
     [19.8915973, 43.745887800000006],
     [19.8916805, 43.745942400000004], [19.8917343, 43.7459672],
     [19.8918065, 43.7460006], [19.8919728, 43.746049],
     [19.8922196, 43.746099400000006], [19.8923618, 43.7461323],
     [19.8924315, 43.7461653], [19.8924798, 43.7462079],
     [19.8925334, 43.7463416], [19.8926646, 43.7467358]]}},
  {"type":"Feature",
   "properties":{},
   "geometry":
   {"type":"LineString",
    "coordinates":
    [[19.90471, 43.7487052], [19.904554400000002, 43.748697500000006],
     [19.9044418, 43.7486393], [19.9044257, 43.7485115],
     [19.9044364, 43.7483487], [19.9044203, 43.7481821],
     [19.904297, 43.748135600000005], [19.9041521, 43.7481201],
     [19.9039536, 43.748147200000005],
     [19.9037176, 43.748197600000005],
     [19.9035084, 43.748232400000006],
     [19.903283100000003, 43.7482247], [19.9030631, 43.7481433],
     [19.902666200000002, 43.7478953], [19.902392600000002, 43.74781],
     [19.902199500000002, 43.7477674],
     [19.9020224, 43.747616300000004],
     [19.9019152, 43.747430300000005], [19.9016738, 43.7472288],
     [19.901496700000003, 43.7471241], [19.9012178, 43.7470815],
     [19.9009013, 43.747058200000005],
     [19.900756400000002, 43.7469575], [19.9006438, 43.7467017],
     [19.9005534, 43.746428900000005], [19.900312, 43.7460104],
     [19.9001296, 43.7458205], [19.8999571, 43.7457368],
     [19.8997165, 43.7457158], [19.8993992, 43.7457988],
     [19.8992812, 43.7458608],
     [19.898911100000003, 43.746000300000006], [19.898443, 43.7462249],
     [19.898135500000002, 43.746318300000006],
     [19.897795000000002, 43.746425], [19.8975833, 43.7464978],
     [19.8972993, 43.7465959], [19.896761700000003, 43.7467756],
     [19.895518300000003, 43.7470403],
     [19.895002700000003, 43.747107500000006],
     [19.8947596, 43.7471139], [19.8945413, 43.7471442],
     [19.8943584, 43.747199200000004],
     [19.894151400000002, 43.747199200000004],
     [19.8939634, 43.747081800000004], [19.8935938, 43.7470037],
     [19.8932511, 43.74694], [19.8928888, 43.746782700000004],
     [19.8926646, 43.7467358]]}},
  {"type":"Feature",
   "properties":{},
   "geometry":
   {"type":"LineString",
    "coordinates":
    [[19.910106600000002, 43.7522547], [19.9100101, 43.7520145],
     [19.9097794, 43.751441], [19.909639900000002, 43.751286],
     [19.909479, 43.7512356], [19.909092700000002, 43.7511853],
     [19.9087387, 43.751239500000004], [19.9082934, 43.7513403],
     [19.9079072, 43.7514875], [19.9076819, 43.7516541],
     [19.9075692, 43.751855600000006],
     [19.907532500000002, 43.752036200000006],
     [19.907468100000003, 43.7520788],
     [19.907360800000003, 43.752067200000006],
     [19.907338600000003, 43.751948600000006], [19.907301, 43.7517897],
     [19.907386900000002, 43.751565], [19.907521000000003, 43.7513403],
     [19.9077892, 43.751022500000005], [19.9079662, 43.7506854],
     [19.9080681, 43.7502359], [19.9081701, 43.7499801],
     [19.9083954, 43.749798000000006], [19.9085885, 43.7496352],
     [19.908626, 43.749562700000006], [19.9087548, 43.7493136],
     [19.9089962, 43.7490113], [19.9091893, 43.7488408],
     [19.909366300000002, 43.7485773],
     [19.9095273, 43.748383600000004],
     [19.9096936, 43.748228600000004],
     [19.9098599, 43.748166600000005], [19.9101435, 43.7480331],
     [19.910211500000003, 43.7480017], [19.910232, 43.7479887],
     [19.910246, 43.747972700000005], [19.9102532, 43.747955600000004],
     [19.9102538, 43.7479359], [19.9102491, 43.7479214],
     [19.9102362, 43.747904000000005],
     [19.910212100000003, 43.7478871],
     [19.910186500000002, 43.7478782], [19.9101502, 43.747875],
     [19.910096900000003, 43.7478789],
     [19.909972500000002, 43.7479108],
     [19.9098384, 43.747949600000005],
     [19.9096346, 43.747992200000006],
     [19.909216100000002, 43.7480929],
     [19.908926400000002, 43.748178200000005],
     [19.9087807, 43.7482764], [19.9085295, 43.748445600000004],
     [19.9083042, 43.748573500000006], [19.908095000000003, 43.748589],
     [19.907816, 43.7485386], [19.9074941, 43.748488200000004],
     [19.907322500000003, 43.7485037], [19.9071991, 43.7486626],
     [19.907172300000003, 43.7488602], [19.9070596, 43.7489803],
     [19.9068933, 43.7491702], [19.9064856, 43.7493795],
     [19.906389100000002, 43.749538400000006],
     [19.906367600000003, 43.7497321],
     [19.906297900000002, 43.7497709], [19.906196, 43.7497515],
     [19.906147700000002, 43.7496701], [19.9061691, 43.7495461],
     [19.906190600000002, 43.7492826], [19.906281800000002, 43.749178],
     [19.9064535, 43.7491082],
     [19.906539300000002, 43.748988100000005],
     [19.906533900000003, 43.7488873],
     [19.9064535, 43.748643200000004],
     [19.906367600000003, 43.748333200000005],
     [19.9064374, 43.748042600000005],
     [19.906533900000003, 43.7478953],
     [19.906689500000002, 43.747813900000004],
     [19.9068504, 43.747825500000005],
     [19.9070006, 43.747844900000004],
     [19.9070596, 43.747813900000004], [19.9070274, 43.7477558],
     [19.906888000000002, 43.747701500000005],
     [19.9066841, 43.747670500000005],
     [19.906464200000002, 43.747670500000005],
     [19.9062872, 43.747763500000005], [19.9060779, 43.7479767],
     [19.9059975, 43.748127800000006],
     [19.9059707, 43.748468800000005], [19.9059116, 43.7485967],
     [19.9057883, 43.7486936], [19.905622, 43.7487052],
     [19.905450300000002, 43.7487207], [19.905284, 43.7488137],
     [19.904978200000002, 43.7491276],
     [19.904887000000002, 43.7494376],
     [19.9047851, 43.749631400000005],
     [19.9046564, 43.749705000000006], [19.904592, 43.749681700000004],
     [19.9045759, 43.749569400000006], [19.904592, 43.749340700000005],
     [19.9046135, 43.748968700000006], [19.9046832, 43.7487866],
     [19.90471, 43.7487052]]}},
  {"type":"Feature",
   "properties":{},
   "geometry":
   {"type":"LineString",
    "coordinates":
    [[19.910106600000002, 43.7522547],
     [19.910197800000002, 43.7524949],
     [19.9105323, 43.752845300000004], [19.910549, 43.7531654],
     [19.9103567, 43.7535218], [19.910248000000003, 43.7538661],
     [19.9102229, 43.754210400000005],
     [19.910431900000003, 43.7544338], [19.910733, 43.754476100000005],
     [19.911226300000003, 43.754301000000005],
     [19.9116612, 43.7542406], [19.9120375, 43.754119700000004],
     [19.9124138, 43.754101600000006], [19.9126228, 43.7541379],
     [19.912693700000002, 43.754207400000006]]}},
  {"type":"Feature",
   "properties":{},
   "geometry":
   {"type":"LineString",
    "coordinates":
    [[19.9113788, 43.7555582], [19.911732800000003, 43.7554923],
     [19.9121191, 43.7554187], [19.912467, 43.755335200000005],
     [19.912526, 43.7552345], [19.9125367, 43.7550795],
     [19.9125313, 43.7548819], [19.9125474, 43.7546416],
     [19.9125421, 43.754451800000005], [19.912574300000003, 43.754289],
     [19.912693700000002, 43.754207400000006]]}},
  {"type":"Feature",
   "properties":{},
   "geometry":
   {"type":"LineString",
    "coordinates":
    [[19.9113788, 43.7555582], [19.911034, 43.7556962],
     [19.9105908, 43.7558049], [19.9101643, 43.7558774],
     [19.9098466, 43.755841200000006],
     [19.9095224, 43.755767500000005], [19.909277900000003, 43.755509],
     [19.9090689, 43.7554184], [19.908876600000003, 43.7553761],
     [19.9086591, 43.755400200000004], [19.9084584, 43.7556962],
     [19.908399900000003, 43.756028400000005],
     [19.908333000000002, 43.7564331],
     [19.908333000000002, 43.7566324],
     [19.9081908, 43.756868000000004], [19.9080905, 43.7571035],
     [19.9080571, 43.757206200000006],
     [19.9079985, 43.757405500000004], [19.9079567, 43.7577196],
     [19.9078313, 43.7580638], [19.907672400000003, 43.7582934],
     [19.907404800000002, 43.7585168],
     [19.9071038, 43.758673900000005], [19.9066104, 43.7587222],
     [19.906393, 43.7588067], [19.9062257, 43.7589154],
     [19.9060585, 43.7590664], [19.9058829, 43.7593443],
     [19.9056989, 43.75961], [19.9055149, 43.759863700000004],
     [19.9052641, 43.7600147], [19.9050048, 43.7601536],
     [19.9047205, 43.760292500000006],
     [19.904662000000002, 43.7604193]]}},
  {"type":"Feature",
   "properties":{},
   "geometry":
   {"type":"LineString",
    "coordinates":
    [[19.904662000000002, 43.7604193], [19.904399, 43.7607396]]}},
  {"type":"Feature",
   "properties":{},
   "geometry":
   {"type":"LineString",
    "coordinates":
    [[19.904399, 43.7607396], [19.9041433, 43.760797800000006],
     [19.9038524, 43.7608333], [19.903467000000003, 43.7608839],
     [19.9029555, 43.7610053],
     [19.902818800000002, 43.761043300000004],
     [19.9024404, 43.761091400000005],
     [19.9022197, 43.761167300000004],
     [19.901991900000002, 43.7612736], [19.9019464, 43.7612888]]}},
  {"type":"Feature",
   "properties":{},
   "geometry":
   {"type":"LineString",
    "coordinates":
    [[19.9019464, 43.7612888], [19.901669400000003, 43.7611095],
     [19.901293900000002, 43.7609274],
     [19.900945200000002, 43.7607104], [19.90072, 43.7603656],
     [19.900762800000003, 43.7599433],
     [19.900827200000002, 43.7595985],
     [19.9007468, 43.759300200000006],
     [19.9006337, 43.759026000000006],
     [19.900661, 43.758841000000004]]}},
  {"type":"Feature",
   "properties":{},
   "geometry":
   {"type":"LineString",
    "coordinates":
    [[19.9019464, 43.7612888], [19.901669400000003, 43.7611095],
     [19.901293900000002, 43.7609274],
     [19.900945200000002, 43.7607104], [19.90072, 43.7603656],
     [19.900762800000003, 43.7599433],
     [19.900827200000002, 43.7595985],
     [19.9007468, 43.759300200000006],
     [19.9006337, 43.759026000000006],
     [19.900661, 43.758841000000004]]}},
  {"type":"Feature",
   "properties":{},
   "geometry":
   {"type":"LineString",
    "coordinates":
    [[19.8997382, 43.763790500000006], [19.8995666, 43.7635309],
     [19.8994003, 43.763314], [19.8991911, 43.7630428],
     [19.8991052, 43.7627948], [19.8991267, 43.762686300000006],
     [19.8993681, 43.762608900000004], [19.8997812, 43.7624306],
     [19.9003015, 43.762174900000005],
     [19.900669100000002, 43.7619429], [19.900897, 43.761799100000005],
     [19.9012564, 43.7615744], [19.90153, 43.761423300000004],
     [19.9019464, 43.7612888]]}},
  {"type":"Feature",
   "properties":{},
   "geometry":
   {"type":"LineString",
    "coordinates":
    [[19.8997382, 43.763790500000006],
     [19.8999075, 43.763963600000004], [19.900224, 43.764287100000004],
     [19.9002643, 43.764401400000004], [19.9002072, 43.764667],
     [19.9003474, 43.764862400000005], [19.900562, 43.765071600000006],
     [19.9010019, 43.7654629], [19.901447100000002, 43.7658155],
     [19.9020265, 43.766125300000006], [19.9023216, 43.7662648],
     [19.902949200000002, 43.7663306],
     [19.903077200000002, 43.7665111], [19.9030852, 43.7667377],
     [19.9031235, 43.7667858], [19.9035902, 43.7666386],
     [19.9045102, 43.7668885], [19.9048965, 43.7671907],
     [19.9054061, 43.7675703], [19.9058567, 43.7678531],
     [19.9061142, 43.7681863], [19.906240500000003, 43.7684378]]}},
  {"type":"Feature",
   "properties":{},
   "geometry":
   {"type":"LineString",
    "coordinates":
    [[19.906240500000003, 43.7684378],
     [19.906285500000003, 43.7685395],
     [19.9063155, 43.768652100000004],
     [19.906390400000003, 43.7690719], [19.9066359, 43.7691382],
     [19.906934800000002, 43.769122800000005],
     [19.9071199, 43.7691279], [19.9071982, 43.7691485],
     [19.9071982, 43.769241], [19.9071199, 43.769384900000006],
     [19.9069918, 43.769657300000006],
     [19.906813800000002, 43.769857800000004],
     [19.906643000000003, 43.770063400000005],
     [19.906529900000002, 43.770282800000004],
     [19.9064923, 43.7704533], [19.906503, 43.770689600000004],
     [19.9066532, 43.7709607], [19.9066854, 43.7711273],
     [19.9066532, 43.771336500000004],
     [19.9064172, 43.771685100000006],
     [19.906240200000003, 43.7721035],
     [19.906132900000003, 43.772591500000004], [19.9060202, 43.772975],
     [19.9058861, 43.773219000000005], [19.9056442, 43.7733755],
     [19.9053599, 43.773453], [19.905038, 43.7735963],
     [19.9048395, 43.773790000000005], [19.9046464, 43.7740108],
     [19.904684, 43.774165700000005], [19.9048395, 43.7743672],
     [19.9052204, 43.774812600000004],
     [19.905638800000002, 43.7750373],
     [19.905912400000002, 43.775064400000005],
     [19.9061597, 43.7751016], [19.9062455, 43.775151900000004],
     [19.9062777, 43.775279700000006],
     [19.906299200000003, 43.775527600000004],
     [19.906406500000003, 43.7757407],
     [19.906696200000003, 43.776364300000004],
     [19.9067256, 43.776521200000005], [19.9066097, 43.7766736],
     [19.906429900000003, 43.7767259],
     [19.906435300000002, 43.7768111],
     [19.9066505, 43.776931700000006],
     [19.906885900000002, 43.7770087], [19.9070898, 43.7770455],
     [19.907116600000002, 43.77709], [19.9070576, 43.7771345],
     [19.9069235, 43.7771868], [19.906566700000003, 43.7772604],
     [19.906438, 43.777337900000006], [19.9063421, 43.777441100000004],
     [19.906165100000003, 43.777596], [19.9060095, 43.7777509],
     [19.905988100000002, 43.7778439],
     [19.9059879, 43.777941000000006]]}},
  {"type":"Feature",
   "properties":{},
   "geometry":
   {"type":"LineString",
    "coordinates":
    [[19.910300300000003, 43.778410900000004],
     [19.9102098, 43.7783862], [19.910086500000002, 43.7783784],
     [19.909727, 43.7783862], [19.909137, 43.7783784],
     [19.908691700000002, 43.778320300000004],
     [19.908069400000002, 43.778215700000004],
     [19.9074633, 43.7781576],
     [19.906771300000003, 43.778142100000004],
     [19.9064762, 43.778103400000006],
     [19.9059879, 43.777941000000006]]}},
  {"type":"Feature",
   "properties":{},
   "geometry":
   {"type":"LineString",
    "coordinates":
    [[19.9133749, 43.777861800000004],
     [19.912949400000002, 43.7778721], [19.9127653, 43.7778871],
     [19.9124675, 43.777950000000004],
     [19.911936400000002, 43.7781359], [19.9114858, 43.7782405],
     [19.9108957, 43.778275400000005],
     [19.910300300000003, 43.778410900000004]]}}]}
