{"type":"FeatureCollection",
 "properties":{},
 "features":
 [{"type":"Feature",
   "properties":{},
   "geometry":
   {"type":"LineString",
    "coordinates":
    [[20.0920774, 43.751584300000005],
     [20.0910167, 43.750727000000005],
     [20.090714000000002, 43.750488600000004],
     [20.0904761, 43.7502949], [20.0903725, 43.7502148],
     [20.0903192, 43.7501714], [20.0902987, 43.750140800000004],
     [20.090272000000002, 43.750094700000005]]}},
  {"type":"Feature",
   "properties":{},
   "geometry":
   {"type":"LineString",
    "coordinates":
    [[20.090272000000002, 43.750094700000005],
     [20.0902181, 43.7500731], [20.0901581, 43.750040500000004],
     [20.090087200000003, 43.749997400000005],
     [20.0899702, 43.749913500000005],
     [20.089792900000003, 43.749777800000004]]}},
  {"type":"Feature",
   "properties":{},
   "geometry":
   {"type":"LineString",
    "coordinates":
    [[20.089792900000003, 43.749777800000004],
     [20.0897654, 43.7497568], [20.0896282, 43.7496564],
     [20.089489500000003, 43.7495549],
     [20.0893456, 43.749472600000004], [20.0892649, 43.7494315],
     [20.089194900000003, 43.749407000000005],
     [20.0891249, 43.7493915], [20.0890163, 43.7493762],
     [20.088898500000003, 43.7493654], [20.0887521, 43.7493484],
     [20.0886582, 43.749331500000004], [20.0885511, 43.7493057],
     [20.0884594, 43.749279800000004],
     [20.0882854, 43.749225900000006], [20.088162, 43.7491877],
     [20.088006200000002, 43.749145000000006],
     [20.0879242, 43.7491263],
     [20.087841700000002, 43.749114000000006], [20.0877453, 43.749104],
     [20.0876604, 43.7490995], [20.087607000000002, 43.749099],
     [20.0875336, 43.7491064], [20.0874823, 43.749118800000005],
     [20.087422800000002, 43.749137000000005],
     [20.0873525, 43.7491709], [20.0872829, 43.7492096],
     [20.087202100000003, 43.749264700000005],
     [20.087100900000003, 43.7493436], [20.0869608, 43.749456],
     [20.086830000000003, 43.749559600000005],
     [20.086719900000002, 43.7496364],
     [20.086637500000002, 43.7496865], [20.086556, 43.749731000000004],
     [20.086484300000002, 43.7497647],
     [20.086418700000003, 43.7497917], [20.0863477, 43.7498146],
     [20.0862598, 43.7498354], [20.0861811, 43.7498519],
     [20.086082400000002, 43.7498714],
     [20.0859498, 43.749891000000005],
     [20.085620000000002, 43.7499217], [20.085217800000002, 43.749957],
     [20.084820200000003, 43.749994400000006],
     [20.0845798, 43.7500109], [20.084338000000002, 43.7500262],
     [20.0842174, 43.750029100000006], [20.0841169, 43.7500287],
     [20.0840551, 43.7500262], [20.0840056, 43.750021600000004],
     [20.083931200000002, 43.7500122],
     [20.083867100000003, 43.750000500000006],
     [20.0837401, 43.7499697]]}},
  {"type":"Feature",
   "properties":{},
   "geometry":
   {"type":"LineString",
    "coordinates":
    [[20.0837401, 43.7499697], [20.0836915, 43.7499564],
     [20.083509600000003, 43.7499058], [20.0833432, 43.749862],
     [20.0832748, 43.749844800000005], [20.0832199, 43.749831],
     [20.0831328, 43.7498145], [20.0830518, 43.7498001],
     [20.0829749, 43.7497928], [20.0829165, 43.7497899],
     [20.082836500000003, 43.7497909],
     [20.0827661, 43.749795000000006]]}},
  {"type":"Feature",
   "properties":{},
   "geometry":
   {"type":"LineString",
    "coordinates":
    [[20.0827661, 43.749795000000006],
     [20.082707900000003, 43.7497628],
     [20.082652900000003, 43.749739500000004],
     [20.0825983, 43.749719500000005], [20.0825199, 43.7496974],
     [20.0824275, 43.749675800000006], [20.082329, 43.7496542],
     [20.0822444, 43.749633700000004],
     [20.082162800000003, 43.749613200000006],
     [20.0815842, 43.749431400000006], [20.0802085, 43.7492966],
     [20.0796519, 43.749166800000005], [20.0792484, 43.748953],
     [20.079184700000003, 43.748919300000004],
     [20.077707500000002, 43.748937100000006],
     [20.0771404, 43.749011800000005], [20.07683, 43.7490347],
     [20.076583900000003, 43.748972300000005],
     [20.0760788, 43.748729700000005], [20.0754649, 43.7485027],
     [20.074812700000003, 43.7483218], [20.0743946, 43.7483152]]}},
  {"type":"Feature",
   "properties":{},
   "geometry":
   {"type":"LineString",
    "coordinates":
    [[20.061272300000002, 43.7442313],
     [20.0614566, 43.744294200000006],
     [20.0615898, 43.744356700000004], [20.0620893, 43.7445828],
     [20.0623223, 43.7446983], [20.0625621, 43.744784900000006],
     [20.062741900000002, 43.7448234],
     [20.062881700000002, 43.7448234], [20.0630349, 43.7448282],
     [20.063234700000002, 43.744861900000004],
     [20.0633945, 43.7449388], [20.0635477, 43.745015800000004],
     [20.0636276, 43.7450832], [20.0636875, 43.7452035],
     [20.0637475, 43.7453189], [20.063894, 43.7454151],
     [20.064067100000003, 43.7454921],
     [20.064227000000002, 43.7455402], [20.0644867, 43.7455835],
     [20.0646798, 43.7456076], [20.064813, 43.7456413],
     [20.0649662, 43.7457086], [20.065106, 43.7458],
     [20.0652326, 43.7459347], [20.065419000000002, 43.7460935],
     [20.0655855, 43.7462138], [20.065705400000002, 43.7463004],
     [20.065838600000003, 43.7462667], [20.0659318, 43.7462138],
     [20.066071700000002, 43.746170500000005],
     [20.0662781, 43.7461464], [20.0665112, 43.746165600000005],
     [20.0667443, 43.7461945],
     [20.066964000000002, 43.746285900000004],
     [20.0672304, 43.7463629], [20.0674768, 43.7464254],
     [20.0676433, 43.746488], [20.0678431, 43.7465072],
     [20.0680029, 43.7465072], [20.0681561, 43.7465217],
     [20.068322600000002, 43.7465698],
     [20.068522400000003, 43.746661200000005],
     [20.0687488, 43.746767000000006], [20.068842, 43.7468151],
     [20.0690618, 43.746877700000006], [20.0692083, 43.746921],
     [20.0694014, 43.747022], [20.0695613, 43.7471423],
     [20.0697344, 43.7473395], [20.069927500000002, 43.7475223],
     [20.070074, 43.747652200000005], [20.0702405, 43.7477869],
     [20.070360400000002, 43.747868700000005],
     [20.070460500000003, 43.747898400000004],
     [20.070560200000003, 43.7478831], [20.070766600000002, 43.747835],
     [20.0708954, 43.7477664], [20.0710523, 43.747746],
     [20.0712204, 43.7477364],
     [20.071383100000002, 43.747733600000004],
     [20.0715578, 43.747731900000005],
     [20.0717432, 43.747742200000005], [20.0718178, 43.7477828],
     [20.071943400000002, 43.7478485], [20.0719986, 43.7479505],
     [20.072105200000003, 43.7480515],
     [20.0722717, 43.748138100000006], [20.0724182, 43.7481718],
     [20.0725714, 43.748210300000004],
     [20.0727112, 43.748210300000004], [20.0730109, 43.7482295],
     [20.0731974, 43.7482199], [20.0733971, 43.7482391],
     [20.0735104, 43.7482728], [20.0737168, 43.7482872],
     [20.0738966, 43.748301700000006],
     [20.074089700000002, 43.748316100000004],
     [20.0743946, 43.7483152]]}},
  {"type":"Feature",
   "properties":{},
   "geometry":
   {"type":"LineString",
    "coordinates":
    [[20.0561897, 43.7438255],
     [20.056309900000002, 43.743823600000006],
     [20.056462800000002, 43.7438714],
     [20.056645800000002, 43.7440014], [20.0567546, 43.7441796],
     [20.056800300000003, 43.744410200000004],
     [20.0567949, 43.7445059], [20.056748300000002, 43.7446069],
     [20.056684800000003, 43.7447658],
     [20.0567029, 43.744850500000005],
     [20.0567655, 43.744903400000005], [20.0568658, 43.7449157],
     [20.057159600000002, 43.744923500000006],
     [20.057343600000003, 43.744945200000004],
     [20.057547900000003, 43.7450015],
     [20.057705000000002, 43.7450066],
     [20.057854600000002, 43.7449778], [20.0579691, 43.7449213],
     [20.0581442, 43.744812100000004], [20.058326, 43.744734300000005],
     [20.0584998, 43.744679100000006], [20.0586929, 43.744655],
     [20.058872700000002, 43.744679100000006],
     [20.0590167, 43.744723300000004], [20.059248, 43.744847400000005],
     [20.059392000000003, 43.744908200000005],
     [20.0596894, 43.7449827], [20.059853500000003, 43.7449923],
     [20.0599774, 43.744970800000004],
     [20.0600862, 43.744910000000004], [20.0602579, 43.7448234],
     [20.0605683, 43.744700300000005], [20.060724, 43.7446069],
     [20.060830600000003, 43.7445299],
     [20.0609039, 43.744419300000004],
     [20.061000200000002, 43.7443449],
     [20.061154700000003, 43.7442727],
     [20.061272300000002, 43.7442313]]}},
  {"type":"Feature",
   "properties":{},
   "geometry":
   {"type":"LineString",
    "coordinates":
    [[20.0561897, 43.7438255], [20.0559052, 43.7436462],
     [20.055567, 43.743475200000006], [20.0553817, 43.7433853],
     [20.055181700000002, 43.7433253], [20.0550761, 43.7433029],
     [20.0549715, 43.743298], [20.0548219, 43.743287200000005],
     [20.0547189, 43.7432601], [20.054626900000002, 43.7432249],
     [20.0545498, 43.7431689], [20.0544599, 43.7430682],
     [20.0541293, 43.7426553], [20.054058, 43.7425512],
     [20.0540202, 43.742440900000005], [20.0540153, 43.7423328],
     [20.054024400000003, 43.7422143], [20.0540962, 43.7419511],
     [20.054111300000002, 43.741857700000004],
     [20.0541136, 43.741728300000005], [20.0540592, 43.7414764],
     [20.054046500000002, 43.741381600000004]]}},
  {"type":"Feature",
   "properties":{},
   "geometry":
   {"type":"LineString",
    "coordinates":
    [[20.054046500000002, 43.741381600000004],
     [20.054046, 43.7410682]]}},
  {"type":"Feature",
   "properties":{},
   "geometry":
   {"type":"LineString",
    "coordinates":
    [[20.054046, 43.7410682], [20.0540519, 43.7410373],
     [20.0540656, 43.7410038], [20.0541038, 43.7409599]]}},
  {"type":"Feature",
   "properties":{},
   "geometry":
   {"type":"LineString",
    "coordinates":
    [[20.0500952, 43.7421513], [20.050397800000002, 43.7421026],
     [20.050720600000002, 43.742045000000005],
     [20.051121300000002, 43.7419796],
     [20.0513491, 43.741936700000004],
     [20.0514976, 43.741907100000006],
     [20.051619600000002, 43.7418819],
     [20.0517377, 43.741852400000006],
     [20.051825400000002, 43.7418229],
     [20.051927300000003, 43.7417845], [20.0520536, 43.7417315],
     [20.0521813, 43.741668000000004], [20.0523089, 43.7416016],
     [20.052590600000002, 43.7414525],
     [20.052843900000003, 43.741317800000004],
     [20.0531013, 43.7411771], [20.0533611, 43.7410349],
     [20.0534134, 43.741010200000005], [20.0534903, 43.7409766],
     [20.053582900000002, 43.7409407],
     [20.053660700000002, 43.740917700000004],
     [20.0537385, 43.7409048], [20.0538184, 43.740903700000004],
     [20.053902700000002, 43.740909900000005],
     [20.0539846, 43.7409231], [20.054046500000002, 43.7409382],
     [20.0541038, 43.7409599]]}},
  {"type":"Feature",
   "properties":{},
   "geometry":
   {"type":"LineString",
    "coordinates":
    [[20.049667000000003, 43.742210500000006],
     [20.0500952, 43.7421513]]}},
  {"type":"Feature",
   "properties":{},
   "geometry":
   {"type":"LineString",
    "coordinates":
    [[20.048923300000002, 43.7423141],
     [20.049667000000003, 43.742210500000006]]}},
  {"type":"Feature",
   "properties":{},
   "geometry":
   {"type":"LineString",
    "coordinates":
    [[20.0488609, 43.7423121], [20.048923300000002, 43.7423141]]}},
  {"type":"Feature",
   "properties":{},
   "geometry":
   {"type":"LineString",
    "coordinates":
    [[20.052662, 43.7456496], [20.0525057, 43.745651800000005],
     [20.0524427, 43.7456508], [20.052399100000002, 43.7456382],
     [20.0523689, 43.745614], [20.052307900000002, 43.745549100000005],
     [20.052259000000003, 43.7455103], [20.0521973, 43.7454759],
     [20.0521195, 43.745436700000006], [20.0520766, 43.7454033],
     [20.052047100000003, 43.7453577],
     [20.0520216, 43.745296700000004], [20.0519411, 43.7451364],
     [20.0518821, 43.745072400000005], [20.0518244, 43.7450211],
     [20.0517128, 43.744951900000004],
     [20.051622300000002, 43.7449102],
     [20.0515461, 43.744860300000006],
     [20.051467900000002, 43.744785500000006],
     [20.051400700000002, 43.7446946],
     [20.051304100000003, 43.744533700000005],
     [20.0512102, 43.7444058], [20.051001000000003, 43.7441278],
     [20.0504071, 43.743596200000006], [20.0503323, 43.7435382],
     [20.050286800000002, 43.7434917], [20.0502474, 43.7434396],
     [20.0502164, 43.7433842], [20.0501273, 43.7431192],
     [20.0500924, 43.743080400000004], [20.0500428, 43.7430407],
     [20.049885200000002, 43.7429409],
     [20.049768500000003, 43.7428508],
     [20.0494889, 43.742619700000006],
     [20.049419200000003, 43.7425708],
     [20.049288400000002, 43.742484600000004],
     [20.0492321, 43.7424492], [20.049174400000002, 43.7424192],
     [20.0490946, 43.742386200000006],
     [20.0489022, 43.742338800000006],
     [20.0488834, 43.742333900000006], [20.048869, 43.7423262],
     [20.0488609, 43.7423121]]}},
  {"type":"Feature",
   "properties":{},
   "geometry":
   {"type":"LineString",
    "coordinates":
    [[20.052662, 43.7456496], [20.052735300000002, 43.7456703],
     [20.0527748, 43.7456994], [20.0528079, 43.745731500000005],
     [20.0528389, 43.7457727], [20.0528578, 43.7458095],
     [20.0529389, 43.745975400000006], [20.0529812, 43.7460253],
     [20.0530341, 43.7460674], [20.0531863, 43.7461343],
     [20.053248500000002, 43.7461539], [20.0532851, 43.746183],
     [20.0533025, 43.7462202], [20.053299300000003, 43.7462553],
     [20.0532715, 43.7463009], [20.053179, 43.7464317],
     [20.0531648, 43.7464728], [20.0531688, 43.746513],
     [20.0531884, 43.7465489],
     [20.053293500000002, 43.746628900000005],
     [20.053333900000002, 43.746665300000004],
     [20.0533647, 43.7467046],
     [20.053386800000002, 43.746747500000005],
     [20.053478000000002, 43.747041100000004],
     [20.0535062, 43.7471283], [20.053540400000003, 43.747213],
     [20.053595400000003, 43.7472823],
     [20.053719400000002, 43.747417000000006], [20.053753, 43.7474659],
     [20.053778400000002, 43.7475235], [20.05393, 43.747945900000005],
     [20.053990300000002, 43.7482279],
     [20.0540074, 43.748268700000004],
     [20.0540425, 43.748311300000005], [20.0540826, 43.748341],
     [20.054122500000002, 43.748360600000005],
     [20.054335000000002, 43.7484686], [20.0544416, 43.7485214],
     [20.054521400000002, 43.7485723],
     [20.054638800000003, 43.748670600000004],
     [20.0547086, 43.7487134], [20.054793, 43.7487471],
     [20.0548919, 43.7487687],
     [20.055000800000002, 43.748774100000006],
     [20.055259, 43.748787300000004], [20.0554823, 43.748801400000005],
     [20.0555668, 43.7488149], [20.0556573, 43.7488435],
     [20.055933600000003, 43.748946200000006],
     [20.056431800000002, 43.749120600000005],
     [20.056536400000002, 43.7491531],
     [20.0566263, 43.749172900000005], [20.0567262, 43.7491889],
     [20.0569448, 43.7492049], [20.057028600000002, 43.749217],
     [20.057113100000002, 43.7492364],
     [20.0571869, 43.749256700000004], [20.0575574, 43.7493829],
     [20.0576469, 43.749428900000005], [20.0577282, 43.7494778],
     [20.0578134, 43.749538], [20.0578815, 43.749594300000005],
     [20.057949, 43.7496597], [20.0580094, 43.749729]]}},
  {"type":"Feature",
   "properties":{},
   "geometry":
   {"type":"LineString",
    "coordinates":
    [[20.059274900000002, 43.7511182], [20.0592872, 43.7511031],
     [20.0592915, 43.751080900000005],
     [20.0592903, 43.751059100000006], [20.0592817, 43.7510333],
     [20.0592677, 43.7510117], [20.059249400000002, 43.7509935],
     [20.0591328, 43.750928800000004], [20.0589343, 43.7508465],
     [20.058841100000002, 43.7508135],
     [20.0587325, 43.750783500000004], [20.058360800000003, 43.750686],
     [20.0582968, 43.7506624], [20.058254100000003, 43.7506288],
     [20.058230400000003, 43.750590200000005],
     [20.0582244, 43.7505442], [20.0583028, 43.7502553],
     [20.0580427, 43.7497923], [20.0580094, 43.749729]]}},
  {"type":"Feature",
   "properties":{},
   "geometry":
   {"type":"LineString",
    "coordinates":
    [[20.0641801, 43.7526104], [20.064177400000002, 43.7526011],
     [20.064166, 43.752589], [20.0641499, 43.75258],
     [20.0637811, 43.752464700000004],
     [20.063685800000002, 43.752447000000004],
     [20.063594700000003, 43.7524369], [20.0635088, 43.7524333],
     [20.063423, 43.7524352], [20.0629576, 43.752501900000006],
     [20.062847700000003, 43.7525118],
     [20.062749800000002, 43.752512200000005],
     [20.0626579, 43.752505400000004],
     [20.0622294, 43.752450200000006], [20.0618304, 43.7524188],
     [20.0617625, 43.7524116],
     [20.061706100000002, 43.752400900000005],
     [20.061663600000003, 43.7523897], [20.0616229, 43.7523763],
     [20.061275900000002, 43.752234200000004],
     [20.061169900000003, 43.752200300000005],
     [20.0607542, 43.752097600000006],
     [20.060612000000003, 43.752059300000006],
     [20.0601896, 43.751933900000004],
     [20.059926100000002, 43.7518176],
     [20.0598607, 43.751780600000004],
     [20.0598123, 43.751741300000006], [20.0597719, 43.7516946],
     [20.0596967, 43.751574000000005],
     [20.0596478, 43.751490700000005],
     [20.059593500000002, 43.751429200000004],
     [20.0595271, 43.7513676], [20.0594171, 43.751271300000006],
     [20.059274900000002, 43.7511182]]}},
  {"type":"Feature",
   "properties":{},
   "geometry":
   {"type":"LineString",
    "coordinates":
    [[20.0641801, 43.7526104],
     [20.063763100000003, 43.752650700000004],
     [20.0636695, 43.7526663], [20.0635279, 43.7527014],
     [20.063409800000002, 43.752742700000006], [20.063302, 43.7527915],
     [20.0631981, 43.7528511],
     [20.063014000000003, 43.752971900000006],
     [20.062948900000002, 43.753008200000004], [20.0628651, 43.753044],
     [20.0625989, 43.753143800000004], [20.0621067, 43.7533133],
     [20.0618418, 43.753408300000004], [20.0617366, 43.7534417],
     [20.0616185, 43.753467400000005], [20.0613496, 43.7534964],
     [20.0612464, 43.753500300000006], [20.0611532, 43.7534969],
     [20.0610445, 43.753479000000006], [20.0607542, 43.7534107],
     [20.0606724, 43.7533947], [20.0605799, 43.753387000000004],
     [20.0604739, 43.753386000000006],
     [20.060366600000002, 43.753390800000005],
     [20.0600448, 43.7534257], [20.0599408, 43.753432100000005],
     [20.0598476, 43.753428500000005],
     [20.059786600000002, 43.7534213],
     [20.0596324, 43.753384000000004], [20.0594185, 43.753338],
     [20.0593152, 43.753325000000004], [20.0592173, 43.7533201],
     [20.0589255, 43.753320200000005], [20.058826, 43.7533158],
     [20.0587629, 43.7532968], [20.058698800000002, 43.7532578],
     [20.0586403, 43.753205400000006], [20.058599400000002, 43.753149],
     [20.0584904, 43.752955400000005], [20.0584341, 43.7529021],
     [20.0583677, 43.7528571], [20.058194, 43.752769900000004],
     [20.0581195, 43.752745000000004],
     [20.0580278, 43.752725700000006], [20.0579305, 43.7527173],
     [20.0578299, 43.7527211], [20.057681000000002, 43.7527321],
     [20.0575531, 43.752749900000005], [20.0574175, 43.7527776],
     [20.0570813, 43.752865400000005], [20.0569533, 43.7528985],
     [20.056829, 43.7529148], [20.0567031, 43.7529142],
     [20.056585700000003, 43.752898200000004],
     [20.056482900000002, 43.7528707], [20.0564001, 43.7528377],
     [20.0562608, 43.752748100000005], [20.056169, 43.752705000000006],
     [20.056044200000002, 43.752669600000004],
     [20.0559443, 43.7526488], [20.055815600000003, 43.7526309],
     [20.0554495, 43.752602800000005],
     [20.055314000000003, 43.7525982], [20.0552119, 43.7525867],
     [20.0551505, 43.752572400000005], [20.0550786, 43.7525476],
     [20.0549553, 43.7524783], [20.0548366, 43.752417300000005],
     [20.0546575, 43.7523068],
     [20.054594100000003, 43.752261100000005],
     [20.0545465, 43.7522101], [20.0545107, 43.7521484],
     [20.054341700000002, 43.7517396],
     [20.054197600000002, 43.7513323], [20.0541592, 43.751255],
     [20.0541188, 43.751201200000004],
     [20.054060200000002, 43.751144200000006],
     [20.053992700000002, 43.7510957], [20.0537959, 43.7509971],
     [20.0535733, 43.7508909], [20.0534545, 43.750859500000004],
     [20.0533679, 43.750844], [20.0532602, 43.7508325],
     [20.053152100000002, 43.7508295],
     [20.0530523, 43.750834000000005],
     [20.052630500000003, 43.750876500000004],
     [20.0525151, 43.750880800000004],
     [20.052395800000003, 43.7508794],
     [20.052169000000003, 43.7508623], [20.052071, 43.7508532],
     [20.0519445, 43.7508483], [20.051816900000002, 43.7508512],
     [20.0516742, 43.750863800000005], [20.0515404, 43.7508854],
     [20.0514239, 43.750914900000005],
     [20.0513263, 43.750947700000005], [20.050885, 43.751108],
     [20.0507415, 43.751154], [20.0506201, 43.7511875],
     [20.050549, 43.7512071]]}},
  {"type":"Feature",
   "properties":{},
   "geometry":
   {"type":"LineString",
    "coordinates":
    [[20.050549, 43.7512071], [20.050559800000002, 43.751223100000004],
     [20.0505739, 43.751234000000004],
     [20.050595700000002, 43.7512422], [20.0507703, 43.7512732],
     [20.0509038, 43.751296], [20.0509762, 43.7513148],
     [20.0510567, 43.751350200000005],
     [20.051229000000003, 43.7514587], [20.051404700000003, 43.751575],
     [20.051453000000002, 43.751611800000006],
     [20.051557600000002, 43.7517086],
     [20.0516052, 43.751741100000004], [20.0517286, 43.7518065],
     [20.0519485, 43.7519373], [20.0522335, 43.752088400000005],
     [20.0523743, 43.7521678],
     [20.052448100000003, 43.752226900000004],
     [20.0524916, 43.7522773], [20.0525218, 43.752326700000005],
     [20.05255, 43.752395500000006], [20.0525701, 43.7524759],
     [20.0525728, 43.752524300000005], [20.05256, 43.752593100000006],
     [20.0525312, 43.7526619], [20.0524762, 43.7527452],
     [20.052440700000002, 43.7528018], [20.0524199, 43.7528571],
     [20.0524092, 43.7529283], [20.052418600000003, 43.7529922],
     [20.052497000000002, 43.7531612], [20.0525446, 43.7532368],
     [20.0525775, 43.7532712], [20.0526191, 43.7533012],
     [20.0526643, 43.7533228], [20.0527176, 43.753338],
     [20.0527973, 43.753354200000004],
     [20.052881900000003, 43.7533715]]}},
  {"type":"Feature",
   "properties":{},
   "geometry":
   {"type":"LineString",
    "coordinates":
    [[20.052881900000003, 43.7533715], [20.0534471, 43.7534951],
     [20.0535672, 43.7535353], [20.0536646, 43.7535892],
     [20.053763200000002, 43.7536781],
     [20.0540789, 43.754021900000005],
     [20.0541473, 43.754071700000004],
     [20.054243800000002, 43.7541183],
     [20.0543719, 43.754152100000006], [20.0548226, 43.7542216],
     [20.0549629, 43.7542465], [20.055091100000002, 43.7542855],
     [20.0552059, 43.7543365], [20.0553104, 43.7544004],
     [20.055547400000002, 43.754605100000006]]}},
  {"type":"Feature",
   "properties":{},
   "geometry":
   {"type":"LineString",
    "coordinates":
    [[20.059681, 43.7600149], [20.0596976, 43.7599907],
     [20.059704200000002, 43.759958100000006],
     [20.0597096, 43.7598624], [20.059720600000002, 43.7598025],
     [20.0597369, 43.759736800000006],
     [20.0597721, 43.759632800000006], [20.0598092, 43.7595487],
     [20.060053500000002, 43.759219300000005], [20.0601503, 43.75914],
     [20.0602279, 43.759081800000004],
     [20.0603154, 43.759026600000006], [20.0604023, 43.7589806],
     [20.0605738, 43.758907300000004], [20.0606219, 43.7588821],
     [20.0606659, 43.7588517],
     [20.060703800000002, 43.758817400000005],
     [20.0607405, 43.758771200000005],
     [20.0608159, 43.758659400000006], [20.0608474, 43.7585995],
     [20.060875000000003, 43.758531000000005], [20.0608922, 43.758471],
     [20.060897100000002, 43.758305400000005],
     [20.060888300000002, 43.758227100000006], [20.060866, 43.758156],
     [20.0608375, 43.758099200000004], [20.0603619, 43.7574704],
     [20.060093700000003, 43.7570849], [20.0599314, 43.7568452],
     [20.059900300000002, 43.756781700000005],
     [20.0598587, 43.7567218], [20.0598145, 43.756672900000005],
     [20.0597688, 43.756632100000004],
     [20.0596472, 43.756561000000005],
     [20.0596304, 43.756545300000006], [20.0596162, 43.7565224],
     [20.059611, 43.7564991], [20.059613600000002, 43.7564763],
     [20.0596283, 43.756432000000004],
     [20.0596357, 43.756400500000005],
     [20.059631500000002, 43.7563709],
     [20.059618800000003, 43.7563456],
     [20.059593500000002, 43.756319100000006],
     [20.0594948, 43.756260600000005],
     [20.059409300000002, 43.7562165],
     [20.059319000000002, 43.7561795],
     [20.0592139, 43.756146900000005], [20.0588686, 43.7560799],
     [20.058733800000002, 43.756060100000006],
     [20.0586178, 43.7560504],
     [20.058496400000003, 43.756047900000006],
     [20.058147100000003, 43.7560573],
     [20.0580487, 43.756052100000005], [20.0579626, 43.7560342],
     [20.057884400000003, 43.7560051], [20.057714, 43.7559089],
     [20.0576444, 43.7558528],
     [20.057592500000002, 43.755796200000006],
     [20.0575473, 43.7557263], [20.057507400000002, 43.7556503],
     [20.057483700000002, 43.7556014],
     [20.0574538, 43.755547500000006], [20.0574072, 43.7554998],
     [20.057347, 43.7554615], [20.0572023, 43.755401400000004],
     [20.0570869, 43.755360200000005],
     [20.056887800000002, 43.7552536], [20.0567643, 43.7551952],
     [20.056681400000002, 43.755164300000004],
     [20.0565733, 43.7551326],
     [20.056315100000003, 43.755048300000006],
     [20.05622, 43.755017200000005], [20.056109000000003, 43.754975],
     [20.056017100000002, 43.754930300000005],
     [20.055920800000003, 43.7548715],
     [20.055825600000002, 43.7548046],
     [20.055547400000002, 43.754605100000006]]}},
  {"type":"Feature",
   "properties":{},
   "geometry":
   {"type":"LineString",
    "coordinates":
    [[20.059681, 43.7600149], [20.0598201, 43.7600331],
     [20.059965000000002, 43.7600215],
     [20.060093700000003, 43.760006000000004],
     [20.060268, 43.759944000000004], [20.0604987, 43.759853],
     [20.0607133, 43.7597639], [20.0608957, 43.759653500000006],
     [20.061110300000003, 43.7594733], [20.0613061, 43.7592505],
     [20.0615394, 43.75902], [20.0617325, 43.7588263],
     [20.0618827, 43.7586616], [20.0619954, 43.7585202],
     [20.0620866, 43.7583846], [20.0622797, 43.7582548],
     [20.0625077, 43.7581153], [20.0627813, 43.7580145],
     [20.063103100000003, 43.757933200000004],
     [20.063441100000002, 43.7578596],
     [20.063787100000003, 43.7578073],
     [20.064225800000003, 43.7576605],
     [20.0644147, 43.757915700000005], [20.0646266, 43.7580785],
     [20.0649136, 43.7582858], [20.064979700000002, 43.7584104],
     [20.064957800000002, 43.758568600000004],
     [20.064889400000002, 43.7588194], [20.0648453, 43.7590328],
     [20.0649088, 43.759136500000004], [20.0650617, 43.7592334],
     [20.065345200000003, 43.7593369],
     [20.065549100000002, 43.7593247], [20.0658852, 43.7592105],
     [20.066034300000002, 43.759140300000006],
     [20.0661601, 43.7590408], [20.066244100000002, 43.758882],
     [20.0665534, 43.758693300000004],
     [20.066733300000003, 43.7585604], [20.066961600000003, 43.758315],
     [20.067, 43.7582145], [20.066954900000002, 43.758052],
     [20.067009000000002, 43.757820800000005],
     [20.067100800000002, 43.757662], [20.067282900000002, 43.7574139],
     [20.0675439, 43.7572647], [20.0677343, 43.757157],
     [20.0681167, 43.7569431],
     [20.068215900000002, 43.756777500000005],
     [20.068230500000002, 43.7566453], [20.0681815, 43.7564932],
     [20.068165200000003, 43.7563976],
     [20.0683165, 43.756399900000005],
     [20.0685322, 43.756468000000005], [20.0688153, 43.7565668],
     [20.06914, 43.756555000000006],
     [20.069411900000002, 43.756498400000005],
     [20.0699405, 43.7564684], [20.070224, 43.756560300000004],
     [20.070467400000002, 43.756717], [20.0705668, 43.7570344],
     [20.070705, 43.7571888], [20.070823, 43.75739],
     [20.070897900000002, 43.7575726], [20.0710468, 43.7576308],
     [20.0712882, 43.7576635], [20.071946200000003, 43.7577973],
     [20.0721074, 43.7578716], [20.0722205, 43.758010000000006],
     [20.0724319, 43.7581277], [20.072568200000003, 43.7582995],
     [20.0726976, 43.7584273]]}},
  {"type":"Feature",
   "properties":{},
   "geometry":
   {"type":"LineString",
    "coordinates":
    [[20.059681, 43.7600149], [20.0598201, 43.7600331],
     [20.059965000000002, 43.7600215],
     [20.060093700000003, 43.760006000000004],
     [20.060268, 43.759944000000004], [20.0604987, 43.759853],
     [20.0607133, 43.7597639], [20.0608957, 43.759653500000006],
     [20.061110300000003, 43.7594733], [20.0613061, 43.7592505],
     [20.0615394, 43.75902], [20.0617325, 43.7588263],
     [20.0618827, 43.7586616], [20.0619954, 43.7585202],
     [20.0620866, 43.7583846], [20.0622797, 43.7582548],
     [20.0625077, 43.7581153], [20.0627813, 43.7580145],
     [20.063103100000003, 43.757933200000004],
     [20.063441100000002, 43.7578596],
     [20.063787100000003, 43.7578073],
     [20.064225800000003, 43.7576605],
     [20.0644147, 43.757915700000005], [20.0646266, 43.7580785],
     [20.0649136, 43.7582858], [20.064979700000002, 43.7584104],
     [20.064957800000002, 43.758568600000004],
     [20.064889400000002, 43.7588194], [20.0648453, 43.7590328],
     [20.0649088, 43.759136500000004], [20.0650617, 43.7592334],
     [20.065345200000003, 43.7593369],
     [20.065549100000002, 43.7593247], [20.0658852, 43.7592105],
     [20.066034300000002, 43.759140300000006],
     [20.0661601, 43.7590408], [20.066244100000002, 43.758882],
     [20.0665534, 43.758693300000004],
     [20.066733300000003, 43.7585604], [20.066961600000003, 43.758315],
     [20.067, 43.7582145], [20.066954900000002, 43.758052],
     [20.067009000000002, 43.757820800000005],
     [20.067100800000002, 43.757662], [20.067282900000002, 43.7574139],
     [20.0675439, 43.7572647], [20.0677343, 43.757157],
     [20.0681167, 43.7569431],
     [20.068215900000002, 43.756777500000005],
     [20.068230500000002, 43.7566453], [20.0681815, 43.7564932],
     [20.068165200000003, 43.7563976],
     [20.0683165, 43.756399900000005],
     [20.0685322, 43.756468000000005], [20.0688153, 43.7565668],
     [20.06914, 43.756555000000006],
     [20.069411900000002, 43.756498400000005],
     [20.0699405, 43.7564684], [20.070224, 43.756560300000004],
     [20.070467400000002, 43.756717], [20.0705668, 43.7570344],
     [20.070705, 43.7571888], [20.070823, 43.75739],
     [20.070897900000002, 43.7575726], [20.0710468, 43.7576308],
     [20.0712882, 43.7576635], [20.071946200000003, 43.7577973],
     [20.0721074, 43.7578716], [20.0722205, 43.758010000000006],
     [20.0724319, 43.7581277], [20.072568200000003, 43.7582995],
     [20.0726976, 43.7584273]]}},
  {"type":"Feature",
   "properties":{},
   "geometry":
   {"type":"LineString",
    "coordinates":
    [[20.0593453, 43.760099200000006], [20.059574, 43.7600585],
     [20.0596198, 43.7600502], [20.0596529, 43.760036],
     [20.059681, 43.7600149]]}},
  {"type":"Feature",
   "properties":{},
   "geometry":
   {"type":"LineString",
    "coordinates":
    [[20.0593453, 43.760099200000006], [20.0593648, 43.7602026],
     [20.0593957, 43.7603218], [20.0594225, 43.760432200000004],
     [20.0594587, 43.760584300000005], [20.0594681, 43.7607228],
     [20.0594614, 43.760898100000006], [20.0594949, 43.7610754],
     [20.0595432, 43.7612255], [20.0596599, 43.7613824],
     [20.0597953, 43.7615471], [20.0598905, 43.761747500000006],
     [20.060034, 43.7620129], [20.0601507, 43.7622105],
     [20.060220400000002, 43.762309300000005],
     [20.0602781, 43.762598000000004], [20.0604659, 43.7627432],
     [20.060582500000002, 43.762823600000004],
     [20.0606523, 43.762985400000005],
     [20.060787700000002, 43.763090000000005],
     [20.060807800000003, 43.763304000000005],
     [20.060810500000002, 43.763482200000006], [20.0607891, 43.763674],
     [20.0607569, 43.763920000000006], [20.0607502, 43.7641312],
     [20.0607046, 43.764287100000004], [20.060541, 43.7644595],
     [20.0604015, 43.764648400000006],
     [20.0602741, 43.764841100000005], [20.0602111, 43.7650919],
     [20.060135900000002, 43.7652808],
     [20.0599978, 43.765448400000004],
     [20.0598409, 43.765636300000004], [20.0596397, 43.7658755],
     [20.0594453, 43.766137900000004], [20.0593018, 43.7663549],
     [20.059228, 43.766582500000005], [20.0591757, 43.7668788],
     [20.0592709, 43.7671093], [20.0593527, 43.767394100000004],
     [20.0593863, 43.767616800000006], [20.0593085, 43.7677166],
     [20.0593715, 43.767836700000004], [20.0595351, 43.7679771],
     [20.0598436, 43.768076900000004],
     [20.060129200000002, 43.7681805],
     [20.0604149, 43.768245400000005],
     [20.060739400000003, 43.7682822], [20.060983500000003, 43.768286],
     [20.061318800000002, 43.7683103],
     [20.0616165, 43.768352900000004], [20.0619263, 43.7685049],
     [20.062214700000002, 43.768709300000005],
     [20.0623447, 43.7689746], [20.0623903, 43.769241900000004],
     [20.0625888, 43.769410400000005], [20.062694800000003, 43.769423],
     [20.0626478, 43.7693049], [20.062576800000002, 43.7691693],
     [20.0625593, 43.769068600000004], [20.0625982, 43.7689175],
     [20.0626237, 43.768766400000004],
     [20.0625566, 43.768544600000006],
     [20.062456100000002, 43.7683684],
     [20.062359500000003, 43.7682115], [20.0624574, 43.768011],
     [20.062531200000002, 43.767788200000005],
     [20.062592900000002, 43.7676091],
     [20.062603600000003, 43.767479300000005],
     [20.0626237, 43.767386300000005],
     [20.062685400000003, 43.7673641], [20.0628691, 43.7674735],
     [20.063082400000003, 43.7676091], [20.0632312, 43.7677108],
     [20.0634686, 43.767784400000004],
     [20.0638387, 43.767824100000006], [20.0641995, 43.7678464],
     [20.0645777, 43.7678328], [20.065016200000002, 43.7678183],
     [20.065351500000002, 43.7677795], [20.0656693, 43.7677805],
     [20.065977800000002, 43.7677941],
     [20.066208500000002, 43.767709800000006],
     [20.066496800000003, 43.7676633],
     [20.066838800000003, 43.767613000000004],
     [20.0673417, 43.767735900000005],
     [20.0676139, 43.767595500000006], [20.067803, 43.7675074],
     [20.0678693, 43.767341200000004]]}},
  {"type":"Feature",
   "properties":{},
   "geometry":
   {"type":"LineString",
    "coordinates":
    [[20.068202600000003, 43.766155100000006],
     [20.0680075, 43.766601300000005],
     [20.067958700000002, 43.767012400000006],
     [20.0678693, 43.767341200000004]]}},
  {"type":"Feature",
   "properties":{},
   "geometry":
   {"type":"LineString",
    "coordinates":
    [[20.0730812, 43.7642232], [20.072839600000002, 43.7645038],
     [20.0727932, 43.764542000000006],
     [20.0727471, 43.764564400000005],
     [20.072683400000003, 43.7645806], [20.0726151, 43.7645834],
     [20.0725452, 43.764571600000004], [20.0722698, 43.7644947],
     [20.072211000000003, 43.7644808],
     [20.072154100000002, 43.7644831],
     [20.072104200000002, 43.7644983], [20.0720007, 43.7645532],
     [20.071886000000003, 43.7646026],
     [20.071833100000003, 43.764614200000004],
     [20.0717633, 43.7646171],
     [20.071699600000002, 43.764611800000004],
     [20.071389800000002, 43.7645367],
     [20.071084000000003, 43.764467100000005],
     [20.0709696, 43.7644478], [20.0708506, 43.7644352],
     [20.0707166, 43.7644298], [20.070605200000003, 43.7644323],
     [20.0704813, 43.7644426], [20.0702673, 43.7644746],
     [20.0701378, 43.764481700000005],
     [20.070026600000002, 43.764482400000006],
     [20.069906500000002, 43.764477500000005],
     [20.069775200000002, 43.764465400000006],
     [20.069500100000003, 43.764419000000004],
     [20.069376000000002, 43.7644132],
     [20.069269300000002, 43.7644247], [20.0691771, 43.7644478],
     [20.069069000000002, 43.764497500000004],
     [20.0688287, 43.7646401], [20.068711, 43.7647489],
     [20.068654000000002, 43.764791], [20.0685909, 43.764830700000005],
     [20.068391300000002, 43.7649466],
     [20.068347000000003, 43.764987100000006], [20.0683203, 43.765028],
     [20.068305300000002, 43.7650796], [20.0682778, 43.765267],
     [20.0682724, 43.765327500000005], [20.0682677, 43.7653997],
     [20.0682651, 43.765468000000006], [20.0682295, 43.7658447],
     [20.068224800000003, 43.7660191],
     [20.068218100000003, 43.7660825],
     [20.068202600000003, 43.766155100000006]]}},
  {"type":"Feature",
   "properties":{},
   "geometry":
   {"type":"LineString",
    "coordinates":
    [[20.0730812, 43.7642232],
     [20.073173500000003, 43.764147900000005],
     [20.0732345, 43.7641116], [20.0734028, 43.7640383],
     [20.0734852, 43.7640125],
     [20.073553800000003, 43.763978400000006],
     [20.0736214, 43.7639275], [20.0737603, 43.7637939],
     [20.073828600000002, 43.7637544], [20.0739081, 43.7637238],
     [20.0739983, 43.7637039], [20.0742318, 43.7636819],
     [20.0745803, 43.763651], [20.0747083, 43.7636334],
     [20.074814200000002, 43.76361],
     [20.074942800000002, 43.763569700000005],
     [20.075054400000003, 43.763522200000004],
     [20.075560000000003, 43.7632386], [20.0755887, 43.7632181],
     [20.0756041, 43.7631924], [20.0756023, 43.7631667],
     [20.0755866, 43.7631467], [20.0755541, 43.7631329],
     [20.0755111, 43.763128], [20.0752522, 43.7631188],
     [20.075179300000002, 43.7631043], [20.0751257, 43.7630843],
     [20.075088400000002, 43.7630527],
     [20.0750707, 43.763016300000004], [20.0750739, 43.7629703],
     [20.0751065, 43.762926300000004],
     [20.075145600000003, 43.7628883],
     [20.075208800000002, 43.7628434],
     [20.075748400000002, 43.7625198], [20.0763052, 43.7621963],
     [20.0764363, 43.762107500000006], [20.0764575, 43.7620853],
     [20.076459800000002, 43.762055100000005],
     [20.0764423, 43.7620317], [20.076404200000002, 43.7620195],
     [20.0762688, 43.7619909], [20.076244000000003, 43.7619756],
     [20.076233000000002, 43.7619502],
     [20.0762427, 43.761925600000005],
     [20.0762714, 43.761903700000005],
     [20.077065400000002, 43.7614262], [20.0772049, 43.7613032],
     [20.077351, 43.7611744], [20.077522700000003, 43.7610175],
     [20.077976, 43.760876100000004], [20.078056500000002, 43.7608412],
     [20.0781275, 43.760789900000006],
     [20.0782576, 43.760621300000004],
     [20.078324600000002, 43.760582500000005],
     [20.0783999, 43.7605517], [20.0784963, 43.7605274],
     [20.0789134, 43.7604577], [20.0790642, 43.760416],
     [20.0791729, 43.760357400000004], [20.0792559, 43.7602835],
     [20.079305, 43.760211600000005], [20.0796685, 43.759737],
     [20.0798911, 43.759461900000005],
     [20.080045300000002, 43.7593292],
     [20.0803645, 43.758999900000006], [20.0805916, 43.7588105],
     [20.0806876, 43.758769300000004],
     [20.0808113, 43.758737800000006],
     [20.080965300000003, 43.7587257], [20.0811977, 43.7587204],
     [20.0815427, 43.758691500000005],
     [20.081622900000003, 43.758678800000006],
     [20.0817002, 43.758675600000004], [20.0817713, 43.7586804],
     [20.081932300000002, 43.7587247], [20.0819811, 43.7587296],
     [20.082031500000003, 43.7587312],
     [20.0820979, 43.758728100000006],
     [20.082230600000003, 43.7587282]]}},
  {"type":"Feature",
   "properties":{},
   "geometry":
   {"type":"LineString",
    "coordinates":
    [[20.0837156, 43.7581452], [20.083668000000003, 43.7581696],
     [20.0836152, 43.758187], [20.082676600000003, 43.7584206],
     [20.0826216, 43.758442], [20.0825746, 43.7584662],
     [20.082230600000003, 43.7587282]]}},
  {"type":"Feature",
   "properties":{},
   "geometry":
   {"type":"LineString",
    "coordinates":
    [[20.084160500000003, 43.7575773],
     [20.0841575, 43.757586700000004],
     [20.084149800000002, 43.757600000000004],
     [20.0837898, 43.7580776], [20.083753100000003, 43.7581177],
     [20.0837156, 43.7581452]]}},
  {"type":"Feature",
   "properties":{},
   "geometry":
   {"type":"LineString",
    "coordinates":
    [[20.084160500000003, 43.7575773], [20.0835979, 43.7575658],
     [20.083420200000003, 43.7575653],
     [20.0833692, 43.757560500000004],
     [20.083310700000002, 43.7575517],
     [20.083276400000003, 43.7575398], [20.0832455, 43.7575291],
     [20.0831923, 43.757496100000004], [20.0827865, 43.7571856],
     [20.082360400000002, 43.756910500000004]]}},
  {"type":"Feature",
   "properties":{},
   "geometry":
   {"type":"LineString",
    "coordinates":
    [[20.082360400000002, 43.756910500000004],
     [20.082403300000003, 43.7568793],
     [20.0824442, 43.756855300000005],
     [20.083060800000002, 43.7565473],
     [20.083273300000002, 43.756440700000006],
     [20.083339000000002, 43.756399], [20.0834036, 43.7563517],
     [20.083467000000002, 43.756297800000006],
     [20.0835422, 43.7562209],
     [20.083644800000002, 43.756078900000006], [20.083677, 43.7560373],
     [20.0837159, 43.756], [20.0839438, 43.755833700000004]]}},
  {"type":"Feature",
   "properties":{},
   "geometry":
   {"type":"LineString",
    "coordinates":
    [[20.084943000000003, 43.755784000000006],
     [20.0848385, 43.7557069],
     [20.084742000000002, 43.755681700000004],
     [20.084556900000003, 43.7557495],
     [20.084387900000003, 43.7558057],
     [20.0842028, 43.755838600000004], [20.08405, 43.7558657],
     [20.0839438, 43.755833700000004]]}},
  {"type":"Feature",
   "properties":{},
   "geometry":
   {"type":"LineString",
    "coordinates":
    [[20.084943000000003, 43.755784000000006],
     [20.084962400000002, 43.7557868],
     [20.085059700000002, 43.755827100000005],
     [20.085150600000002, 43.7558621]]}},
  {"type":"Feature",
   "properties":{},
   "geometry":
   {"type":"LineString",
    "coordinates":
    [[20.0916183, 43.751890800000005],
     [20.091359200000003, 43.7520198],
     [20.091313500000002, 43.7520563], [20.0912779, 43.7520979],
     [20.0912519, 43.752147], [20.0912392, 43.752203],
     [20.091243000000002, 43.7522596], [20.0912599, 43.7523082],
     [20.091354000000003, 43.752535200000004],
     [20.091363100000002, 43.7525738], [20.0913524, 43.7526081],
     [20.091317800000002, 43.752642400000006],
     [20.091271900000002, 43.752673200000004],
     [20.091223300000003, 43.7527014], [20.0911651, 43.7527301],
     [20.0904509, 43.753012500000004], [20.090119, 43.7531612],
     [20.0896657, 43.753355000000006], [20.089303, 43.7535158],
     [20.088901500000002, 43.753690600000006],
     [20.0887959, 43.7537364], [20.0878868, 43.7541048],
     [20.0878118, 43.7541324], [20.0876568, 43.754191500000005],
     [20.0874844, 43.7542622], [20.0868682, 43.754576500000006],
     [20.0863793, 43.7548274], [20.086286100000002, 43.7548778],
     [20.086064200000003, 43.7550066], [20.0857423, 43.7552304],
     [20.085647100000003, 43.755305], [20.0855722, 43.7553691],
     [20.085508, 43.755425800000005], [20.0854487, 43.7554856],
     [20.0852554, 43.7557059], [20.085150600000002, 43.7558621]]}},
  {"type":"Feature",
   "properties":{},
   "geometry":
   {"type":"LineString",
    "coordinates":
    [[20.091954400000002, 43.751664500000004],
     [20.0916183, 43.751890800000005]]}},
  {"type":"Feature",
   "properties":{},
   "geometry":
   {"type":"LineString",
    "coordinates":
    [[20.0920774, 43.751584300000005],
     [20.092007900000002, 43.7516285],
     [20.091954400000002, 43.751664500000004]]}}]}
