{"type":"FeatureCollection",
 "properties":{},
 "features":
 [{"type":"Feature",
   "properties":{},
   "geometry":
   {"type":"LineString",
    "coordinates":
    [[20.0967212, 43.7529209],
     [20.097147800000002, 43.752619800000005],
     [20.0972496, 43.7525479]]}},
  {"type":"Feature",
   "properties":{},
   "geometry":
   {"type":"LineString",
    "coordinates":
    [[20.0972496, 43.7525479], [20.0972374, 43.752543800000005],
     [20.0971435, 43.752505500000005],
     [20.097102800000002, 43.7524868],
     [20.097049600000002, 43.7524594], [20.0969215, 43.7523665],
     [20.0967214, 43.7521937],
     [20.096375600000002, 43.751892700000006],
     [20.096202100000003, 43.7517489],
     [20.096066800000003, 43.7516301],
     [20.096041200000002, 43.7516021], [20.0959936, 43.75155]]}},
  {"type":"Feature",
   "properties":{},
   "geometry":
   {"type":"LineString",
    "coordinates":
    [[20.0947602, 43.7526175], [20.094847700000003, 43.7525417],
     [20.0955045, 43.7519726], [20.0955184, 43.751960700000005],
     [20.095645, 43.751852], [20.0958967, 43.751634],
     [20.0959177, 43.7516157], [20.0959936, 43.75155]]}},
  {"type":"Feature",
   "properties":{},
   "geometry":
   {"type":"LineString",
    "coordinates":
    [[20.0947602, 43.7526175],
     [20.094599000000002, 43.752599100000005],
     [20.093214, 43.7524412]]}},
  {"type":"Feature",
   "properties":{},
   "geometry":
   {"type":"LineString",
    "coordinates":
    [[20.093214, 43.7524412], [20.0930937, 43.7523737],
     [20.0926088, 43.7520205], [20.0920774, 43.751584300000005]]}},
  {"type":"Feature",
   "properties":{},
   "geometry":
   {"type":"LineString",
    "coordinates":
    [[20.0920774, 43.751584300000005],
     [20.0910167, 43.750727000000005],
     [20.090714000000002, 43.750488600000004],
     [20.0904761, 43.7502949], [20.0903725, 43.7502148],
     [20.0903192, 43.7501714], [20.0902987, 43.750140800000004],
     [20.090272000000002, 43.750094700000005]]}},
  {"type":"Feature",
   "properties":{},
   "geometry":
   {"type":"LineString",
    "coordinates":
    [[20.090272000000002, 43.750094700000005],
     [20.0902181, 43.7500731], [20.0901581, 43.750040500000004],
     [20.090087200000003, 43.749997400000005],
     [20.0899702, 43.749913500000005],
     [20.089792900000003, 43.749777800000004]]}},
  {"type":"Feature",
   "properties":{},
   "geometry":
   {"type":"LineString",
    "coordinates":
    [[20.089792900000003, 43.749777800000004],
     [20.0903703, 43.7494549], [20.0903423, 43.749370600000006],
     [20.0901509, 43.7492188]]}},
  {"type":"Feature",
   "properties":{},
   "geometry":
   {"type":"LineString",
    "coordinates":
    [[20.0901509, 43.7492188], [20.0900211, 43.748946600000004],
     [20.0900211, 43.748690800000006],
     [20.090208800000003, 43.7485048],
     [20.090272900000002, 43.7483656],
     [20.090240400000003, 43.7482497]]}},
  {"type":"Feature",
   "properties":{},
   "geometry":
   {"type":"LineString",
    "coordinates":
    [[20.090315500000003, 43.7477018], [20.0903074, 43.7478525],
     [20.0902967, 43.7478946], [20.0902773, 43.747943],
     [20.0902189, 43.7480278], [20.090204800000002, 43.7480612],
     [20.090194800000003, 43.7480995],
     [20.090194800000003, 43.748136300000006],
     [20.0902062, 43.748175100000005],
     [20.090240400000003, 43.7482497]]}},
  {"type":"Feature",
   "properties":{},
   "geometry":
   {"type":"LineString",
    "coordinates":
    [[20.0905649, 43.746926800000004], [20.0905676, 43.7469381],
     [20.090566900000002, 43.7469522], [20.0905059, 43.7471748],
     [20.090478400000002, 43.7472605],
     [20.090449600000003, 43.7473438],
     [20.090315500000003, 43.7477018]]}},
  {"type":"Feature",
   "properties":{},
   "geometry":
   {"type":"LineString",
    "coordinates":
    [[20.0905649, 43.746926800000004],
     [20.090631300000002, 43.7469059],
     [20.090687000000003, 43.7468822],
     [20.0907373, 43.746850200000004],
     [20.090920800000003, 43.746671]]}},
  {"type":"Feature",
   "properties":{},
   "geometry":
   {"type":"LineString",
    "coordinates":
    [[20.090920800000003, 43.746671], [20.0909471, 43.7463129],
     [20.0910008, 43.745836000000004], [20.090878, 43.7455143],
     [20.0907398, 43.7452814], [20.090570900000003, 43.744871],
     [20.0905171, 43.744654700000005], [20.0905248, 43.7441888],
     [20.0904634, 43.744005800000004],
     [20.0903406, 43.743795000000006],
     [20.0901143, 43.743409400000004], [20.090092600000002, 43.743229],
     [20.090152800000002, 43.7430493],
     [20.090131300000003, 43.742855500000005], [20.0899275, 43.742716],
     [20.089562700000002, 43.7425377],
     [20.089358800000003, 43.7424059],
     [20.089047700000002, 43.7420649], [20.0887785, 43.7418957],
     [20.0883825, 43.7416928], [20.0879105, 43.741406000000005],
     [20.0875886, 43.7410572], [20.0874062, 43.740909900000005]]}},
  {"type":"Feature",
   "properties":{},
   "geometry":
   {"type":"LineString",
    "coordinates":
    [[20.0874062, 43.740909900000005],
     [20.087170200000003, 43.7407782], [20.0870414, 43.7405922],
     [20.086730300000003, 43.7402821],
     [20.086290400000003, 43.740018500000005],
     [20.086073900000002, 43.739845200000005]]}},
  {"type":"Feature",
   "properties":{},
   "geometry":
   {"type":"LineString",
    "coordinates":
    [[20.086073900000002, 43.739845200000005],
     [20.0858934, 43.7397007], [20.0856038, 43.739561200000004],
     [20.085357000000002, 43.7393286], [20.0852267, 43.7391827],
     [20.085142400000002, 43.739088300000006]]}},
  {"type":"Feature",
   "properties":{},
   "geometry":
   {"type":"LineString",
    "coordinates":
    [[20.085142400000002, 43.739088300000006],
     [20.0848665, 43.7390002], [20.084619800000002, 43.7387832],
     [20.0843086, 43.738632], [20.084024300000003, 43.738457600000004],
     [20.0838205, 43.7382599], [20.083530800000002, 43.7381243],
     [20.0833109, 43.738004100000005],
     [20.083573700000002, 43.737980900000004],
     [20.0839921, 43.738054500000004], [20.0841263, 43.7378956],
     [20.083723900000003, 43.737822], [20.0834933, 43.7375972],
     [20.0831714, 43.7373917], [20.082989, 43.737062300000005],
     [20.0828442, 43.736729000000004], [20.082592, 43.7366243],
     [20.0826564, 43.736415], [20.083090900000002, 43.7363956],
     [20.083450300000003, 43.736585600000005],
     [20.0838205, 43.7365468],
     [20.084056500000003, 43.736318100000005],
     [20.084314000000003, 43.7362173], [20.0845983, 43.7362328],
     [20.085006, 43.7361292], [20.0850972, 43.735965400000005]]}},
  {"type":"Feature",
   "properties":{},
   "geometry":
   {"type":"LineString",
    "coordinates":
    [[20.0850972, 43.735965400000005],
     [20.084928100000003, 43.7357814],
     [20.0848155, 43.735560400000004], [20.0848745, 43.7353007],
     [20.084796700000002, 43.7350081],
     [20.0846585, 43.734868600000006], [20.0845647, 43.734698],
     [20.0847766, 43.734663100000006],
     [20.085039400000003, 43.7345391],
     [20.085423000000002, 43.734465500000006],
     [20.085769000000003, 43.7344674],
     [20.0859701, 43.734413100000005],
     [20.085798500000003, 43.7342426], [20.0860479, 43.7340449],
     [20.086329600000003, 43.733714500000005]]}},
  {"type":"Feature",
   "properties":{},
   "geometry":
   {"type":"LineString",
    "coordinates":
    [[20.086329600000003, 43.733714500000005],
     [20.0861768, 43.733705300000004], [20.0860555, 43.7336918],
     [20.0859415, 43.733669000000006],
     [20.0856216, 43.733586100000004],
     [20.0852402, 43.733486600000006], [20.0851301, 43.7334544],
     [20.0850283, 43.733418300000004],
     [20.0849274, 43.733375800000005],
     [20.084827800000003, 43.7333263], [20.084322800000002, 43.733057],
     [20.0842037, 43.732988000000006], [20.0840763, 43.7329032],
     [20.083966, 43.7328187], [20.0835027, 43.732449900000006],
     [20.083292800000002, 43.7322818], [20.0831862, 43.7322106],
     [20.0830795, 43.732150100000005],
     [20.082951400000002, 43.7320912],
     [20.082812500000003, 43.7320359], [20.0826815, 43.7319912],
     [20.0825372, 43.7319496], [20.0823936, 43.7319156],
     [20.082002600000003, 43.7318395],
     [20.081913500000002, 43.731827100000004],
     [20.0818397, 43.731826500000004], [20.0817713, 43.7318336],
     [20.081610400000002, 43.731880600000004],
     [20.0815252, 43.731899000000006], [20.0814461, 43.7319082],
     [20.0811658, 43.7319169], [20.0810853, 43.731913000000006],
     [20.0809956, 43.7319011],
     [20.080896900000003, 43.731878200000004],
     [20.0807641, 43.731844300000006],
     [20.0806039, 43.731794900000004], [20.0804818, 43.7317503],
     [20.0802942, 43.7316823], [20.080199, 43.731654600000006],
     [20.0801103, 43.731643000000005],
     [20.0800312, 43.731642900000004], [20.079938900000002, 43.731655],
     [20.0798497, 43.731680700000005], [20.0795196, 43.731838],
     [20.0791991, 43.732013900000005],
     [20.078894000000002, 43.7322009],
     [20.0787699, 43.732271100000006],
     [20.078649900000002, 43.732331200000004],
     [20.078454400000002, 43.732419], [20.0783801, 43.7324442],
     [20.0783151, 43.732453500000005], [20.078242, 43.732451700000006],
     [20.078167200000003, 43.7324362],
     [20.0780813, 43.732417500000004],
     [20.0780035, 43.732400500000004], [20.0777158, 43.7323438],
     [20.0773906, 43.732276500000005],
     [20.077037200000003, 43.7321626],
     [20.0769246, 43.732121400000004], [20.0768287, 43.7320793],
     [20.0766463, 43.7319722], [20.0765275, 43.7318937],
     [20.076434300000003, 43.7318365], [20.0763353, 43.7317922]]}},
  {"type":"Feature",
   "properties":{},
   "geometry":
   {"type":"LineString",
    "coordinates":
    [[20.0763353, 43.7317922], [20.076067400000003, 43.7317929],
     [20.0757724, 43.731870400000005],
     [20.0754586, 43.731953700000005], [20.0750804, 43.7319692],
     [20.074273, 43.731951800000004], [20.0740182, 43.7318665],
     [20.0737071, 43.7316281],
     [20.073304800000003, 43.731476900000004],
     [20.072862200000003, 43.73138], [20.072427700000002, 43.731413],
     [20.072014600000003, 43.7315254],
     [20.071687400000002, 43.731651400000004],
     [20.071446, 43.732056400000005],
     [20.071228700000002, 43.732447900000004],
     [20.0709954, 43.7328181], [20.0708935, 43.733134],
     [20.070788800000003, 43.7334848],
     [20.070700300000002, 43.7338937], [20.0705072, 43.734074],
     [20.0704402, 43.734324], [20.0702149, 43.734444100000005],
     [20.070247000000002, 43.7346244], [20.0706816, 43.734886],
     [20.071059700000003, 43.7351321], [20.0714031, 43.7352969],
     [20.071987800000002, 43.7354442], [20.0718, 43.735734900000004],
     [20.0718, 43.7358725], [20.0720844, 43.7361961],
     [20.0722346, 43.7364577], [20.072476, 43.7365701],
     [20.072568800000003, 43.736623300000005]]}},
  {"type":"Feature",
   "properties":{},
   "geometry":
   {"type":"LineString",
    "coordinates":
    [[20.072568800000003, 43.736623300000005],
     [20.073089200000002, 43.736621400000004],
     [20.0735746, 43.7367299], [20.0739217, 43.7368485],
     [20.0743964, 43.7369919], [20.0746287, 43.737228],
     [20.074682300000003, 43.7374683],
     [20.074682300000003, 43.737669800000006],
     [20.074639400000002, 43.737863600000004]]}},
  {"type":"Feature",
   "properties":{},
   "geometry":
   {"type":"LineString",
    "coordinates":
    [[20.073687200000002, 43.738699600000004],
     [20.0738133, 43.7385767], [20.0738455, 43.7384915],
     [20.073942000000002, 43.7383054],
     [20.074081500000002, 43.7382124],
     [20.074199500000002, 43.738041900000006],
     [20.0743176, 43.7378481], [20.0745107, 43.7378171],
     [20.074639400000002, 43.737863600000004]]}},
  {"type":"Feature",
   "properties":{},
   "geometry":
   {"type":"LineString",
    "coordinates":
    [[20.0736738, 43.7391659],
     [20.073687200000002, 43.738699600000004]]}},
  {"type":"Feature",
   "properties":{},
   "geometry":
   {"type":"LineString",
    "coordinates":
    [[20.0734163, 43.7411115], [20.0734378, 43.740754900000006],
     [20.0735773, 43.7404759], [20.0737275, 43.7402743],
     [20.073824000000002, 43.739995300000004],
     [20.073824000000002, 43.739894500000005],
     [20.0737275, 43.739553400000005], [20.0736738, 43.7391659]]}},
  {"type":"Feature",
   "properties":{},
   "geometry":
   {"type":"LineString",
    "coordinates":
    [[20.0734163, 43.7411115], [20.0732672, 43.7413703],
     [20.073184100000002, 43.7416551], [20.0731277, 43.7419226],
     [20.0731116, 43.7421221], [20.0733664, 43.742329500000004]]}},
  {"type":"Feature",
   "properties":{},
   "geometry":
   {"type":"LineString",
    "coordinates":
    [[20.0733664, 43.742329500000004], [20.0731264, 43.7427325],
     [20.0729708, 43.743089100000006],
     [20.072724100000002, 43.7434534]]}},
  {"type":"Feature",
   "properties":{},
   "geometry":
   {"type":"LineString",
    "coordinates":
    [[20.0733664, 43.742329500000004], [20.0731264, 43.7427325],
     [20.0729708, 43.743089100000006],
     [20.072724100000002, 43.7434534]]}},
  {"type":"Feature",
   "properties":{},
   "geometry":
   {"type":"LineString",
    "coordinates":
    [[20.0733664, 43.742329500000004], [20.0739364, 43.742221],
     [20.0741993, 43.742298500000004], [20.0746392, 43.74219],
     [20.075111200000002, 43.7419652],
     [20.075411600000002, 43.7417753], [20.0755243, 43.7415195],
     [20.075626200000002, 43.7413645],
     [20.076275300000002, 43.741345100000004],
     [20.0766135, 43.7413673]]}},
  {"type":"Feature",
   "properties":{},
   "geometry":
   {"type":"LineString",
    "coordinates":
    [[20.0766135, 43.7413673], [20.076989, 43.7413673],
     [20.077268, 43.741344000000005],
     [20.077728800000003, 43.741251000000005],
     [20.0782974, 43.741096000000006], [20.0788124, 43.7410262],
     [20.0794776, 43.7409874], [20.079756500000002, 43.7409254],
     [20.080014000000002, 43.7406851], [20.0802823, 43.7406541],
     [20.080453900000002, 43.740731700000005],
     [20.0806685, 43.7408634], [20.080979600000003, 43.7409874],
     [20.0812586, 43.7411115], [20.0815161, 43.7411115],
     [20.081752100000003, 43.7410185],
     [20.081934500000003, 43.7409927],
     [20.082202300000002, 43.740920100000004],
     [20.0827478, 43.7410226], [20.0829796, 43.740977400000006],
     [20.082991200000002, 43.740839300000005],
     [20.0828679, 43.7405921], [20.0827569, 43.740458800000006],
     [20.0825208, 43.740296], [20.0822778, 43.7402123],
     [20.0819522, 43.740172], [20.0817805, 43.740117700000006],
     [20.0816303, 43.7399472],
     [20.081494600000003, 43.739747200000004],
     [20.081312200000003, 43.7396697], [20.0810333, 43.7396077],
     [20.0807398, 43.7395906],
     [20.080614800000003, 43.739530200000004],
     [20.080689900000003, 43.739429400000006],
     [20.0809582, 43.7393286], [20.081162000000003, 43.7393209],
     [20.081451700000002, 43.739367400000006],
     [20.0818701, 43.739398400000006],
     [20.082192000000003, 43.7393907], [20.082546, 43.739313100000004],
     [20.0830181, 43.7392356], [20.0832863, 43.7392356],
     [20.0835331, 43.739313100000004],
     [20.0838335, 43.739336400000006], [20.084091, 43.7393054],
     [20.0842734, 43.7392356], [20.084452000000002, 43.7392418],
     [20.0848383, 43.739451100000004],
     [20.0852352, 43.739598400000006], [20.085614500000002, 43.739755],
     [20.0858789, 43.7398309],
     [20.086073900000002, 43.739845200000005]]}},
  {"type":"Feature",
   "properties":{},
   "geometry":
   {"type":"LineString",
    "coordinates":
    [[20.0874062, 43.740909900000005],
     [20.087170200000003, 43.7407782], [20.0870414, 43.7405922],
     [20.086730300000003, 43.7402821],
     [20.086290400000003, 43.740018500000005],
     [20.086073900000002, 43.739845200000005]]}},
  {"type":"Feature",
   "properties":{},
   "geometry":
   {"type":"LineString",
    "coordinates":
    [[20.090920800000003, 43.746671], [20.0909471, 43.7463129],
     [20.0910008, 43.745836000000004], [20.090878, 43.7455143],
     [20.0907398, 43.7452814], [20.090570900000003, 43.744871],
     [20.0905171, 43.744654700000005], [20.0905248, 43.7441888],
     [20.0904634, 43.744005800000004],
     [20.0903406, 43.743795000000006],
     [20.0901143, 43.743409400000004], [20.090092600000002, 43.743229],
     [20.090152800000002, 43.7430493],
     [20.090131300000003, 43.742855500000005], [20.0899275, 43.742716],
     [20.089562700000002, 43.7425377],
     [20.089358800000003, 43.7424059],
     [20.089047700000002, 43.7420649], [20.0887785, 43.7418957],
     [20.0883825, 43.7416928], [20.0879105, 43.741406000000005],
     [20.0875886, 43.7410572], [20.0874062, 43.740909900000005]]}},
  {"type":"Feature",
   "properties":{},
   "geometry":
   {"type":"LineString",
    "coordinates":
    [[20.0905649, 43.746926800000004],
     [20.090631300000002, 43.7469059],
     [20.090687000000003, 43.7468822],
     [20.0907373, 43.746850200000004],
     [20.090920800000003, 43.746671]]}},
  {"type":"Feature",
   "properties":{},
   "geometry":
   {"type":"LineString",
    "coordinates":
    [[20.0905649, 43.746926800000004], [20.0905676, 43.7469381],
     [20.090566900000002, 43.7469522], [20.0905059, 43.7471748],
     [20.090478400000002, 43.7472605],
     [20.090449600000003, 43.7473438],
     [20.090315500000003, 43.7477018]]}},
  {"type":"Feature",
   "properties":{},
   "geometry":
   {"type":"LineString",
    "coordinates":
    [[20.090315500000003, 43.7477018], [20.0903074, 43.7478525],
     [20.0902967, 43.7478946], [20.0902773, 43.747943],
     [20.0902189, 43.7480278], [20.090204800000002, 43.7480612],
     [20.090194800000003, 43.7480995],
     [20.090194800000003, 43.748136300000006],
     [20.0902062, 43.748175100000005],
     [20.090240400000003, 43.7482497]]}},
  {"type":"Feature",
   "properties":{},
   "geometry":
   {"type":"LineString",
    "coordinates":
    [[20.0901509, 43.7492188], [20.0900211, 43.748946600000004],
     [20.0900211, 43.748690800000006],
     [20.090208800000003, 43.7485048],
     [20.090272900000002, 43.7483656],
     [20.090240400000003, 43.7482497]]}},
  {"type":"Feature",
   "properties":{},
   "geometry":
   {"type":"LineString",
    "coordinates":
    [[20.089792900000003, 43.749777800000004],
     [20.0903703, 43.7494549], [20.0903423, 43.749370600000006],
     [20.0901509, 43.7492188]]}},
  {"type":"Feature",
   "properties":{},
   "geometry":
   {"type":"LineString",
    "coordinates":
    [[20.090272000000002, 43.750094700000005],
     [20.0902181, 43.7500731], [20.0901581, 43.750040500000004],
     [20.090087200000003, 43.749997400000005],
     [20.0899702, 43.749913500000005],
     [20.089792900000003, 43.749777800000004]]}},
  {"type":"Feature",
   "properties":{},
   "geometry":
   {"type":"LineString",
    "coordinates":
    [[20.0920774, 43.751584300000005],
     [20.0910167, 43.750727000000005],
     [20.090714000000002, 43.750488600000004],
     [20.0904761, 43.7502949], [20.0903725, 43.7502148],
     [20.0903192, 43.7501714], [20.0902987, 43.750140800000004],
     [20.090272000000002, 43.750094700000005]]}},
  {"type":"Feature",
   "properties":{},
   "geometry":
   {"type":"LineString",
    "coordinates":
    [[20.093214, 43.7524412], [20.0930937, 43.7523737],
     [20.0926088, 43.7520205], [20.0920774, 43.751584300000005]]}},
  {"type":"Feature",
   "properties":{},
   "geometry":
   {"type":"LineString",
    "coordinates":
    [[20.0947602, 43.7526175],
     [20.094599000000002, 43.752599100000005],
     [20.093214, 43.7524412]]}},
  {"type":"Feature",
   "properties":{},
   "geometry":
   {"type":"LineString",
    "coordinates":
    [[20.0947602, 43.7526175], [20.094847700000003, 43.7525417],
     [20.0955045, 43.7519726], [20.0955184, 43.751960700000005],
     [20.095645, 43.751852], [20.0958967, 43.751634],
     [20.0959177, 43.7516157], [20.0959936, 43.75155]]}},
  {"type":"Feature",
   "properties":{},
   "geometry":
   {"type":"LineString",
    "coordinates":
    [[20.0972496, 43.7525479], [20.0972374, 43.752543800000005],
     [20.0971435, 43.752505500000005],
     [20.097102800000002, 43.7524868],
     [20.097049600000002, 43.7524594], [20.0969215, 43.7523665],
     [20.0967214, 43.7521937],
     [20.096375600000002, 43.751892700000006],
     [20.096202100000003, 43.7517489],
     [20.096066800000003, 43.7516301],
     [20.096041200000002, 43.7516021], [20.0959936, 43.75155]]}},
  {"type":"Feature",
   "properties":{},
   "geometry":
   {"type":"LineString",
    "coordinates":
    [[20.0967212, 43.7529209],
     [20.097147800000002, 43.752619800000005],
     [20.0972496, 43.7525479]]}}]}
