{"type":"FeatureCollection",
 "properties":{},
 "features":
 [{"type":"Feature",
   "properties":{},
   "geometry":
   {"type":"LineString",
    "coordinates":
    [[19.7559688, 43.847756600000004],
     [19.7562947, 43.847780500000006],
     [19.756562900000002, 43.8478153],
     [19.7567936, 43.847927500000004],
     [19.757077900000002, 43.8480861], [19.7574159, 43.8482834],
     [19.7574963, 43.8483299], [19.7576465, 43.848291200000006],
     [19.7579362, 43.848194500000005], [19.7582098, 43.8480823],
     [19.758456600000002, 43.8479681], [19.7586483, 43.8478298],
     [19.7588629, 43.8476577], [19.758989, 43.8475958],
     [19.759276, 43.847549400000005], [19.7595925, 43.847537700000004],
     [19.7598285, 43.847493300000004], [19.7601289, 43.847352],
     [19.760373, 43.847249500000004], [19.760667, 43.8471257],
     [19.7608478, 43.846986400000006], [19.7610563, 43.846823],
     [19.7614352, 43.8465726], [19.761490300000002, 43.8465366],
     [19.7618014, 43.8463635], [19.7620299, 43.846230500000004],
     [19.762183500000003, 43.8461914],
     [19.762339100000002, 43.8461605],
     [19.762616100000002, 43.8460752],
     [19.762853200000002, 43.8459237],
     [19.762953500000002, 43.8458041],
     [19.762953500000002, 43.845778900000006]]}},
  {"type":"Feature",
   "properties":{},
   "geometry":
   {"type":"LineString",
    "coordinates":
    [[19.7533549, 43.846509700000006], [19.7536601, 43.846584],
     [19.753998600000003, 43.8466852],
     [19.754645800000002, 43.8468467],
     [19.7548436, 43.846870800000005], [19.7552714, 43.847002],
     [19.7552995, 43.8470157],
     [19.755467900000003, 43.847177300000006],
     [19.755587600000002, 43.847343900000006],
     [19.755776400000002, 43.847621600000004],
     [19.7559688, 43.847756600000004]]}},
  {"type":"Feature",
   "properties":{},
   "geometry":
   {"type":"LineString",
    "coordinates":
    [[19.7473126, 43.8440643], [19.7475795, 43.8441489],
     [19.747786, 43.8443972], [19.7479513, 43.844585900000006],
     [19.748185300000003, 43.8447796],
     [19.7483712, 43.845027800000004],
     [19.748557100000003, 43.8452215],
     [19.748639700000002, 43.8453506], [19.7486757, 43.8456198],
     [19.7488244, 43.8459899], [19.749111000000003, 43.8462911],
     [19.749564000000003, 43.8465438], [19.7497693, 43.8467506],
     [19.749921500000003, 43.8468578], [19.7500737, 43.8469471],
     [19.7502338, 43.846886000000005], [19.7503745, 43.8468323],
     [19.7511885, 43.8464698], [19.7516274, 43.8464417],
     [19.752176000000002, 43.846423900000005], [19.75299, 43.8464953],
     [19.7533549, 43.846509700000006]]}},
  {"type":"Feature",
   "properties":{},
   "geometry":
   {"type":"LineString",
    "coordinates":
    [[19.7473126, 43.8440643], [19.7472827, 43.8441905],
     [19.747180800000002, 43.8444227],
     [19.747108400000002, 43.8446471],
     [19.746966200000003, 43.844778600000005],
     [19.746858900000003, 43.845012700000005],
     [19.746720500000002, 43.845219400000005]]}},
  {"type":"Feature",
   "properties":{},
   "geometry":
   {"type":"LineString",
    "coordinates":
    [[19.7461512, 43.846401900000004], [19.746227, 43.846206],
     [19.746307400000003, 43.8460029], [19.7463959, 43.8458868],
     [19.746444200000003, 43.8458404], [19.7464657, 43.8457379],
     [19.7465301, 43.845602400000004], [19.7466373, 43.8454187],
     [19.746669500000003, 43.845345200000004],
     [19.746720500000002, 43.845219400000005]]}},
  {"type":"Feature",
   "properties":{},
   "geometry":
   {"type":"LineString",
    "coordinates":
    [[19.7461512, 43.846401900000004],
     [19.746172700000002, 43.8464657], [19.7462838, 43.8466182],
     [19.7465027, 43.846932800000005],
     [19.746491900000002, 43.8469787],
     [19.746398600000003, 43.847053300000006], [19.7461348, 43.847214],
     [19.7454813, 43.8475526], [19.7451104, 43.847733000000005],
     [19.7448403, 43.847840500000004],
     [19.744557800000003, 43.847950600000004]]}},
  {"type":"Feature",
   "properties":{},
   "geometry":
   {"type":"LineString",
    "coordinates":
    [[19.744557800000003, 43.847950600000004],
     [19.744309400000002, 43.848107500000005],
     [19.744171400000003, 43.848326500000006], [19.744178, 43.8485874],
     [19.744171, 43.848729600000006], [19.7441803, 43.848947100000004],
     [19.7441454, 43.8493378],
     [19.744116100000003, 43.849419000000005],
     [19.7441295, 43.849560200000006],
     [19.7442046, 43.849633700000005], [19.7443145, 43.8496704],
     [19.7444433, 43.8496607], [19.7445318, 43.8496182],
     [19.744674, 43.849538900000006], [19.7449234, 43.849440200000004],
     [19.7450628, 43.849417100000004], [19.7452158, 43.8494693],
     [19.7452882, 43.849548600000006],
     [19.7453873, 43.849622100000005],
     [19.7455482, 43.849738200000004], [19.745685, 43.849833000000004],
     [19.745759, 43.8499295]]}},
  {"type":"Feature",
   "properties":{},
   "geometry":
   {"type":"LineString",
    "coordinates":
    [[19.7459791, 43.8505875],
     [19.745975700000002, 43.850523700000004],
     [19.7459373, 43.850465400000004],
     [19.745889000000002, 43.8504074],
     [19.7458139, 43.850328100000006],
     [19.745765600000002, 43.8502024],
     [19.745792400000003, 43.850008900000006],
     [19.745759, 43.8499295]]}},
  {"type":"Feature",
   "properties":{},
   "geometry":
   {"type":"LineString",
    "coordinates":
    [[19.7453213, 43.8507423], [19.7455466, 43.850630100000004],
     [19.745745000000003, 43.8505837],
     [19.745842200000002, 43.8505757], [19.7459791, 43.8505875]]}},
  {"type":"Feature",
   "properties":{},
   "geometry":
   {"type":"LineString",
    "coordinates":
    [[19.741738, 43.8565398], [19.741844, 43.8564267],
     [19.742134200000002, 43.8561664],
     [19.742233300000002, 43.8558499],
     [19.742162500000003, 43.8555283],
     [19.742105900000002, 43.855247600000006],
     [19.7420917, 43.855012800000004],
     [19.742205000000002, 43.8547627], [19.7422414, 43.8547157],
     [19.742339400000002, 43.8545892],
     [19.742613900000002, 43.854239400000004],
     [19.742731600000003, 43.8538774],
     [19.742830700000003, 43.8535781],
     [19.7428741, 43.853113400000005], [19.743041400000003, 43.852814],
     [19.7434751, 43.8525727], [19.7439894, 43.852175],
     [19.7445533, 43.8517773], [19.744826, 43.851486900000005],
     [19.7450614, 43.851116000000005], [19.7452225, 43.8508523],
     [19.7453213, 43.8507423]]}},
  {"type":"Feature",
   "properties":{},
   "geometry":
   {"type":"LineString",
    "coordinates":
    [[19.741738, 43.8565398], [19.741617400000003, 43.856687],
     [19.741510100000003, 43.8569199], [19.7415154, 43.8572025],
     [19.7414954, 43.857346400000004], [19.7413706, 43.8574404],
     [19.7410755, 43.857542900000006],
     [19.7406678, 43.857710100000006], [19.7404031, 43.8577724]]}},
  {"type":"Feature",
   "properties":{},
   "geometry":
   {"type":"LineString",
    "coordinates":
    [[19.7374532, 43.8563551], [19.7375297, 43.856538900000004],
     [19.737675900000003, 43.856717800000006],
     [19.7378301, 43.856840600000005],
     [19.738144000000002, 43.8569102],
     [19.738380000000003, 43.8569885], [19.738561, 43.857097100000004],
     [19.7387836, 43.8572093], [19.7390894, 43.8573734],
     [19.739318700000002, 43.857440100000005],
     [19.739502400000003, 43.8574779], [19.7397439, 43.8574994],
     [19.739971800000003, 43.8575893], [19.740222600000003, 43.857681],
     [19.7404031, 43.8577724]]}},
  {"type":"Feature",
   "properties":{},
   "geometry":
   {"type":"LineString",
    "coordinates":
    [[19.7332472, 43.856698900000005], [19.7336634, 43.8565442],
     [19.7343788, 43.8562835],
     [19.734840300000002, 43.856150400000004],
     [19.7355096, 43.8560561], [19.7361942, 43.8559563],
     [19.736564, 43.8559971], [19.736795, 43.8560327],
     [19.7370772, 43.8560881], [19.7372567, 43.8561563],
     [19.737436900000002, 43.8562274], [19.7374532, 43.8563551]]}},
  {"type":"Feature",
   "properties":{},
   "geometry":
   {"type":"LineString",
    "coordinates":
    [[19.7315533, 43.8539557], [19.7318429, 43.854049200000006],
     [19.73214, 43.8539876], [19.7321829, 43.8540901],
     [19.7321449, 43.854350800000006], [19.7320871, 43.8546038],
     [19.7318743, 43.855023700000004],
     [19.7320308, 43.855355800000005],
     [19.7321955, 43.855721300000006], [19.7325757, 43.8562238],
     [19.7326903, 43.8563886], [19.7327498, 43.856655200000006],
     [19.7328151, 43.856695300000005],
     [19.7332472, 43.856698900000005]]}},
  {"type":"Feature",
   "properties":{},
   "geometry":
   {"type":"LineString",
    "coordinates":
    [[19.7324813, 43.8509472], [19.732526, 43.850982],
     [19.7325467, 43.8512451], [19.7325467, 43.851448700000006],
     [19.7324753, 43.851648700000005],
     [19.732388800000003, 43.8517725], [19.7322795, 43.8518977],
     [19.7320166, 43.852125], [19.7318611, 43.852253600000004],
     [19.7317176, 43.8523784], [19.7316411, 43.8524572],
     [19.7316277, 43.852479], [19.731629, 43.8525002],
     [19.731636400000003, 43.8525172],
     [19.731657900000002, 43.8525288],
     [19.7316921, 43.852538900000006], [19.731741, 43.852541300000006],
     [19.731801400000002, 43.852532100000005],
     [19.7318691, 43.852517600000006], [19.7319415, 43.8524881],
     [19.732010600000002, 43.8524572], [19.7321031, 43.8524292],
     [19.7322017, 43.852407400000004],
     [19.732290900000002, 43.8523939],
     [19.732379400000003, 43.852388100000006],
     [19.732444400000002, 43.8523842],
     [19.732483300000002, 43.8523895], [19.7325041, 43.8523982],
     [19.7325135, 43.852411700000005], [19.7325135, 43.8524253],
     [19.7325041, 43.8524441], [19.7324753, 43.852480400000005],
     [19.7323358, 43.8526037], [19.7322902, 43.852657900000004],
     [19.7322634, 43.8527082],
     [19.732225800000002, 43.852777800000005],
     [19.7321601, 43.852874500000006], [19.7320931, 43.8530041],
     [19.732020600000002, 43.8531172],
     [19.7319067, 43.853226500000005],
     [19.7317846, 43.853318400000006],
     [19.7316881, 43.853416100000004],
     [19.7316076, 43.853514700000005],
     [19.7315338, 43.853595000000006], [19.7310242, 43.8537613],
     [19.7310404, 43.8538415], [19.7315533, 43.8539557]]}},
  {"type":"Feature",
   "properties":{},
   "geometry":
   {"type":"LineString",
    "coordinates":
    [[19.7324813, 43.8509472], [19.732819900000003, 43.8507641],
     [19.733246700000002, 43.850699600000006],
     [19.7335098, 43.8505672], [19.7336935, 43.8506352],
     [19.7343139, 43.8510648], [19.734626900000002, 43.8515055],
     [19.7348401, 43.8518057], [19.7349292, 43.8521335]]}},
  {"type":"Feature",
   "properties":{},
   "geometry":
   {"type":"LineString",
    "coordinates":
    [[19.7349292, 43.8521335], [19.7351332, 43.8522157],
     [19.7353212, 43.852361], [19.735396100000003, 43.8522389],
     [19.7355194, 43.851972], [19.7356294, 43.851736],
     [19.735578500000003, 43.8515639], [19.7356187, 43.8514575],
     [19.7357474, 43.8515503], [19.7358172, 43.851631600000005],
     [19.7359942, 43.8517902], [19.7361364, 43.8517573],
     [19.7362195, 43.8516045], [19.7362061, 43.8514807],
     [19.7364126, 43.8514265], [19.7367372, 43.8514227],
     [19.736902200000003, 43.8514702]]}},
  {"type":"Feature",
   "properties":{},
   "geometry":
   {"type":"LineString",
    "coordinates":
    [[19.7383326, 43.850927500000004],
     [19.7382916, 43.851037000000005],
     [19.738250100000002, 43.8511047],
     [19.738185700000002, 43.851174300000004],
     [19.738103900000002, 43.851242500000005],
     [19.7380637, 43.8512652], [19.7380026, 43.851280200000005],
     [19.7379135, 43.8512913], [19.7378249, 43.8512962],
     [19.737705700000003, 43.8513041],
     [19.7375876, 43.851318400000004],
     [19.737470300000002, 43.8513394], [19.7373556, 43.8513668],
     [19.7372807, 43.851391500000005],
     [19.737204000000002, 43.8514132], [19.737086, 43.8514325],
     [19.736986, 43.851449900000006], [19.7369525, 43.8514588],
     [19.736902200000003, 43.8514702]]}},
  {"type":"Feature",
   "properties":{},
   "geometry":
   {"type":"LineString",
    "coordinates":
    [[19.744557800000003, 43.847950600000004],
     [19.7444165, 43.847892800000004],
     [19.7441697, 43.847885000000005],
     [19.7439097, 43.847929400000005],
     [19.743590400000002, 43.8479876],
     [19.7432869, 43.848086200000004], [19.742650100000002, 43.848379],
     [19.7424497, 43.8485719],
     [19.742335100000002, 43.848738100000006],
     [19.7421876, 43.848848800000006],
     [19.7420288, 43.848996500000005], [19.7418365, 43.8491653],
     [19.740837600000003, 43.8494577], [19.7404112, 43.8495572],
     [19.7402398, 43.849563200000006],
     [19.7399723, 43.849765100000006], [19.7397466, 43.8499641],
     [19.7393579, 43.8500877], [19.739103, 43.8501962],
     [19.7388313, 43.850286600000004], [19.7385679, 43.8504464],
     [19.738392400000002, 43.8506543], [19.7383422, 43.8508864],
     [19.7383326, 43.850927500000004]]}},
  {"type":"Feature",
   "properties":{},
   "geometry":
   {"type":"LineString",
    "coordinates":
    [[19.7461512, 43.846401900000004],
     [19.746172700000002, 43.8464657], [19.7462838, 43.8466182],
     [19.7465027, 43.846932800000005],
     [19.746491900000002, 43.8469787],
     [19.746398600000003, 43.847053300000006], [19.7461348, 43.847214],
     [19.7454813, 43.8475526], [19.7451104, 43.847733000000005],
     [19.7448403, 43.847840500000004],
     [19.744557800000003, 43.847950600000004]]}},
  {"type":"Feature",
   "properties":{},
   "geometry":
   {"type":"LineString",
    "coordinates":
    [[19.7461512, 43.846401900000004], [19.746227, 43.846206],
     [19.746307400000003, 43.8460029], [19.7463959, 43.8458868],
     [19.746444200000003, 43.8458404], [19.7464657, 43.8457379],
     [19.7465301, 43.845602400000004], [19.7466373, 43.8454187],
     [19.746669500000003, 43.845345200000004],
     [19.746720500000002, 43.845219400000005]]}},
  {"type":"Feature",
   "properties":{},
   "geometry":
   {"type":"LineString",
    "coordinates":
    [[19.7473126, 43.8440643], [19.7472827, 43.8441905],
     [19.747180800000002, 43.8444227],
     [19.747108400000002, 43.8446471],
     [19.746966200000003, 43.844778600000005],
     [19.746858900000003, 43.845012700000005],
     [19.746720500000002, 43.845219400000005]]}},
  {"type":"Feature",
   "properties":{},
   "geometry":
   {"type":"LineString",
    "coordinates":
    [[19.7473126, 43.8440643], [19.7475795, 43.8441489],
     [19.747786, 43.8443972], [19.7479513, 43.844585900000006],
     [19.748185300000003, 43.8447796],
     [19.7483712, 43.845027800000004],
     [19.748557100000003, 43.8452215],
     [19.748639700000002, 43.8453506], [19.7486757, 43.8456198],
     [19.7488244, 43.8459899], [19.749111000000003, 43.8462911],
     [19.749564000000003, 43.8465438], [19.7497693, 43.8467506],
     [19.749921500000003, 43.8468578], [19.7500737, 43.8469471],
     [19.7502338, 43.846886000000005], [19.7503745, 43.8468323],
     [19.7511885, 43.8464698], [19.7516274, 43.8464417],
     [19.752176000000002, 43.846423900000005], [19.75299, 43.8464953],
     [19.7533549, 43.846509700000006]]}},
  {"type":"Feature",
   "properties":{},
   "geometry":
   {"type":"LineString",
    "coordinates":
    [[19.7533549, 43.846509700000006],
     [19.7530247, 43.846399500000004],
     [19.7528474, 43.846316300000005],
     [19.752748500000003, 43.846220900000006],
     [19.752661800000002, 43.8461705],
     [19.752484300000003, 43.8461287],
     [19.7523303, 43.846067000000005],
     [19.752090000000003, 43.8459668],
     [19.751925800000002, 43.8458954],
     [19.751696300000003, 43.845806800000005],
     [19.7515584, 43.845779300000004], [19.7514936, 43.8457434],
     [19.751461000000003, 43.845699800000006],
     [19.7514073, 43.8454299], [19.751422700000003, 43.8451986],
     [19.751356400000002, 43.8450396], [19.7513131, 43.8450022],
     [19.7512617, 43.84499], [19.7511447, 43.8450148],
     [19.7510128, 43.8450506], [19.75085, 43.8450642],
     [19.750807400000003, 43.8450396],
     [19.7508029, 43.844983500000005],
     [19.750844100000002, 43.8449186], [19.7508725, 43.844856],
     [19.750864200000002, 43.8447856],
     [19.750847800000003, 43.8447248],
     [19.750836200000002, 43.8446542], [19.750854, 43.844589400000004],
     [19.750971200000002, 43.8444572],
     [19.751014400000003, 43.8443357],
     [19.7510289, 43.844237400000004],
     [19.751057600000003, 43.8441497],
     [19.7511598, 43.844098800000005],
     [19.751306800000002, 43.844096900000004], [19.751453, 43.8440996],
     [19.7515642, 43.844069000000005],
     [19.7516469, 43.843993600000005],
     [19.751836100000002, 43.843779000000005]]}},
  {"type":"Feature",
   "properties":{},
   "geometry":
   {"type":"LineString",
    "coordinates":
    [[19.751836100000002, 43.843779000000005],
     [19.7525438, 43.8441058], [19.7527455, 43.844305500000004],
     [19.7528522, 43.844499400000004],
     [19.753184400000002, 43.8450555], [19.7534058, 43.845412],
     [19.7535798, 43.845586000000004],
     [19.753797300000002, 43.8457257]]}},
  {"type":"Feature",
   "properties":{},
   "geometry":
   {"type":"LineString",
    "coordinates":
    [[19.753797300000002, 43.8457257],
     [19.7541927, 43.845888300000006],
     [19.7544656, 43.845945300000004], [19.7547187, 43.8459567],
     [19.755050800000003, 43.8459282],
     [19.755318600000003, 43.8458629], [19.7555847, 43.8457371],
     [19.7558298, 43.8455917]]}},
  {"type":"Feature",
   "properties":{},
   "geometry":
   {"type":"LineString",
    "coordinates":
    [[19.756765, 43.8453825], [19.756589100000003, 43.8453892],
     [19.7562371, 43.8454348], [19.7559891, 43.8455165],
     [19.7558298, 43.8455917]]}},
  {"type":"Feature",
   "properties":{},
   "geometry":
   {"type":"LineString",
    "coordinates":
    [[19.7640148, 43.8452544], [19.763931900000003, 43.8452721],
     [19.7638195, 43.8452971], [19.7637168, 43.845311800000005],
     [19.7635696, 43.8453158],
     [19.763347500000002, 43.845316800000006],
     [19.763121400000003, 43.845317800000004], [19.7628413, 43.845305],
     [19.762529400000002, 43.845294], [19.7622424, 43.8452992],
     [19.7618571, 43.8453346], [19.7607651, 43.845602400000004],
     [19.7604004, 43.8456453], [19.759810400000003, 43.8456283],
     [19.758923300000003, 43.845484400000004],
     [19.7584987, 43.8454683],
     [19.757752500000002, 43.845474100000004],
     [19.7573416, 43.8454634], [19.7570537, 43.845415700000004],
     [19.756765, 43.8453825]]}},
  {"type":"Feature",
   "properties":{},
   "geometry":
   {"type":"LineString",
    "coordinates":
    [[19.764630500000003, 43.845051600000005], [19.7645568, 43.84508],
     [19.7642804, 43.8451868], [19.7640864, 43.845239],
     [19.7640148, 43.8452544]]}},
  {"type":"Feature",
   "properties":{},
   "geometry":
   {"type":"LineString",
    "coordinates":
    [[19.764630500000003, 43.845051600000005], [19.7645568, 43.84508],
     [19.7642804, 43.8451868], [19.7640864, 43.845239],
     [19.7640148, 43.8452544]]}},
  {"type":"Feature",
   "properties":{},
   "geometry":
   {"type":"LineString",
    "coordinates":
    [[19.7635615, 43.8453947], [19.763730000000002, 43.8453759],
     [19.7638561, 43.845343], [19.7639634, 43.8452908],
     [19.7640148, 43.8452544]]}},
  {"type":"Feature",
   "properties":{},
   "geometry":
   {"type":"LineString",
    "coordinates":
    [[19.762924700000003, 43.8456047],
     [19.762973000000002, 43.8455104], [19.7630929, 43.8454592],
     [19.7634797, 43.8454089], [19.7635615, 43.8453947]]}},
  {"type":"Feature",
   "properties":{},
   "geometry":
   {"type":"LineString",
    "coordinates":
    [[19.762953500000002, 43.845778900000006],
     [19.762924700000003, 43.8456047]]}}]}
