{"type":"FeatureCollection",
 "properties":{},
 "features":
 [{"type":"Feature",
   "properties":{},
   "geometry":
   {"type":"LineString",
    "coordinates":
    [[21.374467000000003, 43.4273017],
     [21.374615300000002, 43.427288700000005],
     [21.3750477, 43.4272982], [21.3750971, 43.4273334],
     [21.375120000000003, 43.4274854],
     [21.375320600000002, 43.4275936], [21.3754367, 43.4276004],
     [21.3755886, 43.4276245], [21.3757921, 43.427711],
     [21.3759365, 43.427719100000004], [21.3761401, 43.4277006],
     [21.37657, 43.427625600000006]]}},
  {"type":"Feature",
   "properties":{},
   "geometry":
   {"type":"LineString",
    "coordinates":
    [[21.37657, 43.427625600000006], [21.3767076, 43.427563400000004],
     [21.377074800000003, 43.4274125], [21.3773266, 43.4273218],
     [21.3775301, 43.4272204], [21.3776757, 43.4270469],
     [21.3779004, 43.4268786], [21.3781375, 43.4267643],
     [21.378368000000002, 43.4267224],
     [21.378560500000003, 43.4267441], [21.378836500000002, 43.426842],
     [21.379112600000003, 43.4268318], [21.379597, 43.4266936]]}},
  {"type":"Feature",
   "properties":{},
   "geometry":
   {"type":"LineString",
    "coordinates":
    [[21.379597, 43.4266936], [21.3798157, 43.4266705],
     [21.380191800000002, 43.426645900000004],
     [21.380872500000002, 43.4264718], [21.3817415, 43.4263588],
     [21.3822189, 43.4262809], [21.3830129, 43.4261679],
     [21.3832865, 43.426171800000006], [21.3838873, 43.4263276],
     [21.384182300000003, 43.426362700000006],
     [21.384603700000003, 43.4265313],
     [21.385046000000003, 43.4266315], [21.3856435, 43.4267151],
     [21.385968700000003, 43.426838000000004],
     [21.3868383, 43.4273481], [21.3872669, 43.4274197],
     [21.3878945, 43.427652200000004],
     [21.388978100000003, 43.428111900000005],
     [21.3894448, 43.4283457], [21.389772, 43.4284431],
     [21.390206600000003, 43.4284626], [21.3906464, 43.4284703],
     [21.3909951, 43.4283924], [21.391595900000002, 43.4282327],
     [21.3919307, 43.4281224], [21.392222, 43.4280447],
     [21.3924191, 43.428055300000004],
     [21.392661200000003, 43.428110100000005],
     [21.392813800000003, 43.428209900000006]]}},
  {"type":"Feature",
   "properties":{},
   "geometry":
   {"type":"LineString",
    "coordinates":
    [[21.3930589, 43.4286358], [21.3928905, 43.428319800000004],
     [21.392813800000003, 43.428209900000006]]}},
  {"type":"Feature",
   "properties":{},
   "geometry":
   {"type":"LineString",
    "coordinates":
    [[21.3930589, 43.4286358], [21.393211, 43.4282076],
     [21.393393, 43.4280145], [21.393647100000003, 43.4279614],
     [21.3937481, 43.4278404], [21.393596900000002, 43.4275237],
     [21.393532500000003, 43.4272587],
     [21.393623700000003, 43.4270172],
     [21.393929500000002, 43.426541900000004],
     [21.3941762, 43.4263938], [21.3943747, 43.4263003],
     [21.3945678, 43.4263198], [21.3947395, 43.426386],
     [21.3949541, 43.426389900000004], [21.3952062, 43.4263003],
     [21.3955173, 43.426210700000006], [21.395825900000002, 43.426229],
     [21.3961659, 43.426293900000005],
     [21.396420000000003, 43.426182700000005], [21.3967281, 43.426138],
     [21.3967101, 43.426010700000006],
     [21.396273700000002, 43.4257276], [21.3960645, 43.4255757],
     [21.3961289, 43.4254705],
     [21.396241500000002, 43.425357500000004],
     [21.3961933, 43.4251432], [21.3958982, 43.4249134],
     [21.3957158, 43.424784800000005], [21.3957963, 43.4244653],
     [21.3960109, 43.424219900000004], [21.3962201, 43.4241108],
     [21.396863800000002, 43.4239471],
     [21.397561200000002, 43.4237328],
     [21.397743600000002, 43.4237406], [21.3980654, 43.4238536],
     [21.3983068, 43.4238653], [21.3989586, 43.423819900000005],
     [21.399402600000002, 43.423729900000005],
     [21.399655900000003, 43.4237504], [21.399725500000002, 43.423662],
     [21.3996274, 43.4234798],
     [21.399374400000003, 43.423343200000005],
     [21.3988808, 43.4232147], [21.398816500000002, 43.4230393],
     [21.398918400000003, 43.4228523],
     [21.3992617, 43.422684800000006], [21.399605, 43.422665300000006],
     [21.4000717, 43.422700400000004], [21.4002716, 43.4226169],
     [21.4006511, 43.422509500000004],
     [21.400779800000002, 43.4224393],
     [21.401176800000002, 43.422474400000006],
     [21.4014236, 43.422532800000006],
     [21.401686400000003, 43.422653600000004],
     [21.4019385, 43.4226692], [21.4021531, 43.422521100000004],
     [21.402201400000003, 43.4224471], [21.4020619, 43.4221939],
     [21.402051200000002, 43.4219406],
     [21.401917100000002, 43.4217068],
     [21.401911700000003, 43.4215237],
     [21.402217500000003, 43.4214575],
     [21.4026788, 43.421317200000004], [21.4029685, 43.4211964],
     [21.403226, 43.421126300000005], [21.403354800000002, 43.4210678],
     [21.4034406, 43.420966500000006],
     [21.403199200000003, 43.420697700000005],
     [21.4031777, 43.4205574], [21.403306500000003, 43.4202847],
     [21.4034781, 43.4201483], [21.4040843, 43.419630100000006],
     [21.4044598, 43.4193457], [21.404470500000002, 43.4191781],
     [21.4044545, 43.419108], [21.4046208, 43.418917],
     [21.4047334, 43.418835200000004], [21.4048085, 43.4186521],
     [21.404652900000002, 43.4186014], [21.404315, 43.4186988],
     [21.4039448, 43.4189677], [21.4037893, 43.4190534],
     [21.4033923, 43.4190807], [21.4031026, 43.419045600000004],
     [21.403032900000003, 43.418940400000004]]}},
  {"type":"Feature",
   "properties":{},
   "geometry":
   {"type":"LineString",
    "coordinates":
    [[21.403032900000003, 43.418940400000004],
     [21.4033482, 43.4188394], [21.4037022, 43.4186485],
     [21.403970400000002, 43.4183913], [21.404185000000002, 43.418064],
     [21.404453200000003, 43.417783500000006],
     [21.4046142, 43.417561400000004], [21.404641, 43.417218500000004],
     [21.4050058, 43.4169496], [21.4054188, 43.4166613],
     [21.4059016, 43.4164353], [21.406223500000003, 43.4161742],
     [21.406599, 43.4157767], [21.406813600000003, 43.4153364],
     [21.4071891, 43.414970100000005], [21.4074895, 43.4146428],
     [21.4078865, 43.414292100000004],
     [21.408160000000002, 43.4139804], [21.408455, 43.413854],
     [21.4087985, 43.4138025],
     [21.409034600000002, 43.413785600000004],
     [21.409208900000003, 43.413610000000006],
     [21.4093747, 43.413249300000004],
     [21.409506500000003, 43.4130685], [21.409744, 43.4130258],
     [21.4097604, 43.4130732], [21.409819900000002, 43.4130958],
     [21.409940900000002, 43.413051200000005],
     [21.409828400000002, 43.412721700000006],
     [21.4097453, 43.412570200000005], [21.4099247, 43.4126338],
     [21.409964600000002, 43.4126241], [21.4099854, 43.4125864],
     [21.409881600000002, 43.4124841], [21.4098155, 43.4123935],
     [21.4097225, 43.4121791], [21.409520200000003, 43.4119031],
     [21.409511300000002, 43.411627800000005],
     [21.4096081, 43.4116328], [21.4096556, 43.4116079],
     [21.4096505, 43.411664300000005],
     [21.409756400000003, 43.4116578],
     [21.4097848, 43.411705700000006], [21.409867900000002, 43.411679],
     [21.4100112, 43.411571300000006]]}},
  {"type":"Feature",
   "properties":{},
   "geometry":
   {"type":"LineString",
    "coordinates":
    [[21.403032900000003, 43.418940400000004],
     [21.4033482, 43.4188394], [21.4037022, 43.4186485],
     [21.403970400000002, 43.4183913], [21.404185000000002, 43.418064],
     [21.404453200000003, 43.417783500000006],
     [21.4046142, 43.417561400000004], [21.404641, 43.417218500000004],
     [21.4050058, 43.4169496], [21.4054188, 43.4166613],
     [21.4059016, 43.4164353], [21.406223500000003, 43.4161742],
     [21.406599, 43.4157767], [21.406813600000003, 43.4153364],
     [21.4071891, 43.414970100000005], [21.4074895, 43.4146428],
     [21.4078865, 43.414292100000004],
     [21.408160000000002, 43.4139804], [21.408455, 43.413854],
     [21.4087985, 43.4138025],
     [21.409034600000002, 43.413785600000004],
     [21.409208900000003, 43.413610000000006],
     [21.4093747, 43.413249300000004],
     [21.409506500000003, 43.4130685], [21.409744, 43.4130258],
     [21.4097604, 43.4130732], [21.409819900000002, 43.4130958],
     [21.409940900000002, 43.413051200000005],
     [21.409828400000002, 43.412721700000006],
     [21.4097453, 43.412570200000005], [21.4099247, 43.4126338],
     [21.409964600000002, 43.4126241], [21.4099854, 43.4125864],
     [21.409881600000002, 43.4124841], [21.4098155, 43.4123935],
     [21.4097225, 43.4121791], [21.409520200000003, 43.4119031],
     [21.409511300000002, 43.411627800000005],
     [21.4096081, 43.4116328], [21.4096556, 43.4116079],
     [21.4096505, 43.411664300000005],
     [21.409756400000003, 43.4116578],
     [21.4097848, 43.411705700000006], [21.409867900000002, 43.411679],
     [21.4100112, 43.411571300000006]]}},
  {"type":"Feature",
   "properties":{},
   "geometry":
   {"type":"LineString",
    "coordinates":
    [[21.3930589, 43.4286358], [21.393211, 43.4282076],
     [21.393393, 43.4280145], [21.393647100000003, 43.4279614],
     [21.3937481, 43.4278404], [21.393596900000002, 43.4275237],
     [21.393532500000003, 43.4272587],
     [21.393623700000003, 43.4270172],
     [21.393929500000002, 43.426541900000004],
     [21.3941762, 43.4263938], [21.3943747, 43.4263003],
     [21.3945678, 43.4263198], [21.3947395, 43.426386],
     [21.3949541, 43.426389900000004], [21.3952062, 43.4263003],
     [21.3955173, 43.426210700000006], [21.395825900000002, 43.426229],
     [21.3961659, 43.426293900000005],
     [21.396420000000003, 43.426182700000005], [21.3967281, 43.426138],
     [21.3967101, 43.426010700000006],
     [21.396273700000002, 43.4257276], [21.3960645, 43.4255757],
     [21.3961289, 43.4254705],
     [21.396241500000002, 43.425357500000004],
     [21.3961933, 43.4251432], [21.3958982, 43.4249134],
     [21.3957158, 43.424784800000005], [21.3957963, 43.4244653],
     [21.3960109, 43.424219900000004], [21.3962201, 43.4241108],
     [21.396863800000002, 43.4239471],
     [21.397561200000002, 43.4237328],
     [21.397743600000002, 43.4237406], [21.3980654, 43.4238536],
     [21.3983068, 43.4238653], [21.3989586, 43.423819900000005],
     [21.399402600000002, 43.423729900000005],
     [21.399655900000003, 43.4237504], [21.399725500000002, 43.423662],
     [21.3996274, 43.4234798],
     [21.399374400000003, 43.423343200000005],
     [21.3988808, 43.4232147], [21.398816500000002, 43.4230393],
     [21.398918400000003, 43.4228523],
     [21.3992617, 43.422684800000006], [21.399605, 43.422665300000006],
     [21.4000717, 43.422700400000004], [21.4002716, 43.4226169],
     [21.4006511, 43.422509500000004],
     [21.400779800000002, 43.4224393],
     [21.401176800000002, 43.422474400000006],
     [21.4014236, 43.422532800000006],
     [21.401686400000003, 43.422653600000004],
     [21.4019385, 43.4226692], [21.4021531, 43.422521100000004],
     [21.402201400000003, 43.4224471], [21.4020619, 43.4221939],
     [21.402051200000002, 43.4219406],
     [21.401917100000002, 43.4217068],
     [21.401911700000003, 43.4215237],
     [21.402217500000003, 43.4214575],
     [21.4026788, 43.421317200000004], [21.4029685, 43.4211964],
     [21.403226, 43.421126300000005], [21.403354800000002, 43.4210678],
     [21.4034406, 43.420966500000006],
     [21.403199200000003, 43.420697700000005],
     [21.4031777, 43.4205574], [21.403306500000003, 43.4202847],
     [21.4034781, 43.4201483], [21.4040843, 43.419630100000006],
     [21.4044598, 43.4193457], [21.404470500000002, 43.4191781],
     [21.4044545, 43.419108], [21.4046208, 43.418917],
     [21.4047334, 43.418835200000004], [21.4048085, 43.4186521],
     [21.404652900000002, 43.4186014], [21.404315, 43.4186988],
     [21.4039448, 43.4189677], [21.4037893, 43.4190534],
     [21.4033923, 43.4190807], [21.4031026, 43.419045600000004],
     [21.403032900000003, 43.418940400000004]]}},
  {"type":"Feature",
   "properties":{},
   "geometry":
   {"type":"LineString",
    "coordinates":
    [[21.3930589, 43.4286358], [21.3928905, 43.428319800000004],
     [21.392813800000003, 43.428209900000006]]}},
  {"type":"Feature",
   "properties":{},
   "geometry":
   {"type":"LineString",
    "coordinates":
    [[21.379597, 43.4266936], [21.3798157, 43.4266705],
     [21.380191800000002, 43.426645900000004],
     [21.380872500000002, 43.4264718], [21.3817415, 43.4263588],
     [21.3822189, 43.4262809], [21.3830129, 43.4261679],
     [21.3832865, 43.426171800000006], [21.3838873, 43.4263276],
     [21.384182300000003, 43.426362700000006],
     [21.384603700000003, 43.4265313],
     [21.385046000000003, 43.4266315], [21.3856435, 43.4267151],
     [21.385968700000003, 43.426838000000004],
     [21.3868383, 43.4273481], [21.3872669, 43.4274197],
     [21.3878945, 43.427652200000004],
     [21.388978100000003, 43.428111900000005],
     [21.3894448, 43.4283457], [21.389772, 43.4284431],
     [21.390206600000003, 43.4284626], [21.3906464, 43.4284703],
     [21.3909951, 43.4283924], [21.391595900000002, 43.4282327],
     [21.3919307, 43.4281224], [21.392222, 43.4280447],
     [21.3924191, 43.428055300000004],
     [21.392661200000003, 43.428110100000005],
     [21.392813800000003, 43.428209900000006]]}},
  {"type":"Feature",
   "properties":{},
   "geometry":
   {"type":"LineString",
    "coordinates":
    [[21.37657, 43.427625600000006], [21.3767076, 43.427563400000004],
     [21.377074800000003, 43.4274125], [21.3773266, 43.4273218],
     [21.3775301, 43.4272204], [21.3776757, 43.4270469],
     [21.3779004, 43.4268786], [21.3781375, 43.4267643],
     [21.378368000000002, 43.4267224],
     [21.378560500000003, 43.4267441], [21.378836500000002, 43.426842],
     [21.379112600000003, 43.4268318], [21.379597, 43.4266936]]}},
  {"type":"Feature",
   "properties":{},
   "geometry":
   {"type":"LineString",
    "coordinates":
    [[21.3744026, 43.427576900000005], [21.3743553, 43.4278089],
     [21.3743374, 43.4278902], [21.374348100000002, 43.4280148],
     [21.3742355, 43.4281512],
     [21.374106700000002, 43.428326500000004],
     [21.374133500000003, 43.428533], [21.3742516, 43.428661500000004],
     [21.374494300000002, 43.428681100000006], [21.374776, 43.4286079],
     [21.375033400000003, 43.4285495], [21.3752815, 43.4283878],
     [21.3755498, 43.428260300000005], [21.3756892, 43.4281979],
     [21.3758823, 43.4280265], [21.37657, 43.427625600000006]]}}]}
