{"type":"FeatureCollection",
 "properties":{},
 "features":
 [{"type":"Feature",
   "properties":{},
   "geometry":
   {"type":"LineString",
    "coordinates":
    [[21.5675597, 42.978077000000006],
     [21.567671200000003, 42.978105500000005],
     [21.567903, 42.978144300000004],
     [21.568179100000002, 42.978216200000006],
     [21.5684586, 42.9782803],
     [21.568853200000003, 42.978356600000005],
     [21.5691612, 42.9784473], [21.569337800000003, 42.9785066],
     [21.569509800000002, 42.9785586], [21.5697204, 42.9786104],
     [21.5699469, 42.9786635],
     [21.570247700000003, 42.978695800000004],
     [21.5706016, 42.9787088],
     [21.570836800000002, 42.978714800000006],
     [21.571142400000003, 42.978722700000006]]}},
  {"type":"Feature",
   "properties":{},
   "geometry":
   {"type":"LineString",
    "coordinates":
    [[21.5675597, 42.978077000000006], [21.5674846, 42.9780717],
     [21.5674093, 42.9780692], [21.5672934, 42.9780711],
     [21.5671781, 42.9780797], [21.5670642, 42.978095100000004],
     [21.5668235, 42.978096400000005], [21.566745, 42.9780876],
     [21.566665800000003, 42.978084100000004],
     [21.566586400000002, 42.978086100000006],
     [21.566485200000002, 42.9780965],
     [21.566386400000003, 42.978115800000005],
     [21.5661387, 42.9782194], [21.5660738, 42.9782646],
     [21.5660041, 42.9783057], [21.56593, 42.978342500000004],
     [21.565852, 42.978374800000005], [21.565765300000002, 42.9784038],
     [21.5656754, 42.978427200000006], [21.565583, 42.978444700000004],
     [21.5653459, 42.9785314]]}},
  {"type":"Feature",
   "properties":{},
   "geometry":
   {"type":"LineString",
    "coordinates":
    [[21.5653459, 42.9785314],
     [21.565215300000002, 42.978630200000005],
     [21.5651563, 42.978734200000005], [21.5651321, 42.9788834],
     [21.5650839, 42.9789717],
     [21.564981900000003, 42.979061900000005],
     [21.5648076, 42.9791267], [21.5644053, 42.979213],
     [21.5640807, 42.9792896], [21.5637884, 42.9793406],
     [21.5635604, 42.9793995], [21.5634102, 42.9794642]]}},
  {"type":"Feature",
   "properties":{},
   "geometry":
   {"type":"LineString",
    "coordinates":
    [[21.5634102, 42.9794642], [21.5631285, 42.979595700000004],
     [21.5629005, 42.9797017], [21.5627879, 42.9797409],
     [21.5626967, 42.979744800000006],
     [21.5625009, 42.979725200000004],
     [21.5623158, 42.979725200000004],
     [21.562154900000003, 42.979758600000004],
     [21.5618196, 42.9798861], [21.561535300000003, 42.980049]]}},
  {"type":"Feature",
   "properties":{},
   "geometry":
   {"type":"LineString",
    "coordinates":
    [[21.561535300000003, 42.980049], [21.561126400000003, 42.9799553],
     [21.560675800000002, 42.979869], [21.5602413, 42.9797865],
     [21.559737000000002, 42.979598200000005],
     [21.5590665, 42.9792685], [21.5586427, 42.978907400000004],
     [21.5583691, 42.978562100000005], [21.5576395, 42.9782756],
     [21.556926100000002, 42.9779459], [21.5560034, 42.9774435],
     [21.5555367, 42.9769451], [21.5549895, 42.976595800000005],
     [21.5548232, 42.9761837], [21.554002500000003, 42.9759443],
     [21.5536967, 42.974845300000005],
     [21.5534928, 42.974001400000006], [21.553466, 42.9738248],
     [21.553278300000002, 42.9730908],
     [21.5531602, 42.972498200000004],
     [21.552945700000002, 42.971819100000005],
     [21.5528276, 42.9711008], [21.552462900000002, 42.9709007],
     [21.5522537, 42.970465000000004], [21.551964, 42.970037100000006],
     [21.551749400000002, 42.9698605],
     [21.551341700000002, 42.969836900000004],
     [21.5510467, 42.9697702],
     [21.551068100000002, 42.969597500000006],
     [21.5512666, 42.969416900000006], [21.5511647, 42.9691618],
     [21.5514222, 42.9689616], [21.551674300000002, 42.9689969],
     [21.551990800000002, 42.968741800000004],
     [21.552216100000003, 42.9683179],
     [21.552039100000002, 42.9678782],
     [21.5523878, 42.967450400000004],
     [21.553094400000003, 42.967147600000004]]}},
  {"type":"Feature",
   "properties":{},
   "geometry":
   {"type":"LineString",
    "coordinates":
    [[21.552214600000003, 42.9667237],
     [21.552611600000002, 42.966951300000005],
     [21.553094400000003, 42.967147600000004]]}},
  {"type":"Feature",
   "properties":{},
   "geometry":
   {"type":"LineString",
    "coordinates":
    [[21.552214600000003, 42.9667237], [21.5521625, 42.9662688],
     [21.5525299, 42.966117700000005],
     [21.552682800000003, 42.9658802],
     [21.552371700000002, 42.965550500000006],
     [21.5519532, 42.965299200000004],
     [21.551561600000003, 42.9647653], [21.55139, 42.9641176],
     [21.5510145, 42.963305000000005], [21.5516958, 42.9629125],
     [21.552622300000003, 42.962633200000006]]}},
  {"type":"Feature",
   "properties":{},
   "geometry":
   {"type":"LineString",
    "coordinates":
    [[21.5521473, 42.9607472], [21.552, 42.960851000000005],
     [21.5520108, 42.961023700000005],
     [21.552064400000003, 42.9612514],
     [21.5519679, 42.961494800000004], [21.5518928, 42.9617068],
     [21.5519786, 42.961761700000004], [21.552161, 42.9617146],
     [21.552386300000002, 42.961824500000006],
     [21.552622300000003, 42.9618717],
     [21.552804700000003, 42.962020800000005],
     [21.552804700000003, 42.9621779],
     [21.552611600000002, 42.9624448],
     [21.552622300000003, 42.962633200000006]]}},
  {"type":"Feature",
   "properties":{},
   "geometry":
   {"type":"LineString",
    "coordinates":
    [[21.5521473, 42.9607472], [21.552043, 42.960568300000006],
     [21.552043, 42.960411300000004], [21.552064400000003, 42.9602778],
     [21.5520859, 42.9601051], [21.5521181, 42.959955900000004],
     [21.5521181, 42.9598695], [21.552107300000003, 42.9597046],
     [21.552096600000002, 42.9596497],
     [21.552053700000002, 42.9595476], [21.5519679, 42.9594298],
     [21.552043, 42.959304200000005], [21.5521181, 42.959217800000005],
     [21.552139500000003, 42.959123600000005],
     [21.5521932, 42.9590058], [21.5522254, 42.958848800000005],
     [21.552289700000003, 42.9587074],
     [21.552311200000002, 42.9586054]]}},
  {"type":"Feature",
   "properties":{},
   "geometry":
   {"type":"LineString",
    "coordinates":
    [[21.552311200000002, 42.9586054],
     [21.552364800000003, 42.958487600000005],
     [21.552461400000002, 42.958330600000004],
     [21.552718900000002, 42.9582677],
     [21.552869100000002, 42.9581735],
     [21.552976400000002, 42.958024300000005],
     [21.553126600000002, 42.9579694],
     [21.553201700000002, 42.9578751], [21.553266, 42.957757400000006],
     [21.553394800000003, 42.9577024],
     [21.5535235, 42.957671000000005],
     [21.553684500000003, 42.9576239], [21.553759600000003, 42.957459],
     [21.5538561, 42.9573255], [21.5538883, 42.957231300000004],
     [21.554049300000003, 42.957199900000006],
     [21.554199500000003, 42.9570899],
     [21.5542853, 42.956940700000004],
     [21.5543175, 42.956838700000006],
     [21.5544248, 42.956744400000005], [21.5545213, 42.9566424],
     [21.5546608, 42.956611], [21.5547037, 42.9565403],
     [21.5547037, 42.9564461], [21.554635, 42.956384400000005]]}},
  {"type":"Feature",
   "properties":{},
   "geometry":
   {"type":"LineString",
    "coordinates":
    [[21.552311200000002, 42.9586054],
     [21.552364800000003, 42.958487600000005],
     [21.552461400000002, 42.958330600000004],
     [21.552718900000002, 42.9582677],
     [21.552869100000002, 42.9581735],
     [21.552976400000002, 42.958024300000005],
     [21.553126600000002, 42.9579694],
     [21.553201700000002, 42.9578751], [21.553266, 42.957757400000006],
     [21.553394800000003, 42.9577024],
     [21.5535235, 42.957671000000005],
     [21.553684500000003, 42.9576239], [21.553759600000003, 42.957459],
     [21.5538561, 42.9573255], [21.5538883, 42.957231300000004],
     [21.554049300000003, 42.957199900000006],
     [21.554199500000003, 42.9570899],
     [21.5542853, 42.956940700000004],
     [21.5543175, 42.956838700000006],
     [21.5544248, 42.956744400000005], [21.5545213, 42.9566424],
     [21.5546608, 42.956611], [21.5547037, 42.9565403],
     [21.5547037, 42.9564461], [21.554635, 42.956384400000005]]}},
  {"type":"Feature",
   "properties":{},
   "geometry":
   {"type":"LineString",
    "coordinates":
    [[21.552311200000002, 42.9586054],
     [21.5524334, 42.958806100000004],
     [21.552808900000002, 42.9590024],
     [21.552583600000002, 42.959434200000004],
     [21.5526996, 42.959988200000005],
     [21.5530449, 42.960415700000006],
     [21.553517000000003, 42.9609418],
     [21.553774500000003, 42.961781900000005],
     [21.5544397, 42.9621901], [21.5552229, 42.9628968],
     [21.5557164, 42.9637997], [21.555802200000002, 42.9647182],
     [21.556574700000002, 42.9649067], [21.556521, 42.9654013],
     [21.5574917, 42.9657801], [21.5583193, 42.9659543]]}},
  {"type":"Feature",
   "properties":{},
   "geometry":
   {"type":"LineString",
    "coordinates":
    [[21.5583193, 42.9659543], [21.558555400000003, 42.9658601],
     [21.5589201, 42.9658365], [21.5591776, 42.9655696]]}},
  {"type":"Feature",
   "properties":{},
   "geometry":
   {"type":"LineString",
    "coordinates":
    [[21.5591776, 42.9655696], [21.5593171, 42.965718700000004],
     [21.5594888, 42.9657501],
     [21.559767700000002, 42.965718700000004],
     [21.5600467, 42.965718700000004],
     [21.560400700000002, 42.965718700000004],
     [21.5606475, 42.965687300000006], [21.5609264, 42.9656716],
     [21.561108800000003, 42.965624500000004], [21.561259, 42.9655539],
     [21.5615273, 42.9654832], [21.5618169, 42.9654832],
     [21.5621222, 42.965517000000006],
     [21.562321200000003, 42.965632400000004],
     [21.562428500000003, 42.965797200000004],
     [21.5625465, 42.9660171], [21.562503600000003, 42.9662055],
     [21.5623748, 42.9664724], [21.5622139, 42.966700100000004],
     [21.562020800000003, 42.966865000000006],
     [21.5618491, 42.9669906], [21.5616989, 42.9670848],
     [21.561420000000002, 42.967218300000006],
     [21.561141000000003, 42.967328200000004],
     [21.560808400000003, 42.967500900000005],
     [21.5606046, 42.9676971],
     [21.560432900000002, 42.967862000000004],
     [21.560261200000003, 42.9679562],
     [21.5600145, 42.968113200000005],
     [21.5598321, 42.968293800000005],
     [21.559628200000002, 42.9686235], [21.559639, 42.9687648],
     [21.559767700000002, 42.9688512],
     [21.560100300000002, 42.9688512],
     [21.5604866, 42.968835500000004],
     [21.560851300000003, 42.968819800000006],
     [21.5611517, 42.968733400000005],
     [21.5614092, 42.968639200000005],
     [21.5616667, 42.968552900000006],
     [21.561988600000003, 42.968482200000004], [21.562289, 42.968443],
     [21.5626645, 42.9683566], [21.5629864, 42.9682388],
     [21.5632331, 42.9680504], [21.5635657, 42.967932700000006],
     [21.5638554, 42.967862000000004],
     [21.564123600000002, 42.967752100000006],
     [21.5643919, 42.9675637], [21.5646172, 42.967414500000004],
     [21.565014100000003, 42.967234000000005],
     [21.5652502, 42.967124000000005],
     [21.565385600000003, 42.9670718],
     [21.5654657, 42.967021100000004],
     [21.565541200000002, 42.9669523],
     [21.565642800000003, 42.9668757],
     [21.565733700000003, 42.9668227],
     [21.565869300000003, 42.9667742], [21.5660218, 42.9667517],
     [21.5661451, 42.966734800000005]]}},
  {"type":"Feature",
   "properties":{},
   "geometry":
   {"type":"LineString",
    "coordinates":
    [[21.5661451, 42.966734800000005], [21.5662221, 42.9668092],
     [21.5662801, 42.9669042], [21.566399200000003, 42.9671034],
     [21.5664485, 42.9672026], [21.5664732, 42.9673753],
     [21.566411600000002, 42.9675025],
     [21.566366900000002, 42.9675881], [21.5663746, 42.9676569],
     [21.5664316, 42.9677426], [21.566528, 42.96786],
     [21.5665471, 42.9678666], [21.5666556, 42.9679955],
     [21.566685500000002, 42.9680607], [21.5667173, 42.9680982],
     [21.566811100000002, 42.9681578],
     [21.566890800000003, 42.9682005], [21.5669615, 42.9682808],
     [21.5670633, 42.968490100000004],
     [21.567264100000003, 42.968665400000006],
     [21.5673102, 42.9687314],
     [21.567354400000003, 42.968814300000005], [21.5673721, 42.968901],
     [21.567354400000003, 42.9689968],
     [21.567306600000002, 42.969114700000006], [21.56725, 42.969195],
     [21.5671509, 42.9692584], [21.5670518, 42.9693115],
     [21.566950900000002, 42.9693283],
     [21.5668784, 42.969325700000006],
     [21.5668465, 42.969314100000005], [21.5667757, 42.9692804],
     [21.566705000000002, 42.9692571],
     [21.566655400000002, 42.9692597],
     [21.566616500000002, 42.969275200000006],
     [21.5665775, 42.969333500000005], [21.5665698, 42.9693929],
     [21.566526900000003, 42.969604800000006],
     [21.566484000000003, 42.969816800000004], [21.566482, 42.9699006],
     [21.566482, 42.9699511], [21.5665078, 42.9699861],
     [21.566516200000002, 42.969997400000004],
     [21.566565200000003, 42.9700198],
     [21.5666271, 42.970083200000005],
     [21.566655400000002, 42.970182900000005],
     [21.5666769, 42.9705099], [21.5667054, 42.9707969],
     [21.5666993, 42.970920400000004],
     [21.5666818, 42.970972200000006],
     [21.5666586, 42.971040900000006], [21.566602, 42.9711906],
     [21.5665054, 42.971536], [21.566376700000003, 42.9718893],
     [21.5661728, 42.9723446], [21.565966200000002, 42.9727021],
     [21.565898500000003, 42.9728021],
     [21.565871700000002, 42.9728952], [21.565853, 42.972969500000005],
     [21.5657958, 42.9730472], [21.565731600000003, 42.9731113],
     [21.5656471, 42.9731767], [21.5655027, 42.9732403],
     [21.5653428, 42.973283], [21.5652179, 42.9733086],
     [21.5651431, 42.9733308], [21.5651107, 42.9733651],
     [21.5651081, 42.9733992], [21.565121, 42.9734299],
     [21.5651583, 42.973461500000006],
     [21.565257600000002, 42.9734983],
     [21.565423300000003, 42.973524700000006],
     [21.565926100000002, 42.9736084], [21.5666878, 42.9738125],
     [21.567299400000003, 42.9739931],
     [21.5678358, 42.974197200000006],
     [21.568254200000002, 42.974566100000004],
     [21.5684903, 42.974997900000005], [21.5686405, 42.9753903],
     [21.5686512, 42.9759241], [21.5686083, 42.9762774],
     [21.568391400000003, 42.976554400000005],
     [21.5681489, 42.9768212], [21.568013, 42.9769847],
     [21.5677968, 42.9772872], [21.5677178, 42.977337000000006],
     [21.567612800000003, 42.977383], [21.5674323, 42.977436100000006],
     [21.567166800000003, 42.977504700000004],
     [21.566970400000002, 42.9775423],
     [21.566839400000003, 42.977574700000005],
     [21.5667864, 42.9776096], [21.5667629, 42.9776589],
     [21.566761600000003, 42.9776964],
     [21.566839400000003, 42.9777494],
     [21.5669368, 42.977765000000005],
     [21.567158000000003, 42.977793500000004],
     [21.5672818, 42.977825800000005], [21.5673809, 42.9778815],
     [21.5674429, 42.977955300000005], [21.5675154, 42.9780317],
     [21.5675597, 42.978077000000006]]}},
  {"type":"Feature",
   "properties":{},
   "geometry":
   {"type":"LineString",
    "coordinates":
    [[21.5675597, 42.978077000000006],
     [21.567671200000003, 42.978105500000005],
     [21.567903, 42.978144300000004],
     [21.568179100000002, 42.978216200000006],
     [21.5684586, 42.9782803],
     [21.568853200000003, 42.978356600000005],
     [21.5691612, 42.9784473], [21.569337800000003, 42.9785066],
     [21.569509800000002, 42.9785586], [21.5697204, 42.9786104],
     [21.5699469, 42.9786635],
     [21.570247700000003, 42.978695800000004],
     [21.5706016, 42.9787088],
     [21.570836800000002, 42.978714800000006],
     [21.571142400000003, 42.978722700000006]]}}]}
