{"type":"FeatureCollection",
 "properties":{},
 "features":
 [{"type":"Feature",
   "properties":{},
   "geometry":
   {"type":"LineString",
    "coordinates":
    [[20.622166, 43.4666781], [20.6221688, 43.4665825]]}},
  {"type":"Feature",
   "properties":{},
   "geometry":
   {"type":"LineString",
    "coordinates":
    [[20.622166, 43.4666781], [20.6221922, 43.4666991],
     [20.622212400000002, 43.466711200000006],
     [20.6222344, 43.466721400000004],
     [20.622268000000002, 43.466732400000005],
     [20.6223037, 43.4667392],
     [20.622340400000002, 43.466741400000004],
     [20.6224785, 43.4667526], [20.622949900000002, 43.4667584],
     [20.622986700000002, 43.466764500000004],
     [20.623019600000003, 43.466777900000004],
     [20.623041800000003, 43.466793700000004],
     [20.623058200000003, 43.4668129],
     [20.623067900000002, 43.4668343], [20.6232195, 43.4670952],
     [20.623250000000002, 43.467153700000004],
     [20.623286800000002, 43.467210200000004],
     [20.623329400000003, 43.4672646], [20.6233822, 43.4673207],
     [20.6234414, 43.4673734], [20.6235065, 43.4674222],
     [20.6237733, 43.467596500000006]]}},
  {"type":"Feature",
   "properties":{},
   "geometry":
   {"type":"LineString",
    "coordinates":
    [[20.6237733, 43.467596500000006], [20.623953, 43.4677394],
     [20.6240394, 43.467767800000004]]}},
  {"type":"Feature",
   "properties":{},
   "geometry":
   {"type":"LineString",
    "coordinates":
    [[20.6240394, 43.467767800000004],
     [20.624097600000002, 43.4678109],
     [20.624070800000002, 43.4678576],
     [20.623837400000003, 43.4678595], [20.6235933, 43.4678741],
     [20.6233814, 43.4678819], [20.623094400000003, 43.4679559],
     [20.6228048, 43.468093100000004],
     [20.6225701, 43.468217700000004], [20.622385, 43.46839],
     [20.622210600000003, 43.4685428],
     [20.621985300000002, 43.468627500000004],
     [20.6219599, 43.468705400000005]]}},
  {"type":"Feature",
   "properties":{},
   "geometry":
   {"type":"LineString",
    "coordinates":
    [[20.6219599, 43.468705400000005],
     [20.6219532, 43.468775400000006],
     [20.622030900000002, 43.468900000000005],
     [20.6220913, 43.4689526], [20.6220806, 43.4690567],
     [20.621955800000002, 43.469151100000005],
     [20.6218794, 43.4692397],
     [20.621789500000002, 43.469363300000005],
     [20.621721100000002, 43.4694918], [20.6216635, 43.4696407],
     [20.6216367, 43.4698529], [20.621638, 43.4700495],
     [20.621697, 43.4702062], [20.621825700000002, 43.470401800000005],
     [20.621871300000002, 43.470557500000005],
     [20.621939700000002, 43.4708777],
     [20.6220028, 43.471116200000004],
     [20.6220846, 43.471313800000004], [20.622216, 43.4715191],
     [20.622381, 43.471705], [20.6225419, 43.4719094],
     [20.6226975, 43.472151700000005],
     [20.622887900000002, 43.472373600000005],
     [20.6229684, 43.472424200000006], [20.623187, 43.472439800000004],
     [20.6234834, 43.472453400000006], [20.623702, 43.472449600000004],
     [20.6239688, 43.472430100000004],
     [20.6241552, 43.472456400000006],
     [20.624273300000002, 43.472449600000004], [20.6243363, 43.472468],
     [20.6243631, 43.472529400000006], [20.624288, 43.4726325],
     [20.624152600000002, 43.472773600000004],
     [20.624068100000002, 43.472924500000005],
     [20.6240399, 43.4731182], [20.6240801, 43.4733138],
     [20.624227700000002, 43.473485100000005],
     [20.6243993, 43.4736009], [20.6245723, 43.473697200000004],
     [20.624817800000002, 43.4737391],
     [20.6250672, 43.473806200000006], [20.6252697, 43.4738909],
     [20.6255285, 43.4739834], [20.6257525, 43.4740632],
     [20.6259604, 43.4741401], [20.6262045, 43.4742082],
     [20.626464600000002, 43.4742802],
     [20.6266001, 43.474337600000005],
     [20.6266095, 43.474410600000006], [20.6266122, 43.4745809],
     [20.6266524, 43.474747300000004], [20.626767700000002, 43.474868],
     [20.6269716, 43.4749381],
     [20.627195500000003, 43.475000400000006],
     [20.627355100000003, 43.475053900000006],
     [20.6274798, 43.475166800000004],
     [20.627485200000002, 43.475246600000006],
     [20.627380600000002, 43.475295300000006],
     [20.627175400000002, 43.4753099],
     [20.6270306, 43.475416900000006], [20.6269126, 43.475558],
     [20.626719400000002, 43.4756553], [20.6265223, 43.4757643],
     [20.6263305, 43.475818800000006], [20.6261964, 43.4759687],
     [20.6260878, 43.4761517], [20.6259523, 43.476330700000005],
     [20.6257726, 43.476613], [20.6256868, 43.4767473],
     [20.625571500000003, 43.4768747], [20.6255111, 43.4770343],
     [20.6255218, 43.477220200000005], [20.6255366, 43.4774509],
     [20.6255916, 43.4776698], [20.625639900000003, 43.4779034],
     [20.6256586, 43.4781447], [20.6257431, 43.478348100000005],
     [20.625833, 43.478535], [20.6258249, 43.478777300000004],
     [20.6257042, 43.479007900000006], [20.6257109, 43.4791237],
     [20.6258531, 43.479281400000005],
     [20.626034100000002, 43.479395200000006],
     [20.6262581, 43.4795032], [20.6263721, 43.4795285]]}},
  {"type":"Feature",
   "properties":{},
   "geometry":
   {"type":"LineString",
    "coordinates":
    [[20.6263721, 43.4795285], [20.6264298, 43.4795188],
     [20.626516900000002, 43.4794205], [20.6266135, 43.4793534],
     [20.6267664, 43.479359200000005],
     [20.626885700000003, 43.4793524],
     [20.6270051, 43.479252200000005], [20.6270963, 43.4791694],
     [20.6271191, 43.479062400000004], [20.6271714, 43.4789563],
     [20.6273176, 43.4788639],
     [20.627387300000002, 43.478825900000004],
     [20.627423500000003, 43.478683800000006],
     [20.627485200000002, 43.4785836], [20.6275845, 43.4785155],
     [20.627622000000002, 43.478464900000006],
     [20.6275871, 43.4783812],
     [20.627544200000003, 43.478287800000004],
     [20.627494600000002, 43.478177800000005], [20.627457, 43.4780669],
     [20.627443600000003, 43.477929700000004],
     [20.6274705, 43.4778061],
     [20.627481200000002, 43.477724300000006],
     [20.6275321, 43.4776669], [20.627670300000002, 43.4776455],
     [20.627836600000002, 43.477668800000004],
     [20.627996200000002, 43.4776727], [20.6280699, 43.4776679]]}},
  {"type":"Feature",
   "properties":{},
   "geometry":
   {"type":"LineString",
    "coordinates":
    [[20.6280699, 43.4776679], [20.6281839, 43.477665],
     [20.628421300000003, 43.4776766],
     [20.628606400000002, 43.4776698], [20.6288424, 43.4776776],
     [20.629043600000003, 43.4776718], [20.6291321, 43.4775414],
     [20.6291428, 43.4774061], [20.62923, 43.4773088],
     [20.6293413, 43.4772095], [20.6295049, 43.4771346],
     [20.6296417, 43.4770927], [20.6297208, 43.477139400000006]]}},
  {"type":"Feature",
   "properties":{},
   "geometry":
   {"type":"LineString",
    "coordinates":
    [[20.6297208, 43.477139400000006], [20.6298643, 43.4771268],
     [20.6299864, 43.477234800000005],
     [20.6300963, 43.477393400000004], [20.6301674, 43.4775287],
     [20.6302372, 43.4776601], [20.6302734, 43.4778138],
     [20.6304155, 43.477963700000004],
     [20.6305188, 43.478116500000006],
     [20.630677000000002, 43.4782469],
     [20.6308447, 43.478365600000004],
     [20.631041800000002, 43.478455200000006],
     [20.6310821, 43.4785126], [20.631071300000002, 43.4786634],
     [20.631103500000002, 43.4788483], [20.6313087, 43.4791237],
     [20.6315072, 43.4792989], [20.631716400000002, 43.4794672],
     [20.631971200000002, 43.479654100000005],
     [20.6322113, 43.4798331], [20.6324191, 43.479994700000006],
     [20.6325076, 43.480158100000004], [20.6324741, 43.4803197],
     [20.632332, 43.4804686], [20.6322662, 43.480623300000005],
     [20.6323051, 43.480842200000005],
     [20.632401700000003, 43.481044700000005],
     [20.6326109, 43.4812558], [20.632871100000003, 43.4813648],
     [20.6332546, 43.4814407], [20.6335805, 43.4814154],
     [20.6338729, 43.4813668], [20.6341679, 43.4813911],
     [20.6344563, 43.4814261], [20.634809, 43.481436800000004],
     [20.635094600000002, 43.4814135], [20.6353508, 43.4812996],
     [20.635688700000003, 43.4812607],
     [20.635987800000002, 43.481297700000006],
     [20.636245300000002, 43.4812626],
     [20.6365377, 43.481354100000004], [20.6368636, 43.4814816],
     [20.6370781, 43.481582800000005],
     [20.637243100000003, 43.481673300000004],
     [20.637389300000002, 43.4817832],
     [20.637536800000003, 43.4819204], [20.6376494, 43.4819419],
     [20.637813100000002, 43.481829000000005],
     [20.6379807, 43.4816743], [20.6382489, 43.481665500000005],
     [20.6385212, 43.481600300000004],
     [20.6387652, 43.481526300000006], [20.639118, 43.4813697],
     [20.6393419, 43.4812412],
     [20.639573900000002, 43.481276300000005],
     [20.6399213, 43.4813473], [20.640106300000003, 43.4814524],
     [20.6402512, 43.481611], [20.640451000000002, 43.481728700000005],
     [20.6407528, 43.481762800000006],
     [20.641047800000003, 43.481845500000006],
     [20.6413428, 43.4819613],
     [20.641604400000002, 43.482104400000004],
     [20.6418927, 43.4822542], [20.642181, 43.482367100000005],
     [20.64246, 43.4824527], [20.6427778, 43.4825705],
     [20.6431279, 43.482642500000004], [20.6433277, 43.4826756],
     [20.6436375, 43.4827408], [20.6437193, 43.482887700000006],
     [20.6437713, 43.4829811]]}},
  {"type":"Feature",
   "properties":{},
   "geometry":
   {"type":"LineString",
    "coordinates":
    [[20.6437713, 43.4829811], [20.643964, 43.4829134],
     [20.6446587, 43.4827609], [20.6449506, 43.482608400000004]]}},
  {"type":"Feature",
   "properties":{},
   "geometry":
   {"type":"LineString",
    "coordinates":
    [[20.6449506, 43.482608400000004],
     [20.645356800000002, 43.4825335], [20.6459334, 43.4824751],
     [20.646368000000002, 43.482333000000004],
     [20.6469849, 43.482237700000006], [20.6475186, 43.4820353],
     [20.6480497, 43.48172], [20.6486264, 43.481375500000006],
     [20.649058200000002, 43.481085500000006],
     [20.6493398, 43.480793600000005],
     [20.649527600000003, 43.4803829],
     [20.649589300000002, 43.4801027],
     [20.649543700000002, 43.479843800000005],
     [20.649785100000003, 43.479561600000004],
     [20.6496859, 43.479164600000004], [20.6502303, 43.478861],
     [20.6508714, 43.478730600000006],
     [20.6515741, 43.478718900000004],
     [20.652191000000002, 43.4788396], [20.6528053, 43.4787422],
     [20.653414100000003, 43.4785632], [20.6541517, 43.4784542],
     [20.6546184, 43.478279], [20.6549242, 43.477954000000004],
     [20.655232700000003, 43.477702900000004],
     [20.6560078, 43.4776815], [20.6571022, 43.4777087],
     [20.658073100000003, 43.477882],
     [20.658741000000003, 43.478072700000006],
     [20.6592667, 43.478234300000004],
     [20.659408900000003, 43.4785826],
     [20.659467900000003, 43.479040000000005],
     [20.659728, 43.479407900000005], [20.6599238, 43.479931400000005],
     [20.6602967, 43.480346000000004], [20.6606239, 43.4807118],
     [20.660859900000002, 43.4809804]]}},
  {"type":"Feature",
   "properties":{},
   "geometry":
   {"type":"LineString",
    "coordinates":
    [[20.660859900000002, 43.4809804], [20.6611094, 43.4811789],
     [20.661450000000002, 43.481414400000006],
     [20.661935500000002, 43.4817667],
     [20.662356600000003, 43.4819808],
     [20.662965500000002, 43.482072200000005], [20.663518, 43.4821151],
     [20.6637862, 43.4821754]]}},
  {"type":"Feature",
   "properties":{},
   "geometry":
   {"type":"LineString",
    "coordinates":
    [[20.660859900000002, 43.4809804], [20.6611094, 43.4811789],
     [20.661450000000002, 43.481414400000006],
     [20.661935500000002, 43.4817667],
     [20.662356600000003, 43.4819808],
     [20.662965500000002, 43.482072200000005], [20.663518, 43.4821151],
     [20.6637862, 43.4821754]]}},
  {"type":"Feature",
   "properties":{},
   "geometry":
   {"type":"LineString",
    "coordinates":
    [[20.660859900000002, 43.4809804], [20.6604174, 43.4808851],
     [20.659862200000003, 43.4807177], [20.6593364, 43.4806904],
     [20.659014600000003, 43.4806729],
     [20.658534500000002, 43.4808286],
     [20.657965800000003, 43.4809357], [20.6575045, 43.4809435],
     [20.65707, 43.4808637], [20.6571478, 43.480610600000006],
     [20.6573409, 43.480299200000005], [20.6575072, 43.4799937],
     [20.6573409, 43.479688100000004], [20.6572175, 43.4792288],
     [20.6568259, 43.478894000000004],
     [20.656501300000002, 43.4788785], [20.6558603, 43.4789855],
     [20.6551307, 43.4791821],
     [20.654524600000002, 43.479551900000004],
     [20.653980100000002, 43.4797543],
     [20.653521400000002, 43.479999500000005],
     [20.652963500000002, 43.4803518],
     [20.652341200000002, 43.480696300000005],
     [20.6516948, 43.480957100000005],
     [20.6509545, 43.481229500000005],
     [20.650394000000002, 43.481431900000004],
     [20.6498092, 43.4816869], [20.6492513, 43.482008],
     [20.6487471, 43.482305800000006],
     [20.648395700000002, 43.4825821], [20.6479773, 43.4827359],
     [20.647727800000002, 43.482994700000006],
     [20.6472692, 43.4831524], [20.6469044, 43.4832964],
     [20.6464806, 43.4835377], [20.645866400000003, 43.4839367],
     [20.6455284, 43.483730400000006], [20.644933, 43.483516300000005],
     [20.644522600000002, 43.4833178],
     [20.644184600000003, 43.483175700000004],
     [20.6437713, 43.4829811]]}},
  {"type":"Feature",
   "properties":{},
   "geometry":
   {"type":"LineString",
    "coordinates":
    [[20.6437713, 43.4829811],
     [20.643793000000002, 43.482749500000004], [20.643726, 43.4824848],
     [20.6434363, 43.4822805], [20.6429428, 43.4820002],
     [20.6425565, 43.4816694], [20.6419611, 43.4814358],
     [20.641346900000002, 43.4810972],
     [20.640740700000002, 43.4810096], [20.6400809, 43.4808384],
     [20.639587300000002, 43.4806418],
     [20.6390858, 43.480610600000006], [20.6385788, 43.4803596],
     [20.6382409, 43.4804024], [20.6378117, 43.4806807],
     [20.6372404, 43.4808559],
     [20.636623500000002, 43.480850000000004],
     [20.6363258, 43.4808267]]}},
  {"type":"Feature",
   "properties":{},
   "geometry":
   {"type":"LineString",
    "coordinates":
    [[20.6363258, 43.4808267], [20.6359959, 43.4806651],
     [20.635550600000002, 43.4802934],
     [20.6351939, 43.479939200000004], [20.6349096, 43.4795091],
     [20.6345421, 43.4791432], [20.6342471, 43.478720800000005],
     [20.6340083, 43.4782693], [20.6336838, 43.477724300000006],
     [20.6333673, 43.4772066], [20.6329596, 43.4767297],
     [20.632643100000003, 43.4763366], [20.6321388, 43.475994],
     [20.631704300000003, 43.475583300000004],
     [20.6312779, 43.4750383], [20.6309453, 43.474635400000004],
     [20.6305456, 43.4740632], [20.6301379, 43.473524000000005],
     [20.6299502, 43.4729985], [20.6299475, 43.4724943],
     [20.6299636, 43.471937600000004], [20.6297839, 43.4716554],
     [20.629451300000003, 43.4713712]]}},
  {"type":"Feature",
   "properties":{},
   "geometry":
   {"type":"LineString",
    "coordinates":
    [[20.629451300000003, 43.4713712], [20.6287914, 43.4713634],
     [20.6281263, 43.4713945], [20.627305500000002, 43.4713537],
     [20.626806600000002, 43.471279700000004]]}},
  {"type":"Feature",
   "properties":{},
   "geometry":
   {"type":"LineString",
    "coordinates":
    [[20.626806600000002, 43.471279700000004],
     [20.6264767, 43.4714043],
     [20.626366700000002, 43.471369200000005], [20.62612, 43.4710266],
     [20.6258249, 43.4706782], [20.625232200000003, 43.4703415],
     [20.6248593, 43.469993], [20.624312200000002, 43.4694889],
     [20.623821300000003, 43.469194900000005],
     [20.6233787, 43.469105400000004],
     [20.622992500000002, 43.4691794], [20.6225795, 43.468901],
     [20.6219599, 43.468705400000005]]}},
  {"type":"Feature",
   "properties":{},
   "geometry":
   {"type":"LineString",
    "coordinates":
    [[20.6240394, 43.467767800000004],
     [20.624097600000002, 43.4678109],
     [20.624070800000002, 43.4678576],
     [20.623837400000003, 43.4678595], [20.6235933, 43.4678741],
     [20.6233814, 43.4678819], [20.623094400000003, 43.4679559],
     [20.6228048, 43.468093100000004],
     [20.6225701, 43.468217700000004], [20.622385, 43.46839],
     [20.622210600000003, 43.4685428],
     [20.621985300000002, 43.468627500000004],
     [20.6219599, 43.468705400000005]]}},
  {"type":"Feature",
   "properties":{},
   "geometry":
   {"type":"LineString",
    "coordinates":
    [[20.6237733, 43.467596500000006], [20.623953, 43.4677394],
     [20.6240394, 43.467767800000004]]}},
  {"type":"Feature",
   "properties":{},
   "geometry":
   {"type":"LineString",
    "coordinates":
    [[20.622166, 43.4666781], [20.6221922, 43.4666991],
     [20.622212400000002, 43.466711200000006],
     [20.6222344, 43.466721400000004],
     [20.622268000000002, 43.466732400000005],
     [20.6223037, 43.4667392],
     [20.622340400000002, 43.466741400000004],
     [20.6224785, 43.4667526], [20.622949900000002, 43.4667584],
     [20.622986700000002, 43.466764500000004],
     [20.623019600000003, 43.466777900000004],
     [20.623041800000003, 43.466793700000004],
     [20.623058200000003, 43.4668129],
     [20.623067900000002, 43.4668343], [20.6232195, 43.4670952],
     [20.623250000000002, 43.467153700000004],
     [20.623286800000002, 43.467210200000004],
     [20.623329400000003, 43.4672646], [20.6233822, 43.4673207],
     [20.6234414, 43.4673734], [20.6235065, 43.4674222],
     [20.6237733, 43.467596500000006]]}},
  {"type":"Feature",
   "properties":{},
   "geometry":
   {"type":"LineString",
    "coordinates":
    [[20.622166, 43.4666781], [20.6221688, 43.4665825]]}}]}
