{"type":"FeatureCollection",
 "properties":{},
 "features":
 [{"type":"Feature",
   "properties":{},
   "geometry":
   {"type":"LineString",
    "coordinates":
    [[22.3258805, 42.7257424], [22.3257984, 42.725767700000006],
     [22.3257456, 42.725781500000004],
     [22.325697700000003, 42.7257924],
     [22.325660300000003, 42.725799900000005],
     [22.3255984, 42.7258079], [22.3255394, 42.7258143],
     [22.325452600000002, 42.725821700000004],
     [22.325381500000002, 42.7258269], [22.3253081, 42.7258298],
     [22.3252618, 42.7258316], [22.3252232, 42.7258316],
     [22.325177, 42.725827800000005], [22.325146200000002, 42.7258274],
     [22.3251186, 42.7258305],
     [22.325089700000003, 42.725837500000004]]}},
  {"type":"Feature",
   "properties":{},
   "geometry":
   {"type":"LineString",
    "coordinates":
    [[22.325089700000003, 42.725837500000004],
     [22.3250677, 42.7258458], [22.3250515, 42.725854000000005],
     [22.325035200000002, 42.725864400000006],
     [22.325013900000002, 42.725883200000006],
     [22.324998800000003, 42.7259028],
     [22.324983500000002, 42.725923200000004], [22.3249631, 42.725954],
     [22.3249409, 42.726009100000006], [22.3249201, 42.7260884],
     [22.3247874, 42.7265771], [22.3247669, 42.726690700000006]]}},
  {"type":"Feature",
   "properties":{},
   "geometry":
   {"type":"LineString",
    "coordinates":
    [[22.323317000000003, 42.727808200000005],
     [22.3233725, 42.7277928],
     [22.323444900000002, 42.727748500000004],
     [22.3235536, 42.7277002], [22.3236698, 42.7276595],
     [22.32395, 42.727587500000006], [22.324258500000003, 42.7274851],
     [22.324472200000002, 42.7273889],
     [22.3245602, 42.727326500000004],
     [22.3245931, 42.727288400000006],
     [22.3247223, 42.727094900000004], [22.3247572, 42.7269467],
     [22.3247669, 42.726690700000006]]}},
  {"type":"Feature",
   "properties":{},
   "geometry":
   {"type":"LineString",
    "coordinates":
    [[22.323317000000003, 42.727808200000005], [22.323298, 42.727775],
     [22.3232927, 42.7277274], [22.3233028, 42.7276515],
     [22.323298400000002, 42.727566], [22.323270700000002, 42.7274868],
     [22.3232049, 42.7274539], [22.3231293, 42.7274496],
     [22.3229468, 42.727460400000005],
     [22.322764300000003, 42.7274607], [22.3226213, 42.7274771]]}},
  {"type":"Feature",
   "properties":{},
   "geometry":
   {"type":"LineString",
    "coordinates":
    [[22.3226213, 42.7274771], [22.3222227, 42.727634800000004],
     [22.3217499, 42.727859200000005],
     [22.321664600000002, 42.727904900000006],
     [22.3215439, 42.7279354], [22.3213264, 42.7279548],
     [22.321219300000003, 42.7279551], [22.3211051, 42.7279202],
     [22.320747200000003, 42.7277983],
     [22.3202579, 42.727555300000006],
     [22.320049800000003, 42.727442100000005],
     [22.3199715, 42.727377100000005], [22.3199095, 42.7273087],
     [22.3198776, 42.7272766], [22.319828, 42.727249],
     [22.3197623, 42.7272194], [22.3196048, 42.727161900000006],
     [22.3193221, 42.727063400000006],
     [22.3191762, 42.727008600000005], [22.318963, 42.7269379],
     [22.3187761, 42.726941000000004],
     [22.3185641, 42.726972800000006],
     [22.3182696, 42.727050000000006], [22.3181248, 42.7270933]]}},
  {"type":"Feature",
   "properties":{},
   "geometry":
   {"type":"LineString",
    "coordinates":
    [[22.3181248, 42.7270933], [22.3180519, 42.7270592],
     [22.318057000000003, 42.726954500000005],
     [22.3180315, 42.726837200000006],
     [22.318029900000003, 42.7267312],
     [22.318053600000002, 42.7266427], [22.3180061, 42.7265205],
     [22.317905900000003, 42.7263858],
     [22.317736200000002, 42.726246100000004],
     [22.3176275, 42.726128900000006], [22.3176241, 42.7260404],
     [22.3176767, 42.725903200000005], [22.3178805, 42.725746],
     [22.318033200000002, 42.725592600000006],
     [22.318160600000002, 42.725423], [22.3182522, 42.7250813],
     [22.318335400000002, 42.7248643], [22.318366, 42.7246012],
     [22.3183083, 42.7244228], [22.3180146, 42.7242483],
     [22.317792200000003, 42.7240387],
     [22.3174864, 42.723803700000005],
     [22.3172718, 42.723600700000006], [22.3170278, 42.7234569],
     [22.316689800000002, 42.723344600000004],
     [22.3163492, 42.723346500000005],
     [22.316102400000002, 42.7235121],
     [22.315855600000003, 42.723689400000005],
     [22.315539100000002, 42.7237761],
     [22.315284300000002, 42.7237761],
     [22.3150027, 42.723655900000004], [22.3147157, 42.7234411],
     [22.314418, 42.723271700000005], [22.314198, 42.723159300000006],
     [22.313908400000003, 42.723118], [22.313664300000003, 42.7231377],
     [22.3134604, 42.723263800000005],
     [22.3133424, 42.723311100000004],
     [22.3130366, 42.723303200000004], [22.3128569, 42.7233643],
     [22.312631600000003, 42.723533700000004],
     [22.312253400000003, 42.7240303], [22.3119155, 42.7244145],
     [22.3113683, 42.7247258], [22.3110035, 42.7250431],
     [22.310834500000002, 42.725129800000005],
     [22.3105315, 42.7254056], [22.3103115, 42.725620400000004],
     [22.309995, 42.7260421], [22.3099086, 42.7261885]]}},
  {"type":"Feature",
   "properties":{},
   "geometry":
   {"type":"LineString",
    "coordinates":
    [[22.3020363, 42.7238674], [22.3024494, 42.7239226],
     [22.3033292, 42.724040800000004],
     [22.304176700000003, 42.7240723], [22.305336, 42.7242777],
     [22.306462500000002, 42.724522], [22.3075569, 42.7248451],
     [22.308533200000003, 42.7251289],
     [22.309305100000003, 42.725506800000005],
     [22.309745600000003, 42.7257357], [22.3099172, 42.7259722],
     [22.3099086, 42.7261885]]}},
  {"type":"Feature",
   "properties":{},
   "geometry":
   {"type":"LineString",
    "coordinates":
    [[22.3020363, 42.7238674], [22.301487, 42.724117],
     [22.3009184, 42.724424400000004], [22.3007253, 42.7245426],
     [22.3005107, 42.7247396]]}},
  {"type":"Feature",
   "properties":{},
   "geometry":
   {"type":"LineString",
    "coordinates":
    [[22.3020363, 42.7238674], [22.301487, 42.724117],
     [22.3009184, 42.724424400000004], [22.3007253, 42.7245426],
     [22.3005107, 42.7247396]]}},
  {"type":"Feature",
   "properties":{},
   "geometry":
   {"type":"LineString",
    "coordinates":
    [[22.3020363, 42.7238674], [22.3024494, 42.7239226],
     [22.3033292, 42.724040800000004],
     [22.304176700000003, 42.7240723], [22.305336, 42.7242777],
     [22.306462500000002, 42.724522], [22.3075569, 42.7248451],
     [22.308533200000003, 42.7251289],
     [22.309305100000003, 42.725506800000005],
     [22.309745600000003, 42.7257357], [22.3099172, 42.7259722],
     [22.3099086, 42.7261885]]}},
  {"type":"Feature",
   "properties":{},
   "geometry":
   {"type":"LineString",
    "coordinates":
    [[22.3099086, 42.7261885], [22.309594800000003, 42.7266732],
     [22.309413600000003, 42.7268398]]}},
  {"type":"Feature",
   "properties":{},
   "geometry":
   {"type":"LineString",
    "coordinates":
    [[22.3100671, 42.7280369], [22.3098418, 42.727895000000004],
     [22.3097777, 42.727721900000006], [22.3097241, 42.7274972],
     [22.309638, 42.7273237], [22.309552200000002, 42.7271148],
     [22.309413600000003, 42.7268398]]}},
  {"type":"Feature",
   "properties":{},
   "geometry":
   {"type":"LineString",
    "coordinates":
    [[22.3146594, 42.736386700000004], [22.3139885, 42.7360516],
     [22.313591600000002, 42.7357403],
     [22.313366300000002, 42.7354685], [22.313141, 42.7351572],
     [22.312980000000003, 42.7347632], [22.3128245, 42.7342785],
     [22.312696000000003, 42.7339714],
     [22.3125241, 42.733549800000006],
     [22.312422100000003, 42.7331597], [22.3124329, 42.7328679],
     [22.3124168, 42.7325606],
     [22.312153900000002, 42.732265000000005],
     [22.3120359, 42.732075900000005],
     [22.311971500000002, 42.731863100000005], [22.311902, 42.7316427],
     [22.311896400000002, 42.7314888],
     [22.311821300000002, 42.7313272],
     [22.311773000000002, 42.7312366], [22.3116604, 42.7310159],
     [22.311510400000003, 42.7308152],
     [22.3114032, 42.730425100000005],
     [22.311274100000002, 42.729999500000005],
     [22.3111403, 42.729644900000004], [22.3111025, 42.7292823],
     [22.3110381, 42.7289947], [22.3109201, 42.728730500000005],
     [22.3108504, 42.7285728], [22.3105875, 42.7284191],
     [22.3103246, 42.7282536], [22.3100671, 42.7280369]]}},
  {"type":"Feature",
   "properties":{},
   "geometry":
   {"type":"LineString",
    "coordinates":
    [[22.3146594, 42.736386700000004],
     [22.315222600000002, 42.736445800000006],
     [22.3156834, 42.736409900000005],
     [22.316193100000003, 42.7363548],
     [22.3164827, 42.736343000000005], [22.3171484, 42.7365876],
     [22.3177707, 42.736824000000006],
     [22.318177900000002, 42.7368709],
     [22.318564700000003, 42.736839800000006],
     [22.3188758, 42.736855600000005], [22.319144, 42.7371077],
     [22.319337100000002, 42.7373993],
     [22.3194337, 42.737635700000006],
     [22.319637500000002, 42.737816900000006],
     [22.3197341, 42.737824800000006], [22.3199487, 42.7377539],
     [22.320088100000003, 42.7375175],
     [22.320452900000003, 42.7371314], [22.3207533, 42.7369028],
     [22.3209786, 42.736698000000004], [22.3211181, 42.7365088]]}},
  {"type":"Feature",
   "properties":{},
   "geometry":
   {"type":"LineString",
    "coordinates":
    [[22.3247669, 42.726690700000006],
     [22.324829100000002, 42.726987400000006],
     [22.324868300000002, 42.727187300000004],
     [22.324861700000003, 42.727304200000006],
     [22.3248071, 42.727526100000006],
     [22.324754300000002, 42.727692700000006],
     [22.3246974, 42.7278371], [22.324612600000002, 42.7279506],
     [22.3242777, 42.7282802], [22.324100400000003, 42.7284394],
     [22.323913700000002, 42.728575],
     [22.323518500000002, 42.728805200000004],
     [22.32301, 42.729072900000006], [22.3225346, 42.7291916],
     [22.322067500000003, 42.729413900000004],
     [22.321856500000003, 42.7295846],
     [22.321638500000002, 42.729691700000004],
     [22.321396800000002, 42.7297749],
     [22.3213446, 42.729839500000004],
     [22.321384100000003, 42.7299189], [22.3215347, 42.73006],
     [22.322000300000003, 42.7303841],
     [22.3226336, 42.730814200000005],
     [22.323258300000003, 42.731082900000004],
     [22.323365600000002, 42.731206400000005],
     [22.323404500000002, 42.7313598], [22.3234359, 42.7317539],
     [22.323294, 42.731948200000005], [22.322917, 42.7323238],
     [22.322360200000002, 42.7328065],
     [22.322121000000003, 42.732966600000005],
     [22.321820600000002, 42.7330848],
     [22.321514800000003, 42.7331439],
     [22.321209300000003, 42.7333015],
     [22.320624300000002, 42.7336759],
     [22.3204634, 42.733695600000004], [22.3199162, 42.7338256],
     [22.3194334, 42.7339909], [22.3191907, 42.7341099],
     [22.319132800000002, 42.7341557], [22.3191387, 42.734205],
     [22.3192251, 42.734259800000004],
     [22.319386400000003, 42.7343295], [22.3194889, 42.7343915],
     [22.319520400000002, 42.7344687], [22.3195969, 42.7347771],
     [22.319671200000002, 42.7349502],
     [22.319776700000002, 42.735125700000005],
     [22.3200557, 42.7355315],
     [22.320178700000003, 42.735728200000004],
     [22.3203201, 42.735876700000006],
     [22.320699400000002, 42.7361361],
     [22.320957500000002, 42.736338200000006],
     [22.3211181, 42.7365088]]}},
  {"type":"Feature",
   "properties":{},
   "geometry":
   {"type":"LineString",
    "coordinates":
    [[22.325089700000003, 42.725837500000004],
     [22.3250677, 42.7258458], [22.3250515, 42.725854000000005],
     [22.325035200000002, 42.725864400000006],
     [22.325013900000002, 42.725883200000006],
     [22.324998800000003, 42.7259028],
     [22.324983500000002, 42.725923200000004], [22.3249631, 42.725954],
     [22.3249409, 42.726009100000006], [22.3249201, 42.7260884],
     [22.3247874, 42.7265771], [22.3247669, 42.726690700000006]]}},
  {"type":"Feature",
   "properties":{},
   "geometry":
   {"type":"LineString",
    "coordinates":
    [[22.3258805, 42.7257424], [22.3257984, 42.725767700000006],
     [22.3257456, 42.725781500000004],
     [22.325697700000003, 42.7257924],
     [22.325660300000003, 42.725799900000005],
     [22.3255984, 42.7258079], [22.3255394, 42.7258143],
     [22.325452600000002, 42.725821700000004],
     [22.325381500000002, 42.7258269], [22.3253081, 42.7258298],
     [22.3252618, 42.7258316], [22.3252232, 42.7258316],
     [22.325177, 42.725827800000005], [22.325146200000002, 42.7258274],
     [22.3251186, 42.7258305],
     [22.325089700000003, 42.725837500000004]]}}]}
