{"type":"FeatureCollection",
 "properties":{},
 "features":
 [{"type":"Feature",
   "properties":{},
   "geometry":
   {"type":"LineString",
    "coordinates":
    [[22.2904316, 43.185585700000004], [22.2902187, 43.1853424],
     [22.290139500000002, 43.185222800000005],
     [22.2901154, 43.185127200000004],
     [22.290128600000003, 43.185034200000004],
     [22.2902111, 43.1848724], [22.290219800000003, 43.184758],
     [22.2902002, 43.1846734], [22.290023, 43.184337],
     [22.2898108, 43.1839809], [22.2893742, 43.1836015],
     [22.2889376, 43.1831266], [22.288646500000002, 43.1826888],
     [22.288228200000002, 43.182342600000005],
     [22.2880587, 43.1821306], [22.287811100000003, 43.1819963],
     [22.2875009, 43.181917000000006],
     [22.287336200000002, 43.181982100000006],
     [22.287148400000003, 43.182068900000004],
     [22.2869436, 43.182089100000006],
     [22.286727300000003, 43.1820156],
     [22.286610300000003, 43.1819031], [22.2866213, 43.1817015],
     [22.286525400000002, 43.1815044],
     [22.286354600000003, 43.181362500000006],
     [22.2862103, 43.1811061], [22.2862191, 43.180974400000004],
     [22.286319300000002, 43.180863300000006],
     [22.2864825, 43.180806700000005],
     [22.286959000000003, 43.1807589],
     [22.287656700000003, 43.1806086], [22.288148, 43.180483900000006],
     [22.2883736, 43.180372500000004], [22.2884427, 43.1802159],
     [22.288420900000002, 43.1800992], [22.2883226, 43.1799638],
     [22.288289900000002, 43.179754200000005],
     [22.2882171, 43.179592400000004],
     [22.287936900000002, 43.1794597],
     [22.286675000000002, 43.178909600000004],
     [22.2856336, 43.178549600000004],
     [22.284742100000003, 43.178252400000005],
     [22.283852600000003, 43.1779987],
     [22.2834305, 43.177957500000005],
     [22.283032000000002, 43.178010900000004],
     [22.282390600000003, 43.1780721],
     [22.2812126, 43.178332000000005],
     [22.280304100000002, 43.178513300000006], [22.2798321, 43.178516],
     [22.2794074, 43.1784471], [22.279124000000003, 43.1783798],
     [22.2789566, 43.178302800000004]]}},
  {"type":"Feature",
   "properties":{},
   "geometry":
   {"type":"LineString",
    "coordinates":
    [[22.2789566, 43.178302800000004],
     [22.2788729, 43.178318700000005], [22.2783562, 43.1786504],
     [22.2776503, 43.1791466],
     [22.277504800000003, 43.179361500000006],
     [22.2769917, 43.179754200000005],
     [22.2766968, 43.179940800000004],
     [22.276630400000002, 43.180009500000004],
     [22.2765483, 43.180221700000004],
     [22.276491200000002, 43.180273500000006], [22.276426, 43.1802852],
     [22.2763695, 43.180247400000006], [22.2763606, 43.1801967],
     [22.2764619, 43.1800513], [22.276540500000003, 43.1797144],
     [22.2766424, 43.179266000000005],
     [22.2767152, 43.178820200000004], [22.2768826, 43.1781675],
     [22.276932600000002, 43.1776205], [22.2769285, 43.1775247],
     [22.2769774, 43.177440000000004], [22.2771566, 43.177388],
     [22.2772457, 43.1773114], [22.2773329, 43.177165800000004],
     [22.2773058, 43.177075], [22.277376200000003, 43.176996100000004],
     [22.2775089, 43.1769406], [22.2776412, 43.1769198],
     [22.2783112, 43.1764535], [22.2790475, 43.1760103],
     [22.2796823, 43.175521700000004],
     [22.2802188, 43.175190300000004], [22.2805603, 43.1748868],
     [22.2810607, 43.1745019], [22.2815382, 43.1743012],
     [22.281854900000003, 43.174078400000006],
     [22.2819977, 43.1739258], [22.2821897, 43.1736671],
     [22.282326, 43.1733406], [22.282432, 43.172856800000005],
     [22.2826875, 43.1720419], [22.2828464, 43.1716495],
     [22.2829315, 43.1715177], [22.2829097, 43.1714227],
     [22.282825300000002, 43.171399300000004],
     [22.2827331, 43.1714331], [22.2826753, 43.1715135],
     [22.282601, 43.171755600000004], [22.2825245, 43.171841400000005],
     [22.2822141, 43.1720873], [22.281486400000002, 43.1725993],
     [22.281308900000003, 43.172696300000005], [22.28097, 43.1728213],
     [22.2802291, 43.172983], [22.2799142, 43.172983],
     [22.2796166, 43.172950900000004], [22.2794293, 43.1729865],
     [22.2793661, 43.1729726],
     [22.279337700000003, 43.172941400000006]]}},
  {"type":"Feature",
   "properties":{},
   "geometry":
   {"type":"LineString",
    "coordinates":
    [[22.279337700000003, 43.172941400000006],
     [22.2793557, 43.172889500000004],
     [22.2794461, 43.172854900000004], [22.2796433, 43.1728128],
     [22.2798814, 43.1727149], [22.2801253, 43.1725494],
     [22.2803377, 43.1723702],
     [22.280528800000003, 43.172065100000005],
     [22.2807925, 43.1711559], [22.2808405, 43.170216],
     [22.280912400000002, 43.1699713], [22.2810023, 43.1697877],
     [22.2809624, 43.1697288], [22.2808856, 43.1697192],
     [22.280822500000003, 43.169752700000004],
     [22.2805827, 43.170102400000005], [22.280061, 43.170520700000004],
     [22.2794965, 43.1708638], [22.2791037, 43.170987700000005],
     [22.278861900000003, 43.1710331], [22.2783723, 43.1712192],
     [22.2778138, 43.171367800000006], [22.2773764, 43.1714446],
     [22.276860900000003, 43.171579], [22.2765327, 43.1716464],
     [22.2759889, 43.171693100000006],
     [22.2754695, 43.171648600000005], [22.2746646, 43.171429],
     [22.2737799, 43.171248600000006],
     [22.2735258, 43.171086900000006], [22.2731242, 43.1709169],
     [22.2728648, 43.1708401], [22.2725827, 43.170813100000004],
     [22.272533300000003, 43.1707668],
     [22.272551200000002, 43.170699400000004],
     [22.272641500000002, 43.170669200000006],
     [22.2727772, 43.1706583], [22.273691000000003, 43.1704109],
     [22.2741429, 43.1702899], [22.2745043, 43.170286700000005],
     [22.2745621, 43.1702676], [22.2745903, 43.1702194],
     [22.2745731, 43.1701728], [22.2738459, 43.169962500000004],
     [22.2733245, 43.169691500000006],
     [22.272934900000003, 43.1695298],
     [22.272731500000003, 43.1693866]]}},
  {"type":"Feature",
   "properties":{},
   "geometry":
   {"type":"LineString",
    "coordinates":
    [[22.272731500000003, 43.1693866],
     [22.272443000000003, 43.169243300000005],
     [22.2723033, 43.1691359],
     [22.272114100000003, 43.169081000000006],
     [22.2716935, 43.1691689], [22.2714472, 43.1691629],
     [22.2712435, 43.169099], [22.270960300000002, 43.1689256],
     [22.270732300000002, 43.1688434],
     [22.269788300000002, 43.168792100000005],
     [22.2693918, 43.168707600000005],
     [22.269122600000003, 43.1686264],
     [22.268919200000003, 43.1685165], [22.26873, 43.1684524],
     [22.2685366, 43.168494900000006], [22.2683718, 43.1686454],
     [22.2682797, 43.168651700000005], [22.267915300000002, 43.168581],
     [22.2677444, 43.1685275], [22.2676008, 43.1684441],
     [22.2674752, 43.1683302], [22.2672928, 43.1682545],
     [22.267079600000002, 43.1682494], [22.2668232, 43.1681864],
     [22.265746800000002, 43.167661], [22.2641458, 43.166902],
     [22.2631562, 43.1665494], [22.262387500000003, 43.1662271],
     [22.261928, 43.165943600000006], [22.2616099, 43.165544000000004],
     [22.2615094, 43.165378600000004],
     [22.261407300000002, 43.1653351], [22.2612299, 43.1653442],
     [22.2606821, 43.165318400000004],
     [22.260337500000002, 43.165266900000006],
     [22.2599729, 43.165190700000004]]}},
  {"type":"Feature",
   "properties":{},
   "geometry":
   {"type":"LineString",
    "coordinates":
    [[22.2599729, 43.165190700000004], [22.2590386, 43.1647641],
     [22.2585702, 43.164603], [22.258163800000002, 43.1645192],
     [22.2578192, 43.164512800000004],
     [22.2575894, 43.164622400000006],
     [22.257386200000003, 43.1648415],
     [22.257030800000003, 43.1651224], [22.2568223, 43.1651869],
     [22.255512900000003, 43.165254000000004],
     [22.255120400000003, 43.165300800000004]]}},
  {"type":"Feature",
   "properties":{},
   "geometry":
   {"type":"LineString",
    "coordinates":
    [[22.255120400000003, 43.165300800000004],
     [22.254712700000002, 43.165222500000006],
     [22.2533394, 43.164753000000005],
     [22.2524348, 43.164424800000006], [22.2521087, 43.1644554],
     [22.2517679, 43.164479500000006], [22.251034, 43.1644808],
     [22.2502378, 43.1643794], [22.249537500000002, 43.1644153],
     [22.249112200000003, 43.1643461],
     [22.2487646, 43.164188700000004], [22.2483648, 43.1640813],
     [22.2479683, 43.163859300000006],
     [22.2477607, 43.163621400000004],
     [22.2477224, 43.163514500000005],
     [22.247602200000003, 43.163476800000005],
     [22.2473145, 43.1634766], [22.247138200000002, 43.1634383],
     [22.2469757, 43.163331400000004],
     [22.246910900000003, 43.1631251], [22.2468067, 43.1629474],
     [22.246471800000002, 43.1627674], [22.246097600000002, 43.162683],
     [22.2458911, 43.1626932], [22.245678, 43.1627559],
     [22.245493900000003, 43.1627583],
     [22.2452706, 43.162705800000005], [22.2449614, 43.1628205],
     [22.2446443, 43.1628923], [22.2443272, 43.1631194],
     [22.24423, 43.1632771], [22.244074, 43.163387],
     [22.2437973, 43.1634642], [22.243691000000002, 43.1636083],
     [22.243403100000002, 43.163798500000006],
     [22.2430036, 43.1639196],
     [22.242653500000003, 43.164332300000005],
     [22.2424432, 43.1644458]]}},
  {"type":"Feature",
   "properties":{},
   "geometry":
   {"type":"LineString",
    "coordinates":
    [[22.2413972, 43.164252700000006], [22.2424432, 43.1644458]]}},
  {"type":"Feature",
   "properties":{},
   "geometry":
   {"type":"LineString",
    "coordinates":
    [[22.2384446, 43.161234400000005], [22.2386698, 43.1608627],
     [22.238738100000003, 43.160905500000005],
     [22.2387716, 43.160963300000006], [22.2388346, 43.1610014],
     [22.2388735, 43.161065], [22.239048, 43.1611131],
     [22.239337600000002, 43.1611628],
     [22.239571100000003, 43.1611649],
     [22.2397774, 43.161146200000005], [22.2399251, 43.1611738],
     [22.2400443, 43.1611932], [22.2402041, 43.1611835],
     [22.240326000000003, 43.161205900000006],
     [22.240455100000002, 43.161202800000005],
     [22.2405849, 43.161279400000005],
     [22.2408503, 43.161276300000004],
     [22.2409927, 43.161416300000006],
     [22.241157400000002, 43.161546300000005],
     [22.2413105, 43.1616902], [22.2412983, 43.1618368],
     [22.241252900000003, 43.1620786],
     [22.2410354, 43.162393400000006],
     [22.2410542, 43.162624300000004],
     [22.241024900000003, 43.162702700000004],
     [22.240980800000003, 43.162802400000004],
     [22.2410195, 43.1636917], [22.2413972, 43.164252700000006]]}}]}
