{"type":"FeatureCollection",
 "properties":{},
 "features":
 [{"type":"Feature",
   "properties":{},
   "geometry":
   {"type":"LineString",
    "coordinates":
    [[19.8459594, 46.142145500000005],
     [19.845870400000003, 46.1422431],
     [19.845771600000003, 46.142324200000004],
     [19.84559, 46.142426300000004]]}},
  {"type":"Feature",
   "properties":{},
   "geometry":
   {"type":"LineString",
    "coordinates":
    [[19.8464467, 46.1415756],
     [19.846007200000003, 46.142093100000004],
     [19.8459594, 46.142145500000005]]}},
  {"type":"Feature",
   "properties":{},
   "geometry":
   {"type":"LineString",
    "coordinates":
    [[19.8464467, 46.1415756], [19.846310900000002, 46.1415244],
     [19.8460025, 46.141336700000004],
     [19.843422200000003, 46.140351700000004],
     [19.8413381, 46.1394931], [19.841198600000002, 46.1394122]]}},
  {"type":"Feature",
   "properties":{},
   "geometry":
   {"type":"LineString",
    "coordinates":
    [[19.841198600000002, 46.1394122], [19.841289800000002, 46.13931],
     [19.841583, 46.1389617], [19.842379100000002, 46.1379977]]}},
  {"type":"Feature",
   "properties":{},
   "geometry":
   {"type":"LineString",
    "coordinates":
    [[19.842379100000002, 46.1379977],
     [19.846491200000003, 46.1330332],
     [19.8484395, 46.130665500000006]]}},
  {"type":"Feature",
   "properties":{},
   "geometry":
   {"type":"LineString",
    "coordinates":
    [[19.8519577, 46.129219500000005], [19.851209, 46.1315934],
     [19.851163800000002, 46.1316484],
     [19.851083000000003, 46.131674600000004],
     [19.8509989, 46.131665500000004],
     [19.8484395, 46.130665500000006]]}},
  {"type":"Feature",
   "properties":{},
   "geometry":
   {"type":"LineString",
    "coordinates":
    [[19.8521508, 46.1286551], [19.8519577, 46.129219500000005]]}},
  {"type":"Feature",
   "properties":{},
   "geometry":
   {"type":"LineString",
    "coordinates":
    [[19.8523061, 46.128158400000004], [19.8521508, 46.1286551]]}},
  {"type":"Feature",
   "properties":{},
   "geometry":
   {"type":"LineString",
    "coordinates":
    [[19.852909200000003, 46.126865200000005],
     [19.8527579, 46.1270867], [19.8526345, 46.1272772],
     [19.852523, 46.1274907], [19.8524388, 46.127700700000005],
     [19.8523061, 46.128158400000004]]}},
  {"type":"Feature",
   "properties":{},
   "geometry":
   {"type":"LineString",
    "coordinates":
    [[19.852893100000003, 46.126598200000004],
     [19.8529248, 46.126627600000006],
     [19.8529391, 46.126650600000005], [19.8529509, 46.1266848],
     [19.8529541, 46.126703400000004],
     [19.852957200000002, 46.1267215],
     [19.8529528, 46.126765500000005],
     [19.852942900000002, 46.1268108],
     [19.852909200000003, 46.126865200000005]]}},
  {"type":"Feature",
   "properties":{},
   "geometry":
   {"type":"LineString",
    "coordinates":
    [[19.852893100000003, 46.126598200000004],
     [19.8525497, 46.126479200000006], [19.8519861, 46.1263267],
     [19.8504308, 46.1259261], [19.849648300000002, 46.1257667],
     [19.8496868, 46.1256828]]}},
  {"type":"Feature",
   "properties":{},
   "geometry":
   {"type":"LineString",
    "coordinates":
    [[19.8404059, 46.1232034], [19.8418742, 46.1235786],
     [19.8463508, 46.1247696], [19.8465433, 46.1249364],
     [19.8489235, 46.1255481], [19.8495327, 46.1256829],
     [19.8495922, 46.125689400000006], [19.8496324, 46.1256877],
     [19.8496868, 46.1256828]]}},
  {"type":"Feature",
   "properties":{},
   "geometry":
   {"type":"LineString",
    "coordinates":
    [[19.834772400000002, 46.1216671],
     [19.836631800000003, 46.1221832],
     [19.8369614, 46.122274600000004],
     [19.8398326, 46.123045700000006], [19.8404059, 46.1232034]]}},
  {"type":"Feature",
   "properties":{},
   "geometry":
   {"type":"LineString",
    "coordinates":
    [[19.831261400000002, 46.125081400000006],
     [19.833112200000002, 46.123190400000006],
     [19.8339602, 46.1223083], [19.834477500000002, 46.1217358],
     [19.8345321, 46.121680500000004], [19.834602, 46.121655200000006],
     [19.8346822, 46.1216553], [19.834772400000002, 46.1216671]]}},
  {"type":"Feature",
   "properties":{},
   "geometry":
   {"type":"LineString",
    "coordinates":
    [[19.831261400000002, 46.125081400000006],
     [19.827475800000002, 46.1244815], [19.8257504, 46.1241568],
     [19.825121900000003, 46.1239396],
     [19.824576800000003, 46.1236885], [19.8240409, 46.1233548],
     [19.8237245, 46.123124600000004], [19.8235344, 46.1230607]]}},
  {"type":"Feature",
   "properties":{},
   "geometry":
   {"type":"LineString",
    "coordinates":
    [[19.8235344, 46.1230607], [19.8234144, 46.1230357]]}},
  {"type":"Feature",
   "properties":{},
   "geometry":
   {"type":"LineString",
    "coordinates":
    [[19.8234144, 46.1230357], [19.8233591, 46.1230119],
     [19.8233132, 46.1229719], [19.823283500000002, 46.1228884],
     [19.8233924, 46.1225983]]}},
  {"type":"Feature",
   "properties":{},
   "geometry":
   {"type":"LineString",
    "coordinates":
    [[19.8233924, 46.1225983],
     [19.821306500000002, 46.122019900000005],
     [19.82049, 46.1217935]]}},
  {"type":"Feature",
   "properties":{},
   "geometry":
   {"type":"LineString",
    "coordinates":
    [[19.8196364, 46.1178207],
     [19.819847000000003, 46.117946200000006],
     [19.8200381, 46.1181764], [19.8201283, 46.118298900000006],
     [19.820197, 46.1184772], [19.8202481, 46.118746900000005],
     [19.820144900000003, 46.1191812],
     [19.8201167, 46.119436900000004],
     [19.8201463, 46.119851700000005], [19.82049, 46.1217935]]}},
  {"type":"Feature",
   "properties":{},
   "geometry":
   {"type":"LineString",
    "coordinates":
    [[19.8196364, 46.1178207],
     [19.810024900000002, 46.115236200000005]]}},
  {"type":"Feature",
   "properties":{},
   "geometry":
   {"type":"LineString",
    "coordinates":
    [[19.810024900000002, 46.115236200000005],
     [19.809119000000003, 46.116876500000004],
     [19.8085585, 46.117891300000004],
     [19.808479000000002, 46.118045800000004],
     [19.808450500000003, 46.1181618],
     [19.808386000000002, 46.1184718],
     [19.808351100000003, 46.118581500000005],
     [19.8083008, 46.1186912], [19.808246, 46.1187644],
     [19.8080025, 46.1190015]]}},
  {"type":"Feature",
   "properties":{},
   "geometry":
   {"type":"LineString",
    "coordinates":
    [[19.8080025, 46.1190015], [19.807516, 46.1194441]]}},
  {"type":"Feature",
   "properties":{},
   "geometry":
   {"type":"LineString",
    "coordinates":
    [[19.807516, 46.1194441], [19.8073872, 46.1195882],
     [19.807297000000002, 46.119709300000004],
     [19.807249000000002, 46.119791000000006],
     [19.807210700000002, 46.1199005], [19.8071896, 46.1199761],
     [19.8071366, 46.1203124],
     [19.807115500000002, 46.120404900000004],
     [19.807081200000002, 46.1205015],
     [19.806741600000002, 46.1211277],
     [19.806382600000003, 46.121811900000004]]}},
  {"type":"Feature",
   "properties":{},
   "geometry":
   {"type":"LineString",
    "coordinates":
    [[19.801120700000002, 46.120404400000005],
     [19.8040686, 46.121192900000004], [19.804365200000003, 46.121296],
     [19.806382600000003, 46.121811900000004]]}},
  {"type":"Feature",
   "properties":{},
   "geometry":
   {"type":"LineString",
    "coordinates":
    [[19.801120700000002, 46.120404400000005],
     [19.8024609, 46.119239300000004], [19.8025992, 46.1191247],
     [19.8027285, 46.1190076], [19.8040537, 46.1175608],
     [19.804086100000003, 46.117525500000006],
     [19.8041176, 46.1174765], [19.8041275, 46.1174259],
     [19.8041215, 46.117383600000004],
     [19.804094300000003, 46.117333200000004]]}},
  {"type":"Feature",
   "properties":{},
   "geometry":
   {"type":"LineString",
    "coordinates":
    [[19.801409500000002, 46.1154108],
     [19.8022001, 46.115995000000005],
     [19.8029678, 46.116555500000004], [19.8040261, 46.1172671],
     [19.804094300000003, 46.117333200000004]]}},
  {"type":"Feature",
   "properties":{},
   "geometry":
   {"type":"LineString",
    "coordinates":
    [[19.8007861, 46.1153853], [19.800933, 46.115391800000005],
     [19.8010176, 46.1153892], [19.8011868, 46.1153732],
     [19.801283, 46.115370500000004],
     [19.801409500000002, 46.1154108]]}},
  {"type":"Feature",
   "properties":{},
   "geometry":
   {"type":"LineString",
    "coordinates":
    [[19.7918755, 46.1142508], [19.7967479, 46.1148515],
     [19.8007861, 46.1153853]]}},
  {"type":"Feature",
   "properties":{},
   "geometry":
   {"type":"LineString",
    "coordinates":
    [[19.792587700000002, 46.1124766],
     [19.792631200000002, 46.1125064], [19.7926748, 46.1125453],
     [19.792703300000003, 46.1126276],
     [19.792711500000003, 46.1127131], [19.7918755, 46.1142508]]}},
  {"type":"Feature",
   "properties":{},
   "geometry":
   {"type":"LineString",
    "coordinates":
    [[19.7699795, 46.109416200000005], [19.771601, 46.109738300000004],
     [19.7720589, 46.1098079], [19.775085500000003, 46.1102174],
     [19.7788124, 46.1107171], [19.7825445, 46.1112016],
     [19.783591, 46.1113359], [19.784143, 46.1114067],
     [19.7842987, 46.111423300000006], [19.7843373, 46.1114283],
     [19.785358900000002, 46.1115639],
     [19.7856144, 46.111604500000006],
     [19.7869217, 46.111759400000004], [19.7878928, 46.1118796],
     [19.788378400000003, 46.111957700000005],
     [19.7907724, 46.112261700000005],
     [19.791865700000002, 46.1124165],
     [19.792587700000002, 46.1124766]]}},
  {"type":"Feature",
   "properties":{},
   "geometry":
   {"type":"LineString",
    "coordinates":
    [[19.7699795, 46.109416200000005],
     [19.7686826, 46.109136500000005],
     [19.766276400000002, 46.1086176], [19.765484, 46.1084508],
     [19.7642907, 46.108186700000005]]}},
  {"type":"Feature",
   "properties":{},
   "geometry":
   {"type":"LineString",
    "coordinates":
    [[19.7642907, 46.108186700000005], [19.7644813, 46.1077424]]}},
  {"type":"Feature",
   "properties":{},
   "geometry":
   {"type":"LineString",
    "coordinates":
    [[19.7644813, 46.1077424], [19.7609377, 46.1069818],
     [19.7607493, 46.1069413], [19.7602407, 46.106833300000005],
     [19.759598200000003, 46.1066967]]}},
  {"type":"Feature",
   "properties":{},
   "geometry":
   {"type":"LineString",
    "coordinates":
    [[19.760789300000003, 46.1039381], [19.7601859, 46.105321],
     [19.759865700000002, 46.1060541],
     [19.759598200000003, 46.1066967]]}},
  {"type":"Feature",
   "properties":{},
   "geometry":
   {"type":"LineString",
    "coordinates":
    [[19.760789300000003, 46.1039381], [19.7609524, 46.1035975],
     [19.7609658, 46.1035716]]}},
  {"type":"Feature",
   "properties":{},
   "geometry":
   {"type":"LineString",
    "coordinates":
    [[19.7609658, 46.1035716], [19.7609982, 46.103493900000004],
     [19.7610306, 46.103416]]}},
  {"type":"Feature",
   "properties":{},
   "geometry":
   {"type":"LineString",
    "coordinates":
    [[19.7610306, 46.103416], [19.7610606, 46.1033422]]}},
  {"type":"Feature",
   "properties":{},
   "geometry":
   {"type":"LineString",
    "coordinates":
    [[19.7610606, 46.1033422], [19.761081400000002, 46.103292]]}},
  {"type":"Feature",
   "properties":{},
   "geometry":
   {"type":"LineString",
    "coordinates":
    [[19.761081400000002, 46.103292],
     [19.761092700000003, 46.1032494]]}},
  {"type":"Feature",
   "properties":{},
   "geometry":
   {"type":"LineString",
    "coordinates":
    [[19.761092700000003, 46.1032494], [19.7611142, 46.1031819],
     [19.7611917, 46.102939000000006],
     [19.7612576, 46.102697500000005],
     [19.761265400000003, 46.102667200000006],
     [19.761294200000002, 46.1025609],
     [19.761318600000003, 46.1024709], [19.7613311, 46.1024213],
     [19.7613707, 46.102264700000006]]}},
  {"type":"Feature",
   "properties":{},
   "geometry":
   {"type":"LineString",
    "coordinates":
    [[19.7613707, 46.102264700000006],
     [19.7612163, 46.102274200000004],
     [19.7611536, 46.102278000000005],
     [19.760588000000002, 46.102324200000005],
     [19.7602018, 46.1023508],
     [19.758558400000002, 46.102478600000005]]}},
  {"type":"Feature",
   "properties":{},
   "geometry":
   {"type":"LineString",
    "coordinates":
    [[19.758558400000002, 46.102478600000005],
     [19.758553900000003, 46.1024302]]}},
  {"type":"Feature",
   "properties":{},
   "geometry":
   {"type":"LineString",
    "coordinates":
    [[19.758553900000003, 46.1024302], [19.7585494, 46.1023818],
     [19.758543, 46.1023153]]}},
  {"type":"Feature",
   "properties":{},
   "geometry":
   {"type":"LineString",
    "coordinates":
    [[19.758543, 46.1023153], [19.7585373, 46.1022514]]}},
  {"type":"Feature",
   "properties":{},
   "geometry":
   {"type":"LineString",
    "coordinates":
    [[19.7585373, 46.1022514], [19.758534, 46.1021439]]}},
  {"type":"Feature",
   "properties":{},
   "geometry":
   {"type":"LineString",
    "coordinates":
    [[19.758534, 46.1021439], [19.7585334, 46.102127]]}},
  {"type":"Feature",
   "properties":{},
   "geometry":
   {"type":"LineString",
    "coordinates":
    [[19.7585334, 46.102127], [19.7584589, 46.0996284],
     [19.758446300000003, 46.099204900000004],
     [19.758444, 46.098891300000005], [19.7584434, 46.0988034]]}},
  {"type":"Feature",
   "properties":{},
   "geometry":
   {"type":"LineString",
    "coordinates":
    [[19.7584434, 46.0988034], [19.758441, 46.0985888]]}},
  {"type":"Feature",
   "properties":{},
   "geometry":
   {"type":"LineString",
    "coordinates":
    [[19.758441, 46.0985888], [19.7584337, 46.0984056],
     [19.758437400000002, 46.0978896]]}},
  {"type":"Feature",
   "properties":{},
   "geometry":
   {"type":"LineString",
    "coordinates":
    [[19.758437400000002, 46.0978896], [19.7568504, 46.0979492],
     [19.7564789, 46.097961600000005]]}},
  {"type":"Feature",
   "properties":{},
   "geometry":
   {"type":"LineString",
    "coordinates":
    [[19.7564789, 46.097961600000005],
     [19.755611000000002, 46.0979721], [19.7552843, 46.0979596],
     [19.754981100000002, 46.0979481], [19.7544949, 46.0979077],
     [19.753976700000003, 46.097861900000005],
     [19.7534126, 46.0977839], [19.7531542, 46.097743400000006],
     [19.75245, 46.097633200000004], [19.7522817, 46.0975875],
     [19.7521317, 46.097523300000006],
     [19.752052300000003, 46.097479500000006],
     [19.7519649, 46.097412600000006],
     [19.7516068, 46.097047200000006]]}},
  {"type":"Feature",
   "properties":{},
   "geometry":
   {"type":"LineString",
    "coordinates":
    [[19.751258500000002, 46.095605400000004],
     [19.750991900000002, 46.096120600000006],
     [19.7509047, 46.0963368], [19.7509155, 46.096401400000005],
     [19.7512545, 46.0966924], [19.7516068, 46.097047200000006]]}},
  {"type":"Feature",
   "properties":{},
   "geometry":
   {"type":"LineString",
    "coordinates":
    [[19.751258500000002, 46.095605400000004],
     [19.751494100000002, 46.095263900000006],
     [19.751664700000003, 46.094839900000004],
     [19.7517923, 46.094448400000005], [19.7518335, 46.0938499],
     [19.751766500000002, 46.093535800000005],
     [19.7517742, 46.093277500000006], [19.751752200000002, 46.092742],
     [19.751935, 46.0922288], [19.7522103, 46.0918171],
     [19.7523328, 46.091498], [19.752313700000002, 46.0910286],
     [19.752371200000002, 46.090631], [19.752459, 46.0903368],
     [19.7525492, 46.0901678], [19.752604700000003, 46.0901183],
     [19.7526464, 46.090062200000006], [19.7529647, 46.0898837],
     [19.7531679, 46.0895973], [19.753263, 46.089400100000006],
     [19.7532584, 46.0892124], [19.7531243, 46.089032800000005],
     [19.7528089, 46.088809000000005], [19.7519968, 46.0885709],
     [19.7511753, 46.088286800000006],
     [19.750720700000002, 46.088073400000006],
     [19.750360800000003, 46.087853300000006],
     [19.7501383, 46.087623400000005],
     [19.750105100000003, 46.087295000000005],
     [19.7504792, 46.086493700000005], [19.750526, 46.0861503],
     [19.750557, 46.0861348]]}},
  {"type":"Feature",
   "properties":{},
   "geometry":
   {"type":"LineString",
    "coordinates":
    [[19.750557, 46.0861348], [19.7508123, 46.0856368]]}},
  {"type":"Feature",
   "properties":{},
   "geometry":
   {"type":"LineString",
    "coordinates":
    [[19.7508123, 46.0856368], [19.7510054, 46.0853503],
     [19.751479, 46.0848068], [19.751758000000002, 46.0845166],
     [19.751933, 46.0844035], [19.752477900000002, 46.0839699],
     [19.7529113, 46.0835463], [19.753276, 46.0830208],
     [19.753434300000002, 46.0827315],
     [19.753698500000002, 46.082247800000005],
     [19.753792500000003, 46.081988300000006],
     [19.753730700000002, 46.0817957], [19.7535591, 46.0815678],
     [19.7534142, 46.0810078], [19.753319, 46.0803901],
     [19.7533029, 46.0801408], [19.7534284, 46.079824200000004],
     [19.7534291, 46.0795587]]}},
  {"type":"Feature",
   "properties":{},
   "geometry":
   {"type":"LineString",
    "coordinates":
    [[19.7534291, 46.0795587], [19.7534372, 46.0791241],
     [19.7534591, 46.078890200000004],
     [19.753535000000003, 46.0779519],
     [19.753615800000002, 46.0774623],
     [19.7536808, 46.076837100000006],
     [19.753646800000002, 46.0766423],
     [19.7536133, 46.076508700000005], [19.7534762, 46.0760841],
     [19.7533903, 46.0759405], [19.7532678, 46.0758579],
     [19.7531274, 46.075804500000004], [19.75216, 46.075475600000004],
     [19.7511477, 46.075095000000005],
     [19.750954500000002, 46.0750145], [19.7507989, 46.0749432],
     [19.7506647, 46.0748569], [19.7505293, 46.074685800000005],
     [19.7504461, 46.074540600000006], [19.750426, 46.0743396],
     [19.750493000000002, 46.0738642],
     [19.750502400000002, 46.073748900000005],
     [19.750424600000002, 46.073537200000004],
     [19.7503111, 46.073450900000005], [19.7501533, 46.0734128],
     [19.7495766, 46.073415100000005], [19.7492042, 46.0734],
     [19.7488233, 46.073396200000005],
     [19.7479796, 46.073512900000004],
     [19.7469189, 46.073699000000005], [19.7456034, 46.0740436],
     [19.74539, 46.0740691], [19.7449105, 46.074164200000006],
     [19.7446543, 46.0742172], [19.744240700000002, 46.0742984],
     [19.7440403, 46.074336900000006],
     [19.743756700000002, 46.074394700000006],
     [19.7436453, 46.074423800000005], [19.7435166, 46.0744848],
     [19.743425600000002, 46.0745445], [19.743238, 46.0746282]]}},
  {"type":"Feature",
   "properties":{},
   "geometry":
   {"type":"LineString",
    "coordinates":
    [[19.743238, 46.0746282], [19.743083600000002, 46.0748413],
     [19.7425709, 46.0752881], [19.742320600000003, 46.0755947],
     [19.7415628, 46.076334700000004],
     [19.740805100000003, 46.0771053],
     [19.7407094, 46.077299200000006],
     [19.740393100000002, 46.0778861], [19.7401935, 46.0780654],
     [19.7399434, 46.0781987], [19.7396263, 46.078279200000004],
     [19.739152800000003, 46.0783226], [19.7376846, 46.0786078],
     [19.737031, 46.078585600000004], [19.7365777, 46.078514000000006],
     [19.7361593, 46.078354000000004], [19.7358233, 46.0782608],
     [19.734116500000003, 46.0778934],
     [19.733638300000003, 46.077873000000004],
     [19.7332116, 46.0779597], [19.7327628, 46.0780261],
     [19.7324097, 46.078031200000005], [19.7318138, 46.0779444],
     [19.7306761, 46.077996000000006]]}},
  {"type":"Feature",
   "properties":{},
   "geometry":
   {"type":"LineString",
    "coordinates":
    [[19.7306761, 46.077996000000006],
     [19.7302523, 46.078129100000005], [19.7299215, 46.0781724],
     [19.729181200000003, 46.078247600000005], [19.729005, 46.0782194],
     [19.7287447, 46.078147200000004], [19.7284715, 46.0779611],
     [19.7282723, 46.077739], [19.7279316, 46.0771743],
     [19.7278136, 46.0770422], [19.7276312, 46.0768246],
     [19.7274931, 46.076681300000004],
     [19.7273415, 46.076599400000006],
     [19.727097500000003, 46.076498900000004],
     [19.7268846, 46.0764307], [19.7266643, 46.076392000000006],
     [19.726461800000003, 46.0763064]]}},
  {"type":"Feature",
   "properties":{},
   "geometry":
   {"type":"LineString",
    "coordinates":
    [[19.726461800000003, 46.0763064],
     [19.7259682, 46.074174000000006], [19.7258444, 46.0733212]]}},
  {"type":"Feature",
   "properties":{},
   "geometry":
   {"type":"LineString",
    "coordinates":
    [[19.720861600000003, 46.072602700000004],
     [19.7214667, 46.0722642], [19.7218857, 46.0721287],
     [19.7223647, 46.0720808], [19.723623, 46.0722412],
     [19.7242904, 46.072454900000004], [19.7258444, 46.0733212]]}},
  {"type":"Feature",
   "properties":{},
   "geometry":
   {"type":"LineString",
    "coordinates":
    [[19.7207595, 46.071923500000004],
     [19.720861600000003, 46.072602700000004]]}},
  {"type":"Feature",
   "properties":{},
   "geometry":
   {"type":"LineString",
    "coordinates":
    [[19.7207595, 46.071923500000004],
     [19.719141800000003, 46.0719895], [19.7143629, 46.0721445],
     [19.711868000000003, 46.072159400000004],
     [19.710834900000002, 46.072194800000005],
     [19.709763300000002, 46.0722548],
     [19.709472100000003, 46.0722686], [19.7094343, 46.0722657],
     [19.709403700000003, 46.0722566],
     [19.709377200000002, 46.0722394],
     [19.709357100000002, 46.072211900000006],
     [19.709295100000002, 46.070686300000006]]}},
  {"type":"Feature",
   "properties":{},
   "geometry":
   {"type":"LineString",
    "coordinates":
    [[19.709295100000002, 46.070686300000006],
     [19.7085744, 46.0707529]]}},
  {"type":"Feature",
   "properties":{},
   "geometry":
   {"type":"LineString",
    "coordinates":
    [[19.7085744, 46.0707529],
     [19.707697200000002, 46.070785300000004],
     [19.7073852, 46.070848600000005],
     [19.707304800000003, 46.070820000000005],
     [19.707090400000002, 46.0708053], [19.7070149, 46.0708001],
     [19.7066288, 46.0707916], [19.7061084, 46.070817600000005],
     [19.7057766, 46.0708721], [19.7055311, 46.070902800000006],
     [19.7049325, 46.0709424], [19.7044906, 46.0709716],
     [19.7026596, 46.0710926]]}},
  {"type":"Feature",
   "properties":{},
   "geometry":
   {"type":"LineString",
    "coordinates":
    [[19.7026596, 46.0710926], [19.700981000000002, 46.0711809]]}},
  {"type":"Feature",
   "properties":{},
   "geometry":
   {"type":"LineString",
    "coordinates":
    [[19.700981000000002, 46.0711809],
     [19.7002266, 46.071208600000006], [19.6978204, 46.0712865],
     [19.6965653, 46.0713431], [19.6960403, 46.071332600000005],
     [19.6959215, 46.0713237], [19.695853, 46.0713183]]}},
  {"type":"Feature",
   "properties":{},
   "geometry":
   {"type":"LineString",
    "coordinates":
    [[19.695853, 46.0713183], [19.695823, 46.0713371],
     [19.6957409, 46.071352100000006], [19.6953746, 46.0713931],
     [19.6952038, 46.071416500000005],
     [19.6946553, 46.071488800000004], [19.6944231, 46.0715571],
     [19.6943042, 46.071582400000004], [19.6939338, 46.0716029],
     [19.693186400000002, 46.071611700000005],
     [19.6925931, 46.0716352], [19.6923822, 46.0716644],
     [19.692199900000002, 46.0717153], [19.6919559, 46.0718109],
     [19.691824500000003, 46.0718826], [19.691475, 46.072076900000006],
     [19.6901312, 46.0728603], [19.689468700000003, 46.0732883],
     [19.6892032, 46.073396200000005], [19.6890037, 46.0734368]]}},
  {"type":"Feature",
   "properties":{},
   "geometry":
   {"type":"LineString",
    "coordinates":
    [[19.688404300000002, 46.073419900000005],
     [19.6890037, 46.0734368]]}},
  {"type":"Feature",
   "properties":{},
   "geometry":
   {"type":"LineString",
    "coordinates":
    [[19.683698200000002, 46.07312], [19.6847494, 46.073191400000006],
     [19.6861937, 46.073282400000004],
     [19.687296200000002, 46.073351900000006],
     [19.688144700000002, 46.0734076],
     [19.688404300000002, 46.073419900000005]]}},
  {"type":"Feature",
   "properties":{},
   "geometry":
   {"type":"LineString",
    "coordinates":
    [[19.679408600000002, 46.072243], [19.679546600000002, 46.0722712],
     [19.6796294, 46.0722881], [19.679982300000002, 46.0723603],
     [19.680312, 46.072427700000006], [19.6806927, 46.072505500000005],
     [19.681123200000002, 46.0725935], [19.6811544, 46.0725999],
     [19.6821951, 46.0728157], [19.683698200000002, 46.07312]]}},
  {"type":"Feature",
   "properties":{},
   "geometry":
   {"type":"LineString",
    "coordinates":
    [[19.6740816, 46.071058900000004], [19.6742102, 46.0710877],
     [19.674546000000003, 46.0711628],
     [19.6767024, 46.071645100000005], [19.6791717, 46.0721931],
     [19.679286, 46.072218500000005],
     [19.679408600000002, 46.072243]]}},
  {"type":"Feature",
   "properties":{},
   "geometry":
   {"type":"LineString",
    "coordinates":
    [[19.67212, 46.0702159], [19.6729108, 46.0707462],
     [19.6730516, 46.070807], [19.673616600000003, 46.0709383],
     [19.673951900000002, 46.0710253],
     [19.6740816, 46.071058900000004]]}},
  {"type":"Feature",
   "properties":{},
   "geometry":
   {"type":"LineString",
    "coordinates":
    [[19.6677812, 46.073325000000004], [19.6694991, 46.0720893],
     [19.67212, 46.0702159]]}},
  {"type":"Feature",
   "properties":{},
   "geometry":
   {"type":"LineString",
    "coordinates":
    [[19.6673106, 46.0729929], [19.6677812, 46.073325000000004]]}},
  {"type":"Feature",
   "properties":{},
   "geometry":
   {"type":"LineString",
    "coordinates":
    [[19.6665408, 46.0734773], [19.666613, 46.0734687],
     [19.6673106, 46.0729929]]}},
  {"type":"Feature",
   "properties":{},
   "geometry":
   {"type":"LineString",
    "coordinates":
    [[19.6625187, 46.076239900000004], [19.6653395, 46.0742765],
     [19.665759, 46.073960400000004], [19.6659924, 46.073833900000004],
     [19.6664315, 46.0734982], [19.6665408, 46.0734773]]}},
  {"type":"Feature",
   "properties":{},
   "geometry":
   {"type":"LineString",
    "coordinates":
    [[19.6589947, 46.0738107], [19.6625187, 46.076239900000004]]}},
  {"type":"Feature",
   "properties":{},
   "geometry":
   {"type":"LineString",
    "coordinates":
    [[19.6582244, 46.0732511], [19.6589947, 46.0738107]]}},
  {"type":"Feature",
   "properties":{},
   "geometry":
   {"type":"LineString",
    "coordinates":
    [[19.642175400000003, 46.062133700000004],
     [19.6449696, 46.064063100000006], [19.648471, 46.0664925],
     [19.652010200000003, 46.0689313],
     [19.655520000000003, 46.0713628], [19.6582244, 46.0732511]]}},
  {"type":"Feature",
   "properties":{},
   "geometry":
   {"type":"LineString",
    "coordinates":
    [[19.641037100000002, 46.060797], [19.6411085, 46.0608925],
     [19.6413474, 46.061177300000004],
     [19.641511100000002, 46.061356800000006],
     [19.6417761, 46.0616356], [19.642073200000002, 46.0620374],
     [19.642175400000003, 46.062133700000004]]}},
  {"type":"Feature",
   "properties":{},
   "geometry":
   {"type":"LineString",
    "coordinates":
    [[19.641037100000002, 46.060797], [19.6406882, 46.060349900000006],
     [19.6393123, 46.058460700000005]]}},
  {"type":"Feature",
   "properties":{},
   "geometry":
   {"type":"LineString",
    "coordinates":
    [[19.6393123, 46.058460700000005], [19.6389634, 46.0580165]]}},
  {"type":"Feature",
   "properties":{},
   "geometry":
   {"type":"LineString",
    "coordinates":
    [[19.6389634, 46.0580165], [19.636829600000002, 46.0551983]]}},
  {"type":"Feature",
   "properties":{},
   "geometry":
   {"type":"LineString",
    "coordinates":
    [[19.636829600000002, 46.0551983], [19.6344259, 46.0520779],
     [19.633914100000002, 46.0514129],
     [19.6335434, 46.050839800000006],
     [19.633194500000002, 46.050455500000005],
     [19.632986300000002, 46.050132500000004], [19.632037, 46.0488231],
     [19.629358200000002, 46.0453914],
     [19.6280295, 46.043748300000004], [19.6276106, 46.043283],
     [19.6272036, 46.0428815], [19.623536, 46.038856200000005],
     [19.6223138, 46.037540500000006],
     [19.6219642, 46.037181700000005],
     [19.621745400000002, 46.037020500000004],
     [19.621146500000002, 46.0363532],
     [19.6210773, 46.036199700000004], [19.620985, 46.036083600000005],
     [19.619629200000002, 46.034399300000004],
     [19.6195069, 46.0342786], [19.6193923, 46.0340992],
     [19.618558, 46.033042300000005], [19.6163133, 46.030526800000004],
     [19.6161888, 46.0304185], [19.6161202, 46.0302896],
     [19.6160389, 46.0301739], [19.6153738, 46.0294297],
     [19.6151634, 46.0292459], [19.615053, 46.0290941],
     [19.614173100000002, 46.0279924],
     [19.6138927, 46.027641300000006],
     [19.613796500000003, 46.0275644],
     [19.613692500000003, 46.027370100000006],
     [19.613616200000003, 46.0272732],
     [19.6135014, 46.027181500000005],
     [19.6132977, 46.026869500000004], [19.6117914, 46.0250209],
     [19.6114722, 46.0246458], [19.6111577, 46.024252600000004],
     [19.610961500000002, 46.0239855], [19.6101269, 46.0229413],
     [19.6100692, 46.0228905], [19.6100286, 46.0228454],
     [19.6099806, 46.022801900000005]]}},
  {"type":"Feature",
   "properties":{},
   "geometry":
   {"type":"LineString",
    "coordinates":
    [[19.6099806, 46.022801900000005],
     [19.610183600000003, 46.0226363],
     [19.610358700000003, 46.0225172], [19.6104066, 46.0224847]]}},
  {"type":"Feature",
   "properties":{},
   "geometry":
   {"type":"LineString",
    "coordinates":
    [[19.6104066, 46.0224847], [19.6076702, 46.0191202],
     [19.605587800000002, 46.0168127],
     [19.604783700000002, 46.0158994],
     [19.604604300000002, 46.0156726],
     [19.6043306, 46.015177400000006], [19.6028549, 46.0119121],
     [19.6026929, 46.01151], [19.6024533, 46.0102929],
     [19.6022933, 46.009358600000006],
     [19.602207800000002, 46.0089952], [19.6018455, 46.0078216],
     [19.601373600000002, 46.0063618], [19.6010758, 46.0055003],
     [19.6010375, 46.005386800000004], [19.6009137, 46.0051542],
     [19.600799000000002, 46.0049867],
     [19.600456100000002, 46.0044374], [19.5984541, 45.9999046],
     [19.5974125, 45.9972342],
     [19.596995500000002, 45.996188200000006],
     [19.5969072, 45.9959757], [19.596783600000002, 45.9957974],
     [19.5966221, 45.9953353], [19.596436200000003, 45.9949638],
     [19.596358000000002, 45.9947821], [19.5963053, 45.9946465],
     [19.5962037, 45.9942371],
     [19.595885000000003, 45.992576400000004],
     [19.5957575, 45.991899200000006],
     [19.595703500000003, 45.9917134], [19.5952093, 45.98988],
     [19.5951421, 45.989733300000005],
     [19.595031600000002, 45.9895098], [19.594902, 45.9892929],
     [19.5947628, 45.989082800000006], [19.5934865, 45.9873233],
     [19.593291800000003, 45.987078800000006],
     [19.5923596, 45.985919700000004],
     [19.591141500000003, 45.9841259],
     [19.589646600000002, 45.982075900000005],
     [19.5892401, 45.981536500000004],
     [19.5891145, 45.981387700000006],
     [19.5890224, 45.981280700000006],
     [19.588934000000002, 45.9811947],
     [19.588859600000003, 45.9811369], [19.5886563, 45.9809829],
     [19.588425400000002, 45.9808101], [19.5881399, 45.9806109],
     [19.587886100000002, 45.9804575], [19.5875956, 45.9802873],
     [19.5873393, 45.980155], [19.5871046, 45.9800607],
     [19.5869244, 45.979999], [19.5847129, 45.9793248],
     [19.5839892, 45.9791116]]}},
  {"type":"Feature",
   "properties":{},
   "geometry":
   {"type":"LineString",
    "coordinates":
    [[19.5839892, 45.9791116], [19.5840557, 45.9790694],
     [19.5840876, 45.9790694], [19.5842964, 45.9791272],
     [19.5844185, 45.979156700000004],
     [19.584537100000002, 45.979166500000005],
     [19.5845966, 45.9791645], [19.5846927, 45.9791607],
     [19.584864800000002, 45.979136700000005],
     [19.5851122, 45.9790866], [19.5851887, 45.9790615],
     [19.5891579, 45.9753656], [19.5952305, 45.969982],
     [19.5984722, 45.9671235], [19.5989097, 45.966719600000005],
     [19.5993093, 45.966361500000005], [19.5918506, 45.9624687]]}},
  {"type":"Feature",
   "properties":{},
   "geometry":
   {"type":"LineString",
    "coordinates":
    [[19.5976366, 45.953875000000004], [19.597614, 45.9539861],
     [19.597314700000002, 45.954514200000006],
     [19.5970829, 45.9547156], [19.5958694, 45.955382400000005],
     [19.5934649, 45.956517000000005], [19.5932396, 45.9566893],
     [19.593098, 45.956922000000006], [19.5924671, 45.958099100000005],
     [19.591624200000002, 45.9596323], [19.5914337, 45.9600287],
     [19.591387400000002, 45.9603514],
     [19.591413000000003, 45.961379900000004],
     [19.5913741, 45.9619336], [19.591429700000003, 45.9627211],
     [19.591492300000002, 45.962720000000004],
     [19.591577400000002, 45.962510300000005],
     [19.5917081, 45.9624649], [19.5918506, 45.9624687]]}}]}
