{"type":"FeatureCollection",
 "properties":{},
 "features":
 [{"type":"Feature",
   "properties":{},
   "geometry":
   {"type":"LineString",
    "coordinates":
    [[19.119392700000002, 45.7722181],
     [19.1192721, 45.772169600000005], [19.1182219, 45.7716664],
     [19.1178493, 45.7714985], [19.1170417, 45.7710926],
     [19.1169508, 45.7710456], [19.116897, 45.7710178]]}},
  {"type":"Feature",
   "properties":{},
   "geometry":
   {"type":"LineString",
    "coordinates":
    [[19.119392700000002, 45.7722181],
     [19.1194509, 45.772148200000004], [19.119506, 45.7721005],
     [19.1195503, 45.7721], [19.1195784, 45.7720971],
     [19.1196042, 45.7720902], [19.1196285, 45.7720788],
     [19.1196483, 45.7720642], [19.1196649, 45.7720435],
     [19.119721300000002, 45.7719244],
     [19.1197692, 45.771921500000005], [19.1202204, 45.7720537]]}},
  {"type":"Feature",
   "properties":{},
   "geometry":
   {"type":"LineString",
    "coordinates":
    [[19.1202204, 45.7720537], [19.1203532, 45.7720472],
     [19.120648600000003, 45.772035200000005],
     [19.1215562, 45.772026800000006],
     [19.122210900000002, 45.7720604],
     [19.1227668, 45.772088800000006],
     [19.123287700000002, 45.7721256], [19.1233392, 45.7721473],
     [19.1239609, 45.7723859], [19.1250563, 45.7728595],
     [19.1251842, 45.772928500000006], [19.1253163, 45.772989],
     [19.125462600000002, 45.7730577],
     [19.125771500000003, 45.7731773],
     [19.125990400000003, 45.7732444]]}},
  {"type":"Feature",
   "properties":{},
   "geometry":
   {"type":"LineString",
    "coordinates":
    [[19.125990400000003, 45.7732444],
     [19.127967700000003, 45.7726983], [19.1295891, 45.7723218],
     [19.131384100000002, 45.771945200000005],
     [19.1324866, 45.771670900000004],
     [19.132627300000003, 45.7716562],
     [19.132817900000003, 45.771656300000004]]}},
  {"type":"Feature",
   "properties":{},
   "geometry":
   {"type":"LineString",
    "coordinates":
    [[19.132817900000003, 45.771656300000004],
     [19.1328926, 45.7716763], [19.133399800000003, 45.771787],
     [19.133564500000002, 45.771826000000004],
     [19.1336544, 45.7718313],
     [19.133781000000003, 45.771812700000005], [19.1338674, 45.771793],
     [19.1343067, 45.7717109], [19.1353256, 45.7715217],
     [19.1362437, 45.7713509], [19.136521000000002, 45.7712962],
     [19.1377136, 45.7710177]]}},
  {"type":"Feature",
   "properties":{},
   "geometry":
   {"type":"LineString",
    "coordinates":
    [[19.1393184, 45.767387600000006], [19.1393188, 45.7674308],
     [19.139324900000002, 45.7674687],
     [19.1393396, 45.767501900000006],
     [19.1397833, 45.768000300000004],
     [19.1397891, 45.768079400000005],
     [19.139761500000002, 45.768152300000004],
     [19.139419200000003, 45.76861], [19.1389499, 45.7692728],
     [19.1384304, 45.7700304], [19.1377136, 45.7710177]]}},
  {"type":"Feature",
   "properties":{},
   "geometry":
   {"type":"LineString",
    "coordinates":
    [[19.1393184, 45.767387600000006], [19.1402737, 45.7674968],
     [19.1402816, 45.7674977],
     [19.140376800000002, 45.767508500000005],
     [19.140404500000002, 45.7675117]]}},
  {"type":"Feature",
   "properties":{},
   "geometry":
   {"type":"LineString",
    "coordinates":
    [[19.140404500000002, 45.7675117], [19.1405096, 45.7675226]]}},
  {"type":"Feature",
   "properties":{},
   "geometry":
   {"type":"LineString",
    "coordinates":
    [[19.1405096, 45.7675226], [19.144036800000002, 45.7625892]]}},
  {"type":"Feature",
   "properties":{},
   "geometry":
   {"type":"LineString",
    "coordinates":
    [[19.144036800000002, 45.7625892], [19.1446767, 45.7624579],
     [19.1452557, 45.762348], [19.1462605, 45.762144500000005],
     [19.1470951, 45.7619708], [19.1478976, 45.761798500000005],
     [19.148263800000002, 45.7617034],
     [19.150246600000003, 45.7610055],
     [19.151578100000002, 45.7605316],
     [19.153148400000003, 45.7599705]]}},
  {"type":"Feature",
   "properties":{},
   "geometry":
   {"type":"LineString",
    "coordinates":
    [[19.153148400000003, 45.7599705],
     [19.157557200000003, 45.758394700000004],
     [19.159868600000003, 45.7575251], [19.1600515, 45.7574428],
     [19.1601527, 45.7573858], [19.160254000000002, 45.7573402],
     [19.1603812, 45.757285700000004],
     [19.160542500000002, 45.757242500000004], [19.160795, 45.7571857],
     [19.161994, 45.756954], [19.1642987, 45.7566155],
     [19.1663682, 45.756279400000004], [19.1693086, 45.755851],
     [19.169459, 45.7558153], [19.1699696, 45.755694000000005],
     [19.170764300000002, 45.755566800000004],
     [19.172607600000003, 45.7553077],
     [19.175245500000003, 45.7549123], [19.1768851, 45.7547257],
     [19.1773315, 45.7546635], [19.1777863, 45.7545767],
     [19.178239, 45.7545603], [19.1790664, 45.7544223],
     [19.179253600000003, 45.754383000000004],
     [19.179590400000002, 45.754324200000006]]}},
  {"type":"Feature",
   "properties":{},
   "geometry":
   {"type":"LineString",
    "coordinates":
    [[19.179590400000002, 45.754324200000006],
     [19.1797693, 45.7542971], [19.190348500000002, 45.7525284],
     [19.197259300000002, 45.7514344],
     [19.199840100000003, 45.7510203],
     [19.2000269, 45.750990300000005], [19.200109, 45.7509773],
     [19.203395500000003, 45.7504581],
     [19.203580600000002, 45.7504286], [19.2037555, 45.7504007],
     [19.2062253, 45.7500069], [19.2084209, 45.7496371],
     [19.209170800000003, 45.7495157], [19.2092351, 45.7495053],
     [19.2097301, 45.749414400000006], [19.2102121, 45.7492962],
     [19.210700600000003, 45.7491508],
     [19.211659700000002, 45.7488356],
     [19.211710200000002, 45.748819000000005],
     [19.2138034, 45.748119700000004],
     [19.213859600000003, 45.748100900000004], [19.2187838, 45.746501],
     [19.220633600000003, 45.7459191], [19.2236037, 45.7449419],
     [19.2241965, 45.744751], [19.2243309, 45.744717200000004]]}},
  {"type":"Feature",
   "properties":{},
   "geometry":
   {"type":"LineString",
    "coordinates":
    [[19.2243309, 45.744717200000004],
     [19.2245938, 45.744651000000005], [19.2248869, 45.7446101],
     [19.2257141, 45.744551]]}},
  {"type":"Feature",
   "properties":{},
   "geometry":
   {"type":"LineString",
    "coordinates":
    [[19.2257141, 45.744551], [19.228313, 45.7443916],
     [19.229016400000003, 45.7443553],
     [19.229356900000003, 45.744349500000006],
     [19.2298832, 45.744405300000004], [19.2307685, 45.7444646],
     [19.2319475, 45.744528300000006], [19.2325988, 45.7446446],
     [19.2328899, 45.744658]]}},
  {"type":"Feature",
   "properties":{},
   "geometry":
   {"type":"LineString",
    "coordinates":
    [[19.2328899, 45.744658], [19.2331755, 45.7446946]]}},
  {"type":"Feature",
   "properties":{},
   "geometry":
   {"type":"LineString",
    "coordinates":
    [[19.2331755, 45.7446946], [19.233604500000002, 45.7447263],
     [19.2400372, 45.745201], [19.2419693, 45.7453793],
     [19.242080100000003, 45.745383800000006],
     [19.2422559, 45.7453702], [19.2429008, 45.7452611],
     [19.2445422, 45.744970200000004], [19.2467425, 45.7445779],
     [19.246939100000002, 45.744542900000006],
     [19.2477272, 45.7444111],
     [19.247994300000002, 45.744406600000005],
     [19.2491714, 45.744398200000006],
     [19.253485100000002, 45.744367200000006],
     [19.256216900000002, 45.7443304],
     [19.256403300000002, 45.744325800000006],
     [19.256560200000003, 45.7443052],
     [19.256686300000002, 45.744261200000004],
     [19.257035000000002, 45.744118900000004],
     [19.263028900000002, 45.741593200000004],
     [19.2635174, 45.7413838], [19.2649373, 45.7407753],
     [19.2703069, 45.738452200000005]]}},
  {"type":"Feature",
   "properties":{},
   "geometry":
   {"type":"LineString",
    "coordinates":
    [[19.2703069, 45.738452200000005],
     [19.2728286, 45.737322000000006], [19.2741915, 45.7367709],
     [19.275305600000003, 45.736287700000005],
     [19.276030300000002, 45.735940400000004],
     [19.277036300000002, 45.7355554], [19.2784809, 45.7349127],
     [19.278637200000002, 45.7348457], [19.2789292, 45.7347325],
     [19.280690200000002, 45.7339441], [19.2827431, 45.7330623],
     [19.283328700000002, 45.732809700000004],
     [19.293271400000002, 45.7303141], [19.295386, 45.729812900000006],
     [19.296075700000003, 45.729652800000004],
     [19.3035782, 45.727079700000004], [19.306802100000002, 45.725974],
     [19.307693800000003, 45.725695200000004],
     [19.307866800000003, 45.725537300000006],
     [19.3084436, 45.7234598], [19.310795300000002, 45.7169491],
     [19.312285900000003, 45.713059400000006],
     [19.3123074, 45.712997800000004],
     [19.312344500000002, 45.7128911]]}},
  {"type":"Feature",
   "properties":{},
   "geometry":
   {"type":"LineString",
    "coordinates":
    [[19.312344500000002, 45.7128911], [19.3124436, 45.7126061]]}},
  {"type":"Feature",
   "properties":{},
   "geometry":
   {"type":"LineString",
    "coordinates":
    [[19.3124436, 45.7126061],
     [19.313963700000002, 45.708359200000004],
     [19.313903200000002, 45.708260300000006],
     [19.3139276, 45.7081601], [19.3139863, 45.7079194],
     [19.314082900000002, 45.7076141], [19.3141901, 45.7073368],
     [19.3143135, 45.7070334], [19.3144476, 45.706789900000004],
     [19.3147266, 45.706449000000006], [19.3149626, 45.7062505],
     [19.315185200000002, 45.7059845], [19.3153489, 45.7056679],
     [19.3156412, 45.7052708], [19.3160087, 45.7048007],
     [19.3162233, 45.7044392],
     [19.316547800000002, 45.704028900000004],
     [19.316671200000002, 45.7038323],
     [19.3167677, 45.703658100000006], [19.3168133, 45.7034801],
     [19.3164537, 45.702024400000006]]}},
  {"type":"Feature",
   "properties":{},
   "geometry":
   {"type":"LineString",
    "coordinates":
    [[19.326787900000003, 45.6985995],
     [19.326674800000003, 45.6986201],
     [19.3262781, 45.698690500000005], [19.3259081, 45.6987601],
     [19.325399100000002, 45.6988574],
     [19.325216100000002, 45.6988836],
     [19.324169400000002, 45.6989966],
     [19.3227805, 45.699161000000004], [19.3218427, 45.6992776],
     [19.3193892, 45.6995938], [19.3164735, 45.6999635],
     [19.316166900000002, 45.7000024],
     [19.316036800000003, 45.7000268],
     [19.315939500000002, 45.700058000000006], [19.3159215, 45.700097],
     [19.3159296, 45.7001392], [19.315947, 45.700231900000006],
     [19.316006, 45.700436100000005], [19.316124000000002, 45.700867],
     [19.316352000000002, 45.7016846],
     [19.3164537, 45.702024400000006]]}},
  {"type":"Feature",
   "properties":{},
   "geometry":
   {"type":"LineString",
    "coordinates":
    [[19.326953, 45.698572000000006],
     [19.326787900000003, 45.6985995]]}},
  {"type":"Feature",
   "properties":{},
   "geometry":
   {"type":"LineString",
    "coordinates":
    [[19.330399800000002, 45.698648000000006],
     [19.329615200000003, 45.6986232], [19.3292356, 45.6986063],
     [19.3288559, 45.6985893], [19.327609900000002, 45.6985119],
     [19.327405000000002, 45.6985163], [19.3272036, 45.6985322],
     [19.3270331, 45.698558000000006],
     [19.326953, 45.698572000000006]]}},
  {"type":"Feature",
   "properties":{},
   "geometry":
   {"type":"LineString",
    "coordinates":
    [[19.3589711, 45.6986034], [19.358842000000003, 45.6986034],
     [19.3551933, 45.6987474], [19.3551694, 45.698748],
     [19.345030700000002, 45.699007], [19.3445246, 45.699029100000004],
     [19.3417882, 45.699178200000006],
     [19.341582600000002, 45.699183700000006],
     [19.3414086, 45.699167200000005], [19.3412109, 45.6991451],
     [19.3406169, 45.6989904], [19.3398743, 45.6987971],
     [19.3396766, 45.6987584], [19.3395026, 45.698719800000006],
     [19.339378500000002, 45.6987128], [19.3391513, 45.6987241],
     [19.336782, 45.698857800000006], [19.3364182, 45.6988689],
     [19.336094000000003, 45.6988689], [19.3329901, 45.6987541],
     [19.330399800000002, 45.698648000000006]]}},
  {"type":"Feature",
   "properties":{},
   "geometry":
   {"type":"LineString",
    "coordinates":
    [[19.359055, 45.6986034], [19.3589711, 45.6986034]]}},
  {"type":"Feature",
   "properties":{},
   "geometry":
   {"type":"LineString",
    "coordinates":
    [[19.3599621, 45.6987253], [19.359758000000003, 45.698677],
     [19.359535100000002, 45.6986347],
     [19.3593161, 45.698605400000005], [19.3590947, 45.6986034],
     [19.359055, 45.6986034]]}},
  {"type":"Feature",
   "properties":{},
   "geometry":
   {"type":"LineString",
    "coordinates":
    [[19.360016700000003, 45.6987436], [19.3599621, 45.6987253]]}},
  {"type":"Feature",
   "properties":{},
   "geometry":
   {"type":"LineString",
    "coordinates":
    [[19.3628541, 45.698925900000006], [19.362659, 45.6989462],
     [19.3620026, 45.6989959], [19.3615043, 45.6990125],
     [19.361203800000002, 45.6989959],
     [19.3608558, 45.698957300000004], [19.3604446, 45.6988744],
     [19.360159900000003, 45.6987916],
     [19.360016700000003, 45.6987436]]}},
  {"type":"Feature",
   "properties":{},
   "geometry":
   {"type":"LineString",
    "coordinates":
    [[19.3707429, 45.7014511], [19.370497800000003, 45.7012547],
     [19.370201700000003, 45.701069800000006],
     [19.3699063, 45.700909100000004],
     [19.3695999, 45.700766800000004], [19.368863, 45.700497000000006],
     [19.368704700000002, 45.700442], [19.368199100000002, 45.7002797],
     [19.3680261, 45.700219700000005],
     [19.3679048, 45.700143700000005],
     [19.3678196, 45.700048300000006],
     [19.367772600000002, 45.699950900000005],
     [19.3677257, 45.6998179], [19.3675192, 45.6993899],
     [19.3673837, 45.699086400000006], [19.3670994, 45.6984757],
     [19.3670136, 45.698334200000005],
     [19.3669492, 45.698285500000004],
     [19.3668553, 45.698285500000004],
     [19.365928500000003, 45.6984572],
     [19.3648826, 45.698619900000004],
     [19.363785500000002, 45.698795100000005],
     [19.3628541, 45.698925900000006]]}},
  {"type":"Feature",
   "properties":{},
   "geometry":
   {"type":"LineString",
    "coordinates":
    [[19.3709564, 45.701938500000004],
     [19.3709095, 45.701730500000004], [19.3708786, 45.7016312],
     [19.370814300000003, 45.701524500000005],
     [19.3707429, 45.7014511]]}},
  {"type":"Feature",
   "properties":{},
   "geometry":
   {"type":"LineString",
    "coordinates":
    [[19.3709564, 45.701938500000004], [19.372102, 45.701854000000004],
     [19.372728900000002, 45.701799900000005], [19.374368, 45.7016586],
     [19.375643, 45.701577], [19.3776599, 45.7014441],
     [19.379379200000002, 45.7013308], [19.3802263, 45.701275],
     [19.3803056, 45.701269800000006],
     [19.381217200000002, 45.701220500000005]]}},
  {"type":"Feature",
   "properties":{},
   "geometry":
   {"type":"LineString",
    "coordinates":
    [[19.381217200000002, 45.701220500000005],
     [19.381542800000002, 45.7012037], [19.3815814, 45.7012018],
     [19.381619, 45.701199800000005], [19.3817296, 45.7011941],
     [19.3818179, 45.7011896]]}},
  {"type":"Feature",
   "properties":{},
   "geometry":
   {"type":"LineString",
    "coordinates":
    [[19.3818294, 45.7013331], [19.3818179, 45.7011896]]}},
  {"type":"Feature",
   "properties":{},
   "geometry":
   {"type":"LineString",
    "coordinates":
    [[19.3818294, 45.7013331], [19.3820684, 45.701546400000005],
     [19.382132600000002, 45.701647400000006],
     [19.3821733, 45.7017692]]}},
  {"type":"Feature",
   "properties":{},
   "geometry":
   {"type":"LineString",
    "coordinates":
    [[19.3824255, 45.7020302],
     [19.382331100000002, 45.701790100000004],
     [19.3821733, 45.7017692]]}},
  {"type":"Feature",
   "properties":{},
   "geometry":
   {"type":"LineString",
    "coordinates":
    [[19.3824255, 45.7020302],
     [19.382691100000002, 45.702706500000005],
     [19.3827608, 45.7029912], [19.3827581, 45.703075500000004],
     [19.3829445, 45.703496]]}},
  {"type":"Feature",
   "properties":{},
   "geometry":
   {"type":"LineString",
    "coordinates":
    [[19.3829445, 45.703496], [19.384624900000002, 45.703259700000004],
     [19.3856267, 45.7031189], [19.3859582, 45.7030339],
     [19.3864786, 45.702776], [19.3867525, 45.702649900000004],
     [19.3872423, 45.702424300000004], [19.3878345, 45.7023056],
     [19.388722, 45.7021384], [19.388954100000003, 45.7020946],
     [19.389772800000003, 45.701999400000005],
     [19.3905882, 45.701956300000006], [19.3914389, 45.7019114],
     [19.3923957, 45.7018118], [19.392466000000002, 45.701801],
     [19.393849, 45.7015894], [19.3953808, 45.7013551],
     [19.3954802, 45.7013399],
     [19.395662400000003, 45.701322700000006],
     [19.3967256, 45.7012221],
     [19.398703100000002, 45.701035100000006],
     [19.3989213, 45.7010087]]}},
  {"type":"Feature",
   "properties":{},
   "geometry":
   {"type":"LineString",
    "coordinates":
    [[19.4309085, 45.7091179],
     [19.428231800000002, 45.711559900000005],
     [19.4115879, 45.7030581], [19.4114907, 45.7030085],
     [19.4073451, 45.700880000000005],
     [19.406941200000002, 45.700672600000004],
     [19.4067434, 45.7005847], [19.4065277, 45.700559600000005],
     [19.399331, 45.700984500000004], [19.3989213, 45.7010087]]}},
  {"type":"Feature",
   "properties":{},
   "geometry":
   {"type":"LineString",
    "coordinates":
    [[19.4309085, 45.7091179], [19.431250600000002, 45.7090526],
     [19.435981100000003, 45.706450100000005]]}},
  {"type":"Feature",
   "properties":{},
   "geometry":
   {"type":"LineString",
    "coordinates":
    [[19.476009700000002, 45.7270727], [19.4696119, 45.7237102],
     [19.4677888, 45.722774400000006], [19.459472, 45.7185347],
     [19.454023000000003, 45.715776600000005],
     [19.451089200000002, 45.7142915],
     [19.442768400000002, 45.7099367],
     [19.435981100000003, 45.706450100000005]]}},
  {"type":"Feature",
   "properties":{},
   "geometry":
   {"type":"LineString",
    "coordinates":
    [[19.476009700000002, 45.7270727], [19.4794787, 45.7236477]]}},
  {"type":"Feature",
   "properties":{},
   "geometry":
   {"type":"LineString",
    "coordinates":
    [[19.4794787, 45.7236477],
     [19.480174400000003, 45.723083300000006],
     [19.4885181, 45.727480500000006],
     [19.488667600000003, 45.7275457], [19.4932619, 45.729891],
     [19.494889200000003, 45.730765100000006],
     [19.4952642, 45.730961400000005], [19.4953848, 45.7309928],
     [19.4955605, 45.7310202], [19.49566, 45.7310376],
     [19.495795400000002, 45.731076300000005],
     [19.4960956, 45.731195]]}},
  {"type":"Feature",
   "properties":{},
   "geometry":
   {"type":"LineString",
    "coordinates":
    [[19.4960956, 45.731195], [19.498028400000003, 45.732049100000005],
     [19.5001335, 45.7329449],
     [19.502315300000003, 45.733873300000006],
     [19.503246100000002, 45.734266000000005],
     [19.5042984, 45.7347058], [19.504744600000002, 45.7349101],
     [19.505160500000002, 45.735124400000004],
     [19.5056166, 45.7353761], [19.5061122, 45.735686900000005],
     [19.5065712, 45.736009800000005],
     [19.5069823, 45.736339400000006], [19.5082507, 45.7375412],
     [19.5083522, 45.7376245], [19.508446000000003, 45.7376784],
     [19.511254400000002, 45.739646900000004],
     [19.517681200000002, 45.743357100000004],
     [19.5227338, 45.746013100000006]]}},
  {"type":"Feature",
   "properties":{},
   "geometry":
   {"type":"LineString",
    "coordinates":
    [[19.5227338, 45.746013100000006], [19.5235244, 45.7464257]]}},
  {"type":"Feature",
   "properties":{},
   "geometry":
   {"type":"LineString",
    "coordinates":
    [[19.5192438, 45.7495087], [19.520515800000002, 45.7485962],
     [19.5220305, 45.747498400000005], [19.5234464, 45.7464997],
     [19.5235244, 45.7464257]]}},
  {"type":"Feature",
   "properties":{},
   "geometry":
   {"type":"LineString",
    "coordinates":
    [[19.5192438, 45.7495087],
     [19.519121000000002, 45.749601500000004],
     [19.5188478, 45.7498572], [19.5184259, 45.7502403],
     [19.516611100000002, 45.7520347], [19.5160975, 45.7525314],
     [19.513792000000002, 45.755689700000005],
     [19.5135575, 45.7560109]]}},
  {"type":"Feature",
   "properties":{},
   "geometry":
   {"type":"LineString",
    "coordinates":
    [[19.5135575, 45.7560109], [19.5127619, 45.7570472],
     [19.5072172, 45.7646462], [19.5016104, 45.7722807],
     [19.4975956, 45.7774305], [19.5003622, 45.779003700000004],
     [19.500681200000002, 45.7792], [19.5008781, 45.779340600000005],
     [19.500982200000003, 45.779379600000006],
     [19.5017868, 45.7796439], [19.503856900000002, 45.7809509],
     [19.5042885, 45.7811895]]}},
  {"type":"Feature",
   "properties":{},
   "geometry":
   {"type":"LineString",
    "coordinates":
    [[19.5042885, 45.7811895], [19.5034876, 45.7818577],
     [19.5030557, 45.782322900000004], [19.5019931, 45.7832294],
     [19.500341900000002, 45.784710600000004],
     [19.4998031, 45.785089400000004]]}},
  {"type":"Feature",
   "properties":{},
   "geometry":
   {"type":"LineString",
    "coordinates":
    [[19.4998031, 45.785089400000004], [19.5099553, 45.7906592],
     [19.5204007, 45.7962244]]}},
  {"type":"Feature",
   "properties":{},
   "geometry":
   {"type":"LineString",
    "coordinates":
    [[19.5505649, 45.799736900000006],
     [19.550465600000003, 45.7996598], [19.5503691, 45.7996064],
     [19.549750600000003, 45.799321500000005],
     [19.549501000000003, 45.7991771],
     [19.549160500000003, 45.7989873],
     [19.5489335, 45.798866600000004],
     [19.5486782, 45.798742000000004], [19.548508, 45.7986985],
     [19.548227100000002, 45.7986312],
     [19.548090900000002, 45.798593600000004],
     [19.548008600000003, 45.7985679],
     [19.547880900000003, 45.7985066],
     [19.547478100000003, 45.798265300000004],
     [19.546334700000003, 45.7976382],
     [19.545319000000003, 45.7970982],
     [19.544873600000003, 45.7968569], [19.5439446, 45.7963559],
     [19.5438809, 45.7963302], [19.543801000000002, 45.7963089],
     [19.5429798, 45.796765400000005],
     [19.541849600000003, 45.797315700000006],
     [19.531880700000002, 45.8026155],
     [19.5277406, 45.800310700000004], [19.5204007, 45.7962244]]}},
  {"type":"Feature",
   "properties":{},
   "geometry":
   {"type":"LineString",
    "coordinates":
    [[19.5506557, 45.799816], [19.5505649, 45.799736900000006]]}},
  {"type":"Feature",
   "properties":{},
   "geometry":
   {"type":"LineString",
    "coordinates":
    [[19.5713776, 45.8108353], [19.5643017, 45.807302400000005],
     [19.5591405, 45.8045264], [19.555883100000003, 45.8027311],
     [19.553895500000003, 45.801664], [19.5533587, 45.8013318],
     [19.5514987, 45.8003349], [19.5508725, 45.7999765],
     [19.550755000000002, 45.799905], [19.5507096, 45.799869400000006],
     [19.5506557, 45.799816]]}},
  {"type":"Feature",
   "properties":{},
   "geometry":
   {"type":"LineString",
    "coordinates":
    [[19.5715688, 45.8109307], [19.5713776, 45.8108353]]}},
  {"type":"Feature",
   "properties":{},
   "geometry":
   {"type":"LineString",
    "coordinates":
    [[19.606211400000003, 45.822397800000005], [19.6059264, 45.822378],
     [19.602454700000003, 45.822568600000004],
     [19.597257000000003, 45.8228546], [19.5971853, 45.8228773],
     [19.597133200000002, 45.8229272], [19.5972696, 45.8237448],
     [19.595511000000002, 45.822864800000005], [19.584734, 45.8175092],
     [19.5814992, 45.8158845], [19.5797721, 45.8149997],
     [19.5743487, 45.812318600000005], [19.5715688, 45.8109307]]}},
  {"type":"Feature",
   "properties":{},
   "geometry":
   {"type":"LineString",
    "coordinates":
    [[19.625029100000003, 45.823976300000005],
     [19.6249575, 45.823918400000004],
     [19.6248116, 45.823843000000004], [19.6245255, 45.8237449],
     [19.6244166, 45.823735000000006],
     [19.6238566, 45.823728700000004],
     [19.6236198, 45.823738500000005],
     [19.6231492, 45.823741000000005],
     [19.622897700000003, 45.8237399],
     [19.622490600000003, 45.8237387], [19.6212814, 45.8236064],
     [19.6209919, 45.8235814],
     [19.620049400000003, 45.823496500000005],
     [19.619276900000003, 45.823443600000004],
     [19.618438400000002, 45.823387800000006],
     [19.617593600000003, 45.823314800000006],
     [19.616828, 45.823229500000004], [19.616399, 45.8231954],
     [19.614008000000002, 45.8230087],
     [19.606299500000002, 45.8224047],
     [19.606211400000003, 45.822397800000005]]}},
  {"type":"Feature",
   "properties":{},
   "geometry":
   {"type":"LineString",
    "coordinates":
    [[19.6253347, 45.824794100000005],
     [19.625029100000003, 45.823976300000005]]}},
  {"type":"Feature",
   "properties":{},
   "geometry":
   {"type":"LineString",
    "coordinates":
    [[19.6254522, 45.8251087], [19.6253347, 45.824794100000005]]}},
  {"type":"Feature",
   "properties":{},
   "geometry":
   {"type":"LineString",
    "coordinates":
    [[19.6259157, 45.8251599], [19.6254522, 45.8251087]]}},
  {"type":"Feature",
   "properties":{},
   "geometry":
   {"type":"LineString",
    "coordinates":
    [[19.6269448, 45.8252887], [19.6267028, 45.8252493],
     [19.6261127, 45.8251817], [19.6259157, 45.8251599]]}},
  {"type":"Feature",
   "properties":{},
   "geometry":
   {"type":"LineString",
    "coordinates":
    [[19.6269448, 45.8252887],
     [19.626868100000003, 45.825491400000004],
     [19.6267904, 45.825684900000006],
     [19.626582000000003, 45.826434400000004], [19.6262835, 45.828034],
     [19.6260948, 45.8289787], [19.626113500000002, 45.8291802]]}},
  {"type":"Feature",
   "properties":{},
   "geometry":
   {"type":"LineString",
    "coordinates":
    [[19.6299792, 45.8295048],
     [19.627770400000003, 45.829312800000004],
     [19.626113500000002, 45.8291802]]}},
  {"type":"Feature",
   "properties":{},
   "geometry":
   {"type":"LineString",
    "coordinates":
    [[19.629829, 45.8311682], [19.6296274, 45.8302825],
     [19.6296465, 45.8301786], [19.6296988, 45.8300658],
     [19.6299792, 45.8295048]]}},
  {"type":"Feature",
   "properties":{},
   "geometry":
   {"type":"LineString",
    "coordinates":
    [[19.6321975, 45.833557400000004],
     [19.632006200000003, 45.8334441], [19.6318446, 45.8333608],
     [19.6317862, 45.833327700000005],
     [19.631696700000003, 45.8333376],
     [19.6314734, 45.833099100000005], [19.6306783, 45.8321801],
     [19.6301723, 45.831543200000006], [19.6299952, 45.8313203],
     [19.629829, 45.8311682]]}},
  {"type":"Feature",
   "properties":{},
   "geometry":
   {"type":"LineString",
    "coordinates":
    [[19.632501100000002, 45.8337457],
     [19.6321975, 45.833557400000004]]}},
  {"type":"Feature",
   "properties":{},
   "geometry":
   {"type":"LineString",
    "coordinates":
    [[19.634496600000002, 45.835811500000005],
     [19.6344688, 45.8357893], [19.634389000000002, 45.8355705],
     [19.634328200000002, 45.8354257],
     [19.634247000000002, 45.8352385],
     [19.6342135, 45.835099500000005],
     [19.634085300000002, 45.834864100000004],
     [19.6338008, 45.8345891], [19.6336115, 45.834465200000004],
     [19.6333892, 45.8342996], [19.632501100000002, 45.8337457]]}},
  {"type":"Feature",
   "properties":{},
   "geometry":
   {"type":"LineString",
    "coordinates":
    [[19.630119800000003, 45.843605100000005],
     [19.6299913, 45.8434425], [19.629882600000002, 45.8432578],
     [19.6296831, 45.842974100000006],
     [19.629259100000002, 45.842584200000005],
     [19.6289319, 45.8422964],
     [19.628762100000003, 45.841824700000004],
     [19.628894600000002, 45.8417552],
     [19.629052400000003, 45.8416769], [19.6292057, 45.8417005],
     [19.629416600000003, 45.841864], [19.62968, 45.8423724],
     [19.6299771, 45.842739300000005],
     [19.630522600000003, 45.843027600000006],
     [19.6310305, 45.843145500000006],
     [19.631188400000003, 45.8431167],
     [19.6312712, 45.843009200000004],
     [19.631276200000002, 45.842991600000005],
     [19.6313163, 45.842849400000006], [19.6313728, 45.8427026],
     [19.631391500000003, 45.842373], [19.6314819, 45.841788],
     [19.631557100000002, 45.8414474],
     [19.631568400000003, 45.8410464], [19.6317527, 45.8407293],
     [19.6319258, 45.8403938], [19.632091300000003, 45.8399378],
     [19.632049900000002, 45.8395657],
     [19.6318129, 45.839256500000005],
     [19.6316925, 45.838952500000005],
     [19.631399100000003, 45.8386432], [19.631132, 45.8384152],
     [19.6311508, 45.838310400000005],
     [19.631184700000002, 45.8381662], [19.631466, 45.8380232],
     [19.6314819, 45.8379199],
     [19.632174000000003, 45.837642100000004],
     [19.6328813, 45.8373695], [19.6331032, 45.8371179],
     [19.633539600000002, 45.836606800000006],
     [19.6337653, 45.8364653],
     [19.634036100000003, 45.836376200000004],
     [19.6343107, 45.836326400000004], [19.634607900000002, 45.836232],
     [19.6347208, 45.836132400000004],
     [19.634728300000003, 45.8360252],
     [19.634675700000003, 45.835954400000006],
     [19.634496600000002, 45.835811500000005]]}},
  {"type":"Feature",
   "properties":{},
   "geometry":
   {"type":"LineString",
    "coordinates":
    [[19.630119800000003, 45.843605100000005],
     [19.6301457, 45.843687300000006],
     [19.630220100000003, 45.8437758], [19.6304561, 45.8439878],
     [19.630567900000003, 45.8441782], [19.6305866, 45.8443254],
     [19.6304996, 45.8449874], [19.6304251, 45.8451475],
     [19.630263600000003, 45.8451778],
     [19.629934300000002, 45.845195100000005],
     [19.6294639, 45.8452582],
     [19.628642300000003, 45.845485100000005], [19.6281319, 45.845688],
     [19.628031800000002, 45.8458471],
     [19.6280676, 45.845957500000004],
     [19.628030300000002, 45.846130900000006],
     [19.628213300000002, 45.8464334], [19.6284704, 45.8469338],
     [19.6285901, 45.8471533], [19.6288319, 45.8473266],
     [19.629080300000002, 45.847469700000005],
     [19.6292233, 45.847666100000005], [19.6292307, 45.8482263],
     [19.629401, 45.848570300000006], [19.6294507, 45.8487774],
     [19.6292276, 45.849129100000006],
     [19.629019200000002, 45.849534500000004],
     [19.6288024, 45.849979700000006],
     [19.628563800000002, 45.8502835],
     [19.6282412, 45.850552300000004], [19.6282086, 45.8506115],
     [19.6282259, 45.850709], [19.628473, 45.8509631],
     [19.6286616, 45.851231600000006], [19.628697900000002, 45.851413],
     [19.628665100000003, 45.851817200000006],
     [19.6286819, 45.852223800000004],
     [19.628216300000002, 45.852772200000004],
     [19.6281474, 45.8529269],
     [19.628025400000002, 45.853013600000004],
     [19.6283114, 45.8535425],
     [19.628813700000002, 45.854781300000006],
     [19.628928000000002, 45.855085700000004],
     [19.6289488, 45.855191600000005], [19.628831, 45.855381300000005],
     [19.628724400000003, 45.8555323],
     [19.6285983, 45.855680400000004],
     [19.6284412, 45.856025300000006], [19.628453, 45.856259300000005],
     [19.6283897, 45.856479], [19.628483900000003, 45.856606400000004],
     [19.6285293, 45.856667900000005],
     [19.6286115, 45.856768900000006]]}},
  {"type":"Feature",
   "properties":{},
   "geometry":
   {"type":"LineString",
    "coordinates":
    [[19.6286115, 45.856768900000006],
     [19.628549900000003, 45.8569717]]}},
  {"type":"Feature",
   "properties":{},
   "geometry":
   {"type":"LineString",
    "coordinates":
    [[19.628549900000003, 45.8569717], [19.62852, 45.857070400000005],
     [19.6285515, 45.8574542], [19.628548900000002, 45.8574977],
     [19.6286501, 45.857987900000005], [19.6287635, 45.858356],
     [19.628828600000002, 45.858855600000005],
     [19.6290002, 45.8591745], [19.6292316, 45.8593945],
     [19.629489200000002, 45.8596968], [19.6295243, 45.8600514]]}},
  {"type":"Feature",
   "properties":{},
   "geometry":
   {"type":"LineString",
    "coordinates":
    [[19.6295243, 45.8600514], [19.629628200000003, 45.8604074],
     [19.629734000000003, 45.8605948],
     [19.629797500000002, 45.860764100000004],
     [19.629819700000002, 45.860910700000005],
     [19.629751600000002, 45.861042000000005],
     [19.6295964, 45.861343000000005],
     [19.629499000000003, 45.8616109], [19.629317, 45.8618073],
     [19.629083700000002, 45.8619271], [19.6288141, 45.8621484],
     [19.6281988, 45.8624425], [19.6277589, 45.8624797],
     [19.6273975, 45.8626136], [19.6271579, 45.862770000000005],
     [19.6269779, 45.862836900000005],
     [19.6267913, 45.862861200000005], [19.6254566, 45.8626501],
     [19.6252257, 45.8626172], [19.6251016, 45.8626589],
     [19.6250359, 45.8628021], [19.6247423, 45.863263],
     [19.624532300000002, 45.863719200000006],
     [19.6242038, 45.863906500000006],
     [19.623766200000002, 45.8640221], [19.6232882, 45.8642453],
     [19.622792800000003, 45.8643955],
     [19.622075900000002, 45.8645538],
     [19.621679500000003, 45.8646431], [19.6213531, 45.8646918],
     [19.6212908, 45.864721700000004],
     [19.6209975, 45.864862300000006], [19.6206478, 45.8650936],
     [19.620397200000003, 45.8652966], [19.6200046, 45.8655774],
     [19.6198912, 45.8657337], [19.619779700000002, 45.8658123],
     [19.6197035, 45.865836400000006], [19.6195282, 45.8658494],
     [19.61923, 45.8658062], [19.6182692, 45.8655297],
     [19.6173545, 45.865239800000005], [19.6172071, 45.8652421],
     [19.6169523, 45.8652687], [19.6166856, 45.865340700000004],
     [19.6164874, 45.8653719], [19.6163007, 45.8653417],
     [19.615352, 45.865192300000004], [19.6150054, 45.8651234],
     [19.6147947, 45.8651859], [19.6147184, 45.865316500000006],
     [19.614638300000003, 45.8654711],
     [19.6147141, 45.865690300000004],
     [19.614999700000002, 45.8659947],
     [19.615203700000002, 45.8662951], [19.6151921, 45.8664696],
     [19.6151746, 45.8665954], [19.6151218, 45.866867400000004]]}},
  {"type":"Feature",
   "properties":{},
   "geometry":
   {"type":"LineString",
    "coordinates":
    [[19.6139915, 45.866794000000006],
     [19.6151218, 45.866867400000004]]}},
  {"type":"Feature",
   "properties":{},
   "geometry":
   {"type":"LineString",
    "coordinates":
    [[19.613616800000003, 45.866769700000006],
     [19.6139915, 45.866794000000006]]}},
  {"type":"Feature",
   "properties":{},
   "geometry":
   {"type":"LineString",
    "coordinates":
    [[19.613469000000002, 45.8667601],
     [19.613616800000003, 45.866769700000006]]}},
  {"type":"Feature",
   "properties":{},
   "geometry":
   {"type":"LineString",
    "coordinates":
    [[19.612810800000002, 45.866717300000005],
     [19.6131865, 45.866741700000006],
     [19.613469000000002, 45.8667601]]}},
  {"type":"Feature",
   "properties":{},
   "geometry":
   {"type":"LineString",
    "coordinates":
    [[19.6101959, 45.8665419], [19.6109453, 45.8665922],
     [19.612810800000002, 45.866717300000005]]}},
  {"type":"Feature",
   "properties":{},
   "geometry":
   {"type":"LineString",
    "coordinates":
    [[19.6079201, 45.8661739], [19.6084901, 45.8663231],
     [19.6087202, 45.866376800000005],
     [19.6089801, 45.866427300000005],
     [19.609205900000003, 45.8664628],
     [19.609424200000003, 45.866490000000006],
     [19.6101959, 45.8665419]]}},
  {"type":"Feature",
   "properties":{},
   "geometry":
   {"type":"LineString",
    "coordinates":
    [[19.6046033, 45.8918708], [19.6050709, 45.8910324],
     [19.605183200000003, 45.8907642],
     [19.605220600000003, 45.8906262],
     [19.605254300000002, 45.890441300000006],
     [19.6052609, 45.8902644], [19.605247300000002, 45.8901411],
     [19.6051985, 45.8899508], [19.6050912, 45.8896499],
     [19.6050322, 45.8894807], [19.605020800000002, 45.8894049],
     [19.605064000000002, 45.888842100000005], [19.605089, 45.8884279],
     [19.605114, 45.8881133], [19.6050958, 45.888075400000005],
     [19.6050504, 45.888054800000006],
     [19.604833000000003, 45.887957500000006],
     [19.604023100000003, 45.887706300000005],
     [19.5996884, 45.8864475], [19.6000035, 45.884072100000004],
     [19.6001884, 45.882341200000006],
     [19.6002687, 45.881589600000005], [19.6003897, 45.8804572],
     [19.6009047, 45.8781717], [19.6012115, 45.877068900000005],
     [19.601361400000002, 45.876348400000005],
     [19.6019569, 45.875271600000005], [19.6079365, 45.8662366],
     [19.6079201, 45.8661739]]}},
  {"type":"Feature",
   "properties":{},
   "geometry":
   {"type":"LineString",
    "coordinates":
    [[19.6057889, 45.892534500000004],
     [19.605705800000003, 45.892543800000006],
     [19.605571700000002, 45.892562500000004],
     [19.6054885, 45.892566200000005], [19.6054134, 45.8925531],
     [19.6053652, 45.892515800000005],
     [19.6053678, 45.892461600000004],
     [19.605359800000002, 45.892407500000004],
     [19.605343700000002, 45.892372], [19.6052874, 45.892334700000006],
     [19.6046033, 45.8918708]]}},
  {"type":"Feature",
   "properties":{},
   "geometry":
   {"type":"LineString",
    "coordinates":
    [[19.6059981, 45.8925289], [19.6057889, 45.892534500000004]]}},
  {"type":"Feature",
   "properties":{},
   "geometry":
   {"type":"LineString",
    "coordinates":
    [[19.605973900000002, 45.8953487], [19.6059659, 45.8952899],
     [19.6059731, 45.895087700000005], [19.6059851, 45.8949991],
     [19.6060091, 45.894922300000005],
     [19.6061243, 45.894623200000005], [19.606158, 45.8945614],
     [19.606191600000002, 45.8945263], [19.606254, 45.8944762],
     [19.6065565, 45.8942556], [19.6066669, 45.8941554],
     [19.6067413, 45.894080200000005], [19.6067989, 45.8940033],
     [19.6068541, 45.8939248], [19.6068782, 45.8938797],
     [19.606887800000003, 45.893821200000005],
     [19.6068998, 45.8937277],
     [19.606914200000002, 45.893537200000004],
     [19.6069214, 45.893488700000006],
     [19.606957400000002, 45.8934085], [19.6070102, 45.8932815],
     [19.6071446, 45.893080700000006],
     [19.607139800000002, 45.8930008], [19.607123, 45.892929],
     [19.6070894, 45.8928856], [19.607046200000003, 45.8928488],
     [19.607003000000002, 45.8928254], [19.606935800000002, 45.892792],
     [19.606856500000003, 45.8927586], [19.6067116, 45.8927155],
     [19.606631200000002, 45.892704300000005],
     [19.6065748, 45.892678200000006], [19.6064836, 45.8926371],
     [19.6063361, 45.892583], [19.606161800000002, 45.892543800000006],
     [19.606043800000002, 45.8925289], [19.6059981, 45.8925289]]}},
  {"type":"Feature",
   "properties":{},
   "geometry":
   {"type":"LineString",
    "coordinates":
    [[19.6067883, 45.898436600000004],
     [19.606801700000002, 45.897747800000005],
     [19.606750700000003, 45.8973894],
     [19.606721200000003, 45.8971579],
     [19.606726600000002, 45.896948800000004],
     [19.606721200000003, 45.896723], [19.6067024, 45.896635200000006],
     [19.6066676, 45.8965102], [19.606619300000002, 45.8962992],
     [19.6065951, 45.8962208], [19.6065496, 45.896099500000005],
     [19.6064852, 45.89598], [19.606286700000002, 45.8957168],
     [19.605973900000002, 45.8953487]]}},
  {"type":"Feature",
   "properties":{},
   "geometry":
   {"type":"LineString",
    "coordinates":
    [[19.6075929, 45.8985131], [19.6072603, 45.8985075],
     [19.607137, 45.8985131], [19.6070002, 45.898524300000005],
     [19.6069251, 45.898524300000005],
     [19.606874100000002, 45.898518700000004],
     [19.6068365, 45.898500000000006],
     [19.6067883, 45.898436600000004]]}},
  {"type":"Feature",
   "properties":{},
   "geometry":
   {"type":"LineString",
    "coordinates":
    [[19.6085156, 45.9004892], [19.6085903, 45.9004811],
     [19.608840100000002, 45.9004746], [19.6089032, 45.9004746],
     [19.6090267, 45.9004592], [19.608993, 45.9003834],
     [19.6089609, 45.900331200000004], [19.608875, 45.9001986],
     [19.6087785, 45.9000269], [19.6087034, 45.899883200000005],
     [19.608660500000003, 45.899816], [19.6086041, 45.899754400000006],
     [19.608521, 45.899674100000006], [19.6084727, 45.8996125],
     [19.608432500000003, 45.8995547],
     [19.608416400000003, 45.899513600000006],
     [19.6083761, 45.899427700000004],
     [19.6083091, 45.899248500000006],
     [19.6082179, 45.899114100000006],
     [19.608129400000003, 45.8989424], [19.6080489, 45.8987464],
     [19.608006, 45.8986699], [19.607949700000002, 45.8986195],
     [19.6078987, 45.898578400000005], [19.6078531, 45.8985542],
     [19.6078075, 45.8985392],
     [19.607737800000002, 45.898524300000005],
     [19.607676100000003, 45.898515], [19.6075929, 45.8985131]]}},
  {"type":"Feature",
   "properties":{},
   "geometry":
   {"type":"LineString",
    "coordinates":
    [[19.6084105, 45.900502200000005], [19.6085156, 45.9004892]]}},
  {"type":"Feature",
   "properties":{},
   "geometry":
   {"type":"LineString",
    "coordinates":
    [[19.6084105, 45.900502200000005],
     [19.6083661, 45.900511900000005],
     [19.608326400000003, 45.900526600000006],
     [19.6082821, 45.900562300000004],
     [19.6082657, 45.900596400000005],
     [19.608247900000002, 45.9006282],
     [19.6082252, 45.900653500000004], [19.6081912, 45.9006662],
     [19.6081594, 45.9006677], [19.6081162, 45.900663],
     [19.6080799, 45.9006519], [19.6080481, 45.900625100000006],
     [19.6080322, 45.9006014], [19.6080322, 45.9005777],
     [19.6080344, 45.9005492], [19.608045800000003, 45.9005239],
     [19.608045800000003, 45.900503400000005],
     [19.6080322, 45.9004812], [19.607989, 45.900467000000006],
     [19.6079595, 45.900460700000004],
     [19.6078891, 45.900467000000006], [19.6078028, 45.9004765],
     [19.607716500000002, 45.900503400000005],
     [19.607673300000002, 45.9005318],
     [19.6076415, 45.900574500000005],
     [19.6076097, 45.900648800000006],
     [19.607587000000002, 45.9007341],
     [19.607553000000003, 45.9008242], [19.607503, 45.9008843],
     [19.607432600000003, 45.9009744],
     [19.607264500000003, 45.901170300000004],
     [19.607200900000002, 45.901228800000005],
     [19.6071442, 45.9012794], [19.6069874, 45.9013806],
     [19.6068739, 45.9014311], [19.606810300000003, 45.9014785],
     [19.606789900000003, 45.9015007],
     [19.6067785, 45.901526000000004], [19.6067785, 45.901556],
     [19.6067913, 45.901723000000004],
     [19.6068512, 45.902899700000006],
     [19.6068699, 45.903951400000004], [19.606923700000003, 45.905358],
     [19.6069487, 45.9066653], [19.6069564, 45.906688100000004],
     [19.6070083, 45.9067282], [19.607285, 45.9069372],
     [19.6073679, 45.9069999], [19.607416, 45.907034700000004],
     [19.6074468, 45.907062800000006],
     [19.6074583, 45.907096200000005],
     [19.607444400000002, 45.9071471],
     [19.6074059, 45.907194000000004],
     [19.607332800000002, 45.9072729], [19.6072944, 45.9073372],
     [19.6072537, 45.9074387], [19.6074291, 45.907516400000006],
     [19.6082632, 45.9077548], [19.609668300000003, 45.908419]]}},
  {"type":"Feature",
   "properties":{},
   "geometry":
   {"type":"LineString",
    "coordinates":
    [[19.6091187, 45.917528100000006],
     [19.609166300000002, 45.9173423],
     [19.6093075, 45.916691500000006],
     [19.609329900000002, 45.9160747], [19.6093487, 45.9151455],
     [19.6093487, 45.915038800000005], [19.6093262, 45.9149607],
     [19.6092626, 45.9148749], [19.6092215, 45.9148124],
     [19.609214, 45.914752500000006], [19.609214, 45.9147083],
     [19.609243900000003, 45.914664], [19.6093075, 45.9145886],
     [19.609356100000003, 45.914507900000004],
     [19.609386100000002, 45.914388100000004],
     [19.6094197, 45.913693200000004], [19.6094347, 45.9130972],
     [19.609449700000003, 45.9129748],
     [19.609502000000003, 45.9113325],
     [19.6095544, 45.910059600000004],
     [19.6096279, 45.908991500000006], [19.6096359, 45.9086257],
     [19.609668300000003, 45.908419]]}},
  {"type":"Feature",
   "properties":{},
   "geometry":
   {"type":"LineString",
    "coordinates":
    [[19.6091187, 45.917528100000006],
     [19.6098849, 45.917705000000005]]}},
  {"type":"Feature",
   "properties":{},
   "geometry":
   {"type":"LineString",
    "coordinates":
    [[19.6098849, 45.917705000000005],
     [19.607970700000003, 45.921495400000005],
     [19.605624000000002, 45.9260268],
     [19.602524900000002, 45.9251998],
     [19.602403000000002, 45.925152000000004],
     [19.602234600000003, 45.9250677],
     [19.6021456, 45.925040300000006]]}},
  {"type":"Feature",
   "properties":{},
   "geometry":
   {"type":"LineString",
    "coordinates":
    [[19.6021456, 45.925040300000006],
     [19.602021200000003, 45.9249911]]}},
  {"type":"Feature",
   "properties":{},
   "geometry":
   {"type":"LineString",
    "coordinates":
    [[19.602021200000003, 45.9249911], [19.6019119, 45.9262262],
     [19.6022181, 45.9270245], [19.6022141, 45.9271782],
     [19.6021289, 45.927454700000006],
     [19.602088300000002, 45.9276958],
     [19.602088300000002, 45.9277932], [19.6025405, 45.9286958],
     [19.6025628, 45.9289539],
     [19.602560800000003, 45.929254300000004],
     [19.6025791, 45.929515300000006], [19.6026855, 45.9299167],
     [19.6027434, 45.930158500000005],
     [19.6027595, 45.930433900000004],
     [19.602563200000002, 45.9309152], [19.6024344, 45.9313629],
     [19.6024119, 45.9316517],
     [19.602366800000002, 45.931996500000004],
     [19.602279900000003, 45.9321465],
     [19.6023347, 45.932247200000006],
     [19.6027595, 45.932529300000006],
     [19.602891500000002, 45.932636800000004], [19.6026984, 45.933774],
     [19.6024666, 45.9349963],
     [19.602312100000002, 45.935233600000004], [19.6022123, 45.935547],
     [19.601288500000003, 45.936758100000006],
     [19.600219900000003, 45.9382691], [19.5982661, 45.9407896],
     [19.597641600000003, 45.941129800000006],
     [19.5975354, 45.941235000000006],
     [19.5977575, 45.941503600000004],
     [19.5978605, 45.941628900000005],
     [19.5979345, 45.941868400000004],
     [19.5979989, 45.943616600000006],
     [19.597049300000002, 45.9449058], [19.596222100000002, 45.945998],
     [19.596376600000003, 45.948562900000006],
     [19.5964378, 45.9493373], [19.5984443, 45.951897800000005],
     [19.5977535, 45.9532861], [19.5971608, 45.953445900000006],
     [19.5968111, 45.953476800000004]]}},
  {"type":"Feature",
   "properties":{},
   "geometry":
   {"type":"LineString",
    "coordinates":
    [[19.5974754, 45.953798600000006],
     [19.5968111, 45.953476800000004]]}},
  {"type":"Feature",
   "properties":{},
   "geometry":
   {"type":"LineString",
    "coordinates":
    [[19.5976366, 45.953875000000004],
     [19.5974754, 45.953798600000006]]}}]}
