{"type":"FeatureCollection",
 "properties":{},
 "features":
 [{"type":"Feature",
   "properties":{},
   "geometry":
   {"type":"LineString",
    "coordinates":
    [[19.233141200000002, 45.391266800000004],
     [19.2332654, 45.391156900000006]]}},
  {"type":"Feature",
   "properties":{},
   "geometry":
   {"type":"LineString",
    "coordinates":
    [[19.232475700000002, 45.3918656],
     [19.233141200000002, 45.391266800000004]]}},
  {"type":"Feature",
   "properties":{},
   "geometry":
   {"type":"LineString",
    "coordinates":
    [[19.230662900000002, 45.391735100000005],
     [19.230762300000002, 45.391724100000005],
     [19.2308196, 45.3917178], [19.2310242, 45.391706600000006],
     [19.231727900000003, 45.3917859], [19.2322737, 45.3918474],
     [19.2323118, 45.3918508], [19.232475700000002, 45.3918656]]}},
  {"type":"Feature",
   "properties":{},
   "geometry":
   {"type":"LineString",
    "coordinates":
    [[19.230640400000002, 45.3916842],
     [19.230662900000002, 45.391735100000005]]}},
  {"type":"Feature",
   "properties":{},
   "geometry":
   {"type":"LineString",
    "coordinates":
    [[19.230640400000002, 45.3916842], [19.2305545, 45.3917136],
     [19.2302299, 45.391817200000006],
     [19.229699200000002, 45.3920139], [19.2278659, 45.3926772],
     [19.227776600000002, 45.392703000000004],
     [19.227730400000002, 45.392701900000006]]}},
  {"type":"Feature",
   "properties":{},
   "geometry":
   {"type":"LineString",
    "coordinates":
    [[19.227730400000002, 45.392701900000006],
     [19.2273014, 45.3925361], [19.2270499, 45.3924253],
     [19.2270366, 45.39247], [19.2270107, 45.392520700000006]]}},
  {"type":"Feature",
   "properties":{},
   "geometry":
   {"type":"LineString",
    "coordinates":
    [[19.2270107, 45.392520700000006],
     [19.2269641, 45.392495600000004],
     [19.2269358, 45.392459900000006], [19.226837, 45.3924771],
     [19.226726000000003, 45.392507], [19.226639000000002, 45.3925391],
     [19.2265972, 45.392557800000006]]}},
  {"type":"Feature",
   "properties":{},
   "geometry":
   {"type":"LineString",
    "coordinates":
    [[19.2265124, 45.3925278], [19.2265972, 45.392557800000006]]}},
  {"type":"Feature",
   "properties":{},
   "geometry":
   {"type":"LineString",
    "coordinates":
    [[19.2263874, 45.3924772], [19.2265124, 45.3925278]]}},
  {"type":"Feature",
   "properties":{},
   "geometry":
   {"type":"LineString",
    "coordinates":
    [[19.226088100000002, 45.392363], [19.2263874, 45.3924772]]}},
  {"type":"Feature",
   "properties":{},
   "geometry":
   {"type":"LineString",
    "coordinates":
    [[19.225967400000002, 45.3923142],
     [19.226088100000002, 45.392363]]}},
  {"type":"Feature",
   "properties":{},
   "geometry":
   {"type":"LineString",
    "coordinates":
    [[19.225906300000002, 45.3922894],
     [19.225967400000002, 45.3923142]]}},
  {"type":"Feature",
   "properties":{},
   "geometry":
   {"type":"LineString",
    "coordinates":
    [[19.225801800000003, 45.3922475],
     [19.225906300000002, 45.3922894]]}},
  {"type":"Feature",
   "properties":{},
   "geometry":
   {"type":"LineString",
    "coordinates":
    [[19.225711200000003, 45.392215],
     [19.225801800000003, 45.3922475]]}},
  {"type":"Feature",
   "properties":{},
   "geometry":
   {"type":"LineString",
    "coordinates":
    [[19.2255697, 45.3921872], [19.225711200000003, 45.392215]]}},
  {"type":"Feature",
   "properties":{},
   "geometry":
   {"type":"LineString",
    "coordinates":
    [[19.2191887, 45.3923062], [19.219232700000003, 45.3923245],
     [19.2192903, 45.3923262], [19.219383500000003, 45.3923202],
     [19.2195645, 45.392308500000006], [19.219933, 45.392284700000005],
     [19.2200977, 45.392271300000004],
     [19.2209517, 45.392190500000005], [19.2216439, 45.3920977],
     [19.2220215, 45.392060300000004],
     [19.222292500000002, 45.392013000000006],
     [19.222694800000003, 45.391974000000005],
     [19.2231685, 45.391947200000004],
     [19.223732400000003, 45.3919687], [19.2243578, 45.3920259],
     [19.225125600000002, 45.392116900000005],
     [19.225437300000003, 45.3921611], [19.2255697, 45.3921872]]}},
  {"type":"Feature",
   "properties":{},
   "geometry":
   {"type":"LineString",
    "coordinates":
    [[19.2191887, 45.3923062], [19.219081300000003, 45.3924487],
     [19.2190011, 45.3925065],
     [19.218862100000003, 45.392569900000005], [19.218708, 45.3926244],
     [19.2185563, 45.392664200000006],
     [19.2184277, 45.392690200000004]]}},
  {"type":"Feature",
   "properties":{},
   "geometry":
   {"type":"LineString",
    "coordinates":
    [[19.2184277, 45.392690200000004],
     [19.218323400000003, 45.3927447],
     [19.218154900000002, 45.392804000000005],
     [19.217689500000002, 45.392967600000006],
     [19.2164442, 45.3934086]]}},
  {"type":"Feature",
   "properties":{},
   "geometry":
   {"type":"LineString",
    "coordinates":
    [[19.2164442, 45.3934086], [19.2124208, 45.394777100000006],
     [19.209185, 45.395910300000004]]}},
  {"type":"Feature",
   "properties":{},
   "geometry":
   {"type":"LineString",
    "coordinates":
    [[19.209185, 45.395910300000004], [19.2077624, 45.396427],
     [19.206773300000002, 45.396795000000004],
     [19.2058107, 45.3971685],
     [19.204078000000003, 45.397877900000005],
     [19.2032952, 45.3982186], [19.201466500000002, 45.3990136],
     [19.201129100000003, 45.399126700000004],
     [19.2007659, 45.3992231],
     [19.200725300000002, 45.399220500000006]]}},
  {"type":"Feature",
   "properties":{},
   "geometry":
   {"type":"LineString",
    "coordinates":
    [[19.200725300000002, 45.399220500000006],
     [19.201092900000003, 45.3997651],
     [19.2018528, 45.400794100000006],
     [19.2025969, 45.401852700000006],
     [19.2028517, 45.402212500000005],
     [19.204370400000002, 45.4042893]]}},
  {"type":"Feature",
   "properties":{},
   "geometry":
   {"type":"LineString",
    "coordinates":
    [[19.204370400000002, 45.4042893], [19.2047475, 45.4047878]]}},
  {"type":"Feature",
   "properties":{},
   "geometry":
   {"type":"LineString",
    "coordinates":
    [[19.2047475, 45.4047878], [19.2046473, 45.4048217],
     [19.2028593, 45.405149900000005],
     [19.2010864, 45.405522700000006], [19.2003729, 45.405743]]}},
  {"type":"Feature",
   "properties":{},
   "geometry":
   {"type":"LineString",
    "coordinates":
    [[19.2003729, 45.405743], [19.2003683, 45.406096500000004]]}},
  {"type":"Feature",
   "properties":{},
   "geometry":
   {"type":"LineString",
    "coordinates":
    [[19.2006073, 45.4166474], [19.2005908, 45.4165518],
     [19.200877300000002, 45.415823100000004],
     [19.2015405, 45.4144365], [19.202787400000002, 45.4119503],
     [19.2028901, 45.411635600000004],
     [19.202930900000002, 45.4111435],
     [19.2029368, 45.411072000000004],
     [19.202894800000003, 45.4105934],
     [19.202222300000003, 45.4090755],
     [19.2018534, 45.408305000000006],
     [19.201190200000003, 45.4068375],
     [19.200980100000002, 45.4064506],
     [19.200760600000002, 45.4062276],
     [19.2003683, 45.406096500000004]]}},
  {"type":"Feature",
   "properties":{},
   "geometry":
   {"type":"LineString",
    "coordinates":
    [[19.2006073, 45.4166474], [19.2005501, 45.4167968],
     [19.2004807, 45.417048900000005],
     [19.2004224, 45.417310300000004], [19.2003594, 45.4175757],
     [19.200291200000002, 45.417847200000004],
     [19.2002311, 45.418099500000004], [19.2001616, 45.4183919],
     [19.2000968, 45.4186963], [19.2000253, 45.418985600000006],
     [19.1999466, 45.419316300000006],
     [19.1998643, 45.419615400000005],
     [19.199808100000002, 45.4198607],
     [19.1997661, 45.419914500000004], [19.1996742, 45.4199866],
     [19.1995851, 45.420013700000005]]}},
  {"type":"Feature",
   "properties":{},
   "geometry":
   {"type":"LineString",
    "coordinates":
    [[19.1997621, 45.420923200000004],
     [19.1997372, 45.420833800000004],
     [19.199728500000003, 45.420590000000004],
     [19.199734000000003, 45.4204932],
     [19.199729700000002, 45.4204707],
     [19.199695000000002, 45.4203611],
     [19.1995851, 45.420013700000005]]}},
  {"type":"Feature",
   "properties":{},
   "geometry":
   {"type":"LineString",
    "coordinates":
    [[19.1997621, 45.420923200000004],
     [19.1997301, 45.421586100000006], [19.199724, 45.422005600000006],
     [19.199767100000003, 45.4222045],
     [19.199908800000003, 45.4226327], [19.2000444, 45.4229982],
     [19.200176900000002, 45.423541], [19.200337100000002, 45.4246611],
     [19.2003525, 45.425545500000005],
     [19.2002755, 45.425891500000006], [19.2001399, 45.4261921],
     [19.1999181, 45.426663500000004],
     [19.1996901, 45.427018100000005], [19.1994498, 45.427297],
     [19.198824300000002, 45.427880900000005],
     [19.198664100000002, 45.4280647], [19.198389900000002, 45.428482],
     [19.1981773, 45.429031200000004], [19.1980232, 45.4293361],
     [19.1979832, 45.4296085], [19.1980171, 45.430886400000006],
     [19.198019600000002, 45.4315129], [19.1981095, 45.4322594],
     [19.1981372, 45.432884200000004],
     [19.198088600000002, 45.4330841], [19.1977617, 45.4336215],
     [19.1974021, 45.4339918], [19.196930400000003, 45.4342442],
     [19.1955294, 45.434660300000004],
     [19.192171000000002, 45.435740700000004]]}},
  {"type":"Feature",
   "properties":{},
   "geometry":
   {"type":"LineString",
    "coordinates":
    [[19.192171000000002, 45.435740700000004], [19.1921602, 45.435799],
     [19.1918921, 45.436571900000004]]}},
  {"type":"Feature",
   "properties":{},
   "geometry":
   {"type":"LineString",
    "coordinates":
    [[19.191317700000003, 45.436464300000004],
     [19.1918921, 45.436571900000004]]}},
  {"type":"Feature",
   "properties":{},
   "geometry":
   {"type":"LineString",
    "coordinates":
    [[19.191317700000003, 45.436464300000004],
     [19.1876393, 45.4375487], [19.179178, 45.440094900000005],
     [19.178614200000002, 45.4403209],
     [19.178435800000003, 45.4403395], [19.1746695, 45.4415394],
     [19.1655479, 45.444275100000006], [19.1567604, 45.4468371]]}},
  {"type":"Feature",
   "properties":{},
   "geometry":
   {"type":"LineString",
    "coordinates":
    [[19.1567604, 45.4468371], [19.1567881, 45.446945400000004],
     [19.1567738, 45.4470535],
     [19.156765200000002, 45.447239700000004],
     [19.156802300000003, 45.447479900000005],
     [19.1568066, 45.447649000000006],
     [19.1568523, 45.447805100000004],
     [19.157010800000002, 45.448070400000006],
     [19.1570693, 45.4482148], [19.157059200000003, 45.4484058],
     [19.1569664, 45.4485474], [19.1568995, 45.448618100000004],
     [19.1567489, 45.448777500000006], [19.1567462, 45.4488919],
     [19.1581644, 45.451801700000004],
     [19.158831900000003, 45.453089500000004],
     [19.158934000000002, 45.453286600000006],
     [19.1598259, 45.4550576],
     [19.159958800000002, 45.455321500000004], [19.16056, 45.4565527],
     [19.1617241, 45.4589009], [19.1617925, 45.459019000000005]]}},
  {"type":"Feature",
   "properties":{},
   "geometry":
   {"type":"LineString",
    "coordinates":
    [[19.143247000000002, 45.4591052], [19.143294, 45.4591549],
     [19.1433241, 45.459228200000005],
     [19.143333300000002, 45.460764700000006],
     [19.143332700000002, 45.460985], [19.143468900000002, 45.4611414],
     [19.1436175, 45.4612196],
     [19.143762600000002, 45.461226200000006],
     [19.1439005, 45.4612325], [19.144334800000003, 45.4612738],
     [19.144643900000002, 45.4612928],
     [19.145289000000002, 45.461277300000006],
     [19.14646, 45.461324600000005], [19.1492787, 45.461404],
     [19.1510606, 45.461266], [19.1531761, 45.4611114],
     [19.153325000000002, 45.4610843], [19.153635, 45.461027800000004],
     [19.1546905, 45.460778000000005], [19.1573087, 45.4600949],
     [19.1617925, 45.459019000000005]]}},
  {"type":"Feature",
   "properties":{},
   "geometry":
   {"type":"LineString",
    "coordinates":
    [[19.143247000000002, 45.4591052],
     [19.143029600000002, 45.4590954], [19.1402037, 45.4591397],
     [19.1373988, 45.459243], [19.137216900000002, 45.459243],
     [19.136723200000002, 45.459243],
     [19.136583700000003, 45.459231700000004],
     [19.1363548, 45.4592107], [19.1356948, 45.459115100000005],
     [19.1301367, 45.458212], [19.129867, 45.4582246],
     [19.1292164, 45.4582533],
     [19.128437400000003, 45.458287600000006],
     [19.127056200000002, 45.4583346], [19.126954, 45.458338100000006],
     [19.1251639, 45.458467000000006],
     [19.1242412, 45.458462700000005], [19.123200800000003, 45.458454],
     [19.1204326, 45.4586277], [19.120017700000002, 45.4585713],
     [19.1197638, 45.458619000000006],
     [19.119540800000003, 45.4586581], [19.1135884, 45.4592247],
     [19.1131745, 45.459208600000004], [19.1131029, 45.4592058]]}},
  {"type":"Feature",
   "properties":{},
   "geometry":
   {"type":"LineString",
    "coordinates":
    [[19.1131029, 45.4592058], [19.1128961, 45.4591428]]}},
  {"type":"Feature",
   "properties":{},
   "geometry":
   {"type":"LineString",
    "coordinates":
    [[19.1128961, 45.4591428], [19.1123941, 45.459236100000005],
     [19.112029200000002, 45.4593069],
     [19.1117904, 45.459478100000005],
     [19.111186800000002, 45.459578900000004],
     [19.1106084, 45.4596116], [19.1102382, 45.459632600000006],
     [19.1059455, 45.4597939], [19.0976348, 45.4600127],
     [19.0972453, 45.460003], [19.097134, 45.459954200000006],
     [19.0970286, 45.459797900000005]]}},
  {"type":"Feature",
   "properties":{},
   "geometry":
   {"type":"LineString",
    "coordinates":
    [[19.0970286, 45.459797900000005], [19.0961721, 45.459826],
     [19.092680100000003, 45.4599394],
     [19.085885100000002, 45.460007600000004],
     [19.081159900000003, 45.4602334], [19.0801774, 45.4602232]]}},
  {"type":"Feature",
   "properties":{},
   "geometry":
   {"type":"LineString",
    "coordinates":
    [[19.0801774, 45.4602232], [19.0800932, 45.460140700000004],
     [19.0798734, 45.4599253], [19.0796692, 45.4597962],
     [19.0792566, 45.4598857], [19.0790232, 45.4599865],
     [19.0788638, 45.460221100000005],
     [19.078695500000002, 45.460424200000006],
     [19.0783229, 45.460480800000006], [19.0778876, 45.4604377],
     [19.077281300000003, 45.4603626]]}},
  {"type":"Feature",
   "properties":{},
   "geometry":
   {"type":"LineString",
    "coordinates":
    [[19.077281300000003, 45.4603626],
     [19.077003100000002, 45.4603333]]}},
  {"type":"Feature",
   "properties":{},
   "geometry":
   {"type":"LineString",
    "coordinates":
    [[19.077003100000002, 45.4603333],
     [19.075500700000003, 45.4603333],
     [19.073219400000003, 45.460372400000004],
     [19.0706041, 45.4603626], [19.0694217, 45.460401600000004],
     [19.0686983, 45.4603333], [19.0657353, 45.4603431],
     [19.063857300000002, 45.460245500000006],
     [19.059141500000003, 45.4602358], [19.0569436, 45.4602553],
     [19.0459965, 45.4601777], [19.0382009, 45.460276900000004],
     [19.0344647, 45.460276900000004]]}},
  {"type":"Feature",
   "properties":{},
   "geometry":
   {"type":"LineString",
    "coordinates":
    [[19.0344647, 45.460276900000004],
     [19.034165700000003, 45.460239900000005]]}},
  {"type":"Feature",
   "properties":{},
   "geometry":
   {"type":"LineString",
    "coordinates":
    [[19.034165700000003, 45.460239900000005],
     [19.025316, 45.460276900000004], [19.0248575, 45.4603314],
     [19.0247259, 45.460414400000005], [19.0241303, 45.4608545],
     [19.0240633, 45.4609159]]}},
  {"type":"Feature",
   "properties":{},
   "geometry":
   {"type":"LineString",
    "coordinates":
    [[19.0240633, 45.4609159], [19.024003, 45.461001100000004]]}},
  {"type":"Feature",
   "properties":{},
   "geometry":
   {"type":"LineString",
    "coordinates":
    [[19.032102700000003, 45.483212], [19.0315081, 45.4830148],
     [19.0310725, 45.482877900000005],
     [19.030862300000003, 45.4826673],
     [19.030520600000003, 45.4820986],
     [19.030276500000003, 45.4813641], [19.0302615, 45.4810219],
     [19.0301113, 45.4803374], [19.029942300000002, 45.4798951],
     [19.0299123, 45.479476500000004],
     [19.029919800000002, 45.4789499],
     [19.029994900000002, 45.4777283],
     [19.030115900000002, 45.4773913], [19.029764800000002, 45.477344],
     [19.0255903, 45.477310300000006], [19.0251889, 45.4773124],
     [19.0247549, 45.476781200000005], [19.024462, 45.476454000000004],
     [19.0238327, 45.476028], [19.0234855, 45.4757845],
     [19.0230515, 45.4752596], [19.022943, 45.474894400000004],
     [19.0229322, 45.4740879], [19.023073200000002, 45.4734488],
     [19.023008100000002, 45.473205400000005],
     [19.0229322, 45.4724978], [19.0226826, 45.472140200000005],
     [19.0220208, 45.471562000000006],
     [19.021098600000002, 45.4709305],
     [19.020708000000003, 45.4706033], [19.0206971, 45.4702837],
     [19.0206646, 45.4697663], [19.0204801, 45.469591300000005],
     [19.0201438, 45.469233700000004], [19.020002700000003, 45.468975],
     [19.020122100000002, 45.4684272],
     [19.020534400000003, 45.4672325],
     [19.0205995, 45.467072800000004],
     [19.020740500000002, 45.4662129],
     [19.0208599, 45.465657400000005], [19.0210335, 45.4653683],
     [19.021681100000002, 45.4645433], [19.0222042, 45.4635893],
     [19.0225106, 45.4632172], [19.022563, 45.4629184],
     [19.022719900000002, 45.4626825], [19.022959, 45.4621584],
     [19.0235075, 45.461444400000005], [19.0237394, 45.4612211],
     [19.024003, 45.461001100000004]]}},
  {"type":"Feature",
   "properties":{},
   "geometry":
   {"type":"LineString",
    "coordinates":
    [[19.032102700000003, 45.483212], [19.0397114, 45.482195700000005],
     [19.0463677, 45.4812742], [19.0493962, 45.480873800000005],
     [19.051985000000002, 45.4808309],
     [19.052148600000002, 45.4808663], [19.0540065, 45.4812681],
     [19.057982000000003, 45.482128], [19.061640200000003, 45.4829213],
     [19.0619444, 45.4829543], [19.0677229, 45.4827986],
     [19.0707326, 45.48272], [19.075418000000003, 45.481476],
     [19.0804461, 45.4802042], [19.0865543, 45.4808479],
     [19.0868289, 45.4808675], [19.0872023, 45.480780100000004],
     [19.0876099, 45.480628900000006], [19.0881812, 45.4804109],
     [19.0889573, 45.480129000000005], [19.0892462, 45.4801129]]}},
  {"type":"Feature",
   "properties":{},
   "geometry":
   {"type":"LineString",
    "coordinates":
    [[19.0892462, 45.4801129],
     [19.090020300000003, 45.480392800000004],
     [19.0901955, 45.480474400000006],
     [19.090305400000002, 45.4805374],
     [19.090373500000002, 45.480599000000005],
     [19.0904507, 45.480687200000006],
     [19.090599100000002, 45.4808675], [19.091225, 45.481793800000005],
     [19.092274800000002, 45.4834292],
     [19.0946962, 45.487156500000005], [19.0970386, 45.4907775],
     [19.09936, 45.4943581], [19.103028000000002, 45.500210200000005],
     [19.1031449, 45.5003559], [19.103246000000002, 45.5004432],
     [19.104041900000002, 45.5008603], [19.1059978, 45.5017848],
     [19.106290400000002, 45.5019166], [19.1065966, 45.5019648],
     [19.106924900000003, 45.5020248], [19.10722, 45.5020864],
     [19.1075236, 45.502197900000006],
     [19.108217200000002, 45.502656900000005],
     [19.1082466, 45.5026888], [19.1082632, 45.502726700000004],
     [19.1082526, 45.5027774], [19.1082185, 45.502840000000006],
     [19.1077224, 45.5033587]]}},
  {"type":"Feature",
   "properties":{},
   "geometry":
   {"type":"LineString",
    "coordinates":
    [[19.1077224, 45.5033587], [19.1076199, 45.5034742]]}},
  {"type":"Feature",
   "properties":{},
   "geometry":
   {"type":"LineString",
    "coordinates":
    [[19.1076199, 45.5034742], [19.1074577, 45.503631600000006],
     [19.1074035, 45.5036695],
     [19.107350800000003, 45.503677800000006],
     [19.1072884, 45.5036871], [19.1072057, 45.5036683],
     [19.1062483, 45.5031845], [19.106193, 45.503163300000004],
     [19.1061008, 45.5031465],
     [19.106004600000002, 45.503136700000006],
     [19.1059161, 45.503133000000005],
     [19.1058193, 45.503136500000004],
     [19.1057145, 45.503147000000006],
     [19.105612100000002, 45.5031631],
     [19.1055014, 45.503196800000005],
     [19.105372000000003, 45.5032525],
     [19.1052725, 45.503308800000006],
     [19.1050775, 45.503491600000004],
     [19.1050445, 45.503558600000005], [19.105041, 45.5036192],
     [19.1050712, 45.503695500000006], [19.106068, 45.5053087],
     [19.106116500000002, 45.5054177],
     [19.1061352, 45.505494000000006],
     [19.1061395, 45.505567600000006],
     [19.106125900000002, 45.505690300000005],
     [19.1057662, 45.5074752], [19.105661, 45.507969100000004],
     [19.1050425, 45.511011800000006], [19.104723, 45.5129742],
     [19.1046961, 45.513162900000005],
     [19.1046765, 45.513311400000006],
     [19.104611000000002, 45.5137121], [19.1044521, 45.5146716],
     [19.104485, 45.515224100000005], [19.1045565, 45.515565],
     [19.104683, 45.5158101], [19.1047626, 45.5160454],
     [19.1050121, 45.5164928], [19.105124800000002, 45.5167492],
     [19.105188400000003, 45.516901600000004], [19.1051892, 45.517121],
     [19.1052956, 45.517408800000005], [19.1052956, 45.5175296],
     [19.1052663, 45.517712100000004], [19.1050609, 45.5179485],
     [19.1046684, 45.5181875], [19.103887200000003, 45.5185345],
     [19.102983400000003, 45.5188891],
     [19.102403900000002, 45.519061300000004], [19.1017474, 45.519272],
     [19.1011422, 45.519449300000005], [19.1009038, 45.5196729],
     [19.098178700000002, 45.5226667], [19.0959469, 45.5251005],
     [19.0958347, 45.5252228], [19.0953677, 45.5257397],
     [19.0950671, 45.5260168], [19.094785400000003, 45.526218],
     [19.0942843, 45.526496900000005], [19.0938319, 45.5266905],
     [19.0911796, 45.527917800000004], [19.0910723, 45.5279674],
     [19.090710100000003, 45.528135000000006]]}},
  {"type":"Feature",
   "properties":{},
   "geometry":
   {"type":"LineString",
    "coordinates":
    [[19.090710100000003, 45.528135000000006],
     [19.090707300000002, 45.5281839],
     [19.0907215, 45.528236400000004],
     [19.0907506, 45.528287500000005], [19.0907932, 45.5283377],
     [19.0910286, 45.528605500000005],
     [19.091256100000003, 45.528888900000005],
     [19.091546400000002, 45.5292462],
     [19.0919443, 45.529729800000005],
     [19.0920083, 45.529818600000006]]}},
  {"type":"Feature",
   "properties":{},
   "geometry":
   {"type":"LineString",
    "coordinates":
    [[19.0920083, 45.529818600000006],
     [19.091401400000002, 45.5300717], [19.0913459, 45.5300949],
     [19.0912934, 45.530111700000006]]}},
  {"type":"Feature",
   "properties":{},
   "geometry":
   {"type":"LineString",
    "coordinates":
    [[19.0912934, 45.530111700000006],
     [19.0912417, 45.530126200000005], [19.0911873, 45.5301345],
     [19.091154900000003, 45.5301355], [19.0911316, 45.5301363],
     [19.091076400000002, 45.5301315], [19.091023, 45.530120200000006],
     [19.090973100000003, 45.5301029],
     [19.090928100000003, 45.530083000000005],
     [19.090891300000003, 45.5300619],
     [19.0908553, 45.530031300000005],
     [19.0908094, 45.529988200000005],
     [19.090746600000003, 45.5299208]]}},
  {"type":"Feature",
   "properties":{},
   "geometry":
   {"type":"LineString",
    "coordinates":
    [[19.090746600000003, 45.5299208],
     [19.0904226, 45.529572900000005], [19.0902603, 45.5294024],
     [19.0901219, 45.5292569]]}},
  {"type":"Feature",
   "properties":{},
   "geometry":
   {"type":"LineString",
    "coordinates":
    [[19.0901219, 45.5292569], [19.0899448, 45.5291128],
     [19.089841800000002, 45.5290546],
     [19.089722000000002, 45.5290012],
     [19.089564600000003, 45.5289627], [19.089406, 45.5289542],
     [19.089225600000002, 45.5289693], [19.089045600000002, 45.52902],
     [19.0888682, 45.529091300000005],
     [19.0887864, 45.529124100000004]]}},
  {"type":"Feature",
   "properties":{},
   "geometry":
   {"type":"LineString",
    "coordinates":
    [[19.0887864, 45.529124100000004],
     [19.088745300000003, 45.5291434],
     [19.088394400000002, 45.5293086], [19.087978, 45.5295045]]}},
  {"type":"Feature",
   "properties":{},
   "geometry":
   {"type":"LineString",
    "coordinates":
    [[19.087730200000003, 45.529623300000004],
     [19.087978, 45.5295045]]}},
  {"type":"Feature",
   "properties":{},
   "geometry":
   {"type":"LineString",
    "coordinates":
    [[19.0868918, 45.530020300000004],
     [19.087054000000002, 45.5299435],
     [19.087715000000003, 45.5296305],
     [19.087730200000003, 45.529623300000004]]}},
  {"type":"Feature",
   "properties":{},
   "geometry":
   {"type":"LineString",
    "coordinates":
    [[19.0857718, 45.5305486], [19.086331, 45.5302901],
     [19.0868918, 45.530020300000004]]}},
  {"type":"Feature",
   "properties":{},
   "geometry":
   {"type":"LineString",
    "coordinates":
    [[19.085516600000002, 45.5306659],
     [19.0856618, 45.530598700000006], [19.0857718, 45.5305486]]}},
  {"type":"Feature",
   "properties":{},
   "geometry":
   {"type":"LineString",
    "coordinates":
    [[19.0841838, 45.531282600000004],
     [19.084225500000002, 45.531263300000006],
     [19.084271400000002, 45.5312421],
     [19.0846014, 45.531089400000006],
     [19.0848801, 45.530960400000005],
     [19.085118400000002, 45.5308501],
     [19.085516600000002, 45.5306659]]}},
  {"type":"Feature",
   "properties":{},
   "geometry":
   {"type":"LineString",
    "coordinates":
    [[19.0838663, 45.5314343], [19.0841838, 45.531282600000004]]}},
  {"type":"Feature",
   "properties":{},
   "geometry":
   {"type":"LineString",
    "coordinates":
    [[19.082023900000003, 45.5323287],
     [19.0822134, 45.532223800000004],
     [19.0828904, 45.531900400000005], [19.0838663, 45.5314343]]}},
  {"type":"Feature",
   "properties":{},
   "geometry":
   {"type":"LineString",
    "coordinates":
    [[19.081622600000003, 45.5337631],
     [19.0815664, 45.533664300000005],
     [19.0815193, 45.533571300000006], [19.081475, 45.5334439],
     [19.081451400000002, 45.533362700000005],
     [19.0814469, 45.5332494], [19.0814528, 45.5331409],
     [19.0814762, 45.5330311], [19.0815099, 45.532921300000005],
     [19.0815592, 45.5327968], [19.0816255, 45.532678600000004],
     [19.0817124, 45.532569800000005],
     [19.081806200000003, 45.5324803],
     [19.0818856, 45.532419100000006],
     [19.082023900000003, 45.5323287]]}},
  {"type":"Feature",
   "properties":{},
   "geometry":
   {"type":"LineString",
    "coordinates":
    [[19.0824238, 45.5350569], [19.082346, 45.5348934],
     [19.082259500000003, 45.5347269], [19.0820875, 45.5344667],
     [19.081622600000003, 45.5337631]]}},
  {"type":"Feature",
   "properties":{},
   "geometry":
   {"type":"LineString",
    "coordinates":
    [[19.0828902, 45.5361403], [19.0824481, 45.5351134],
     [19.0824238, 45.5350569]]}},
  {"type":"Feature",
   "properties":{},
   "geometry":
   {"type":"LineString",
    "coordinates":
    [[19.0852681, 45.538680400000004], [19.0852603, 45.5386735],
     [19.085192600000003, 45.5386133],
     [19.0851198, 45.538551500000004], [19.0846498, 45.5381986],
     [19.0837979, 45.537553700000004],
     [19.0835596, 45.537355700000006],
     [19.083454800000002, 45.5372532],
     [19.083381600000003, 45.5371752],
     [19.0833277, 45.537104600000006], [19.0832747, 45.5370196],
     [19.0832321, 45.5369369], [19.0829662, 45.5363175],
     [19.0828902, 45.5361403]]}},
  {"type":"Feature",
   "properties":{},
   "geometry":
   {"type":"LineString",
    "coordinates":
    [[19.086570400000003, 45.5400457], [19.085571, 45.538983800000004],
     [19.085394100000002, 45.5388004],
     [19.085335500000003, 45.5387433],
     [19.0852681, 45.538680400000004]]}},
  {"type":"Feature",
   "properties":{},
   "geometry":
   {"type":"LineString",
    "coordinates":
    [[19.088004400000003, 45.541568700000006],
     [19.0875196, 45.541054100000004], [19.08729, 45.540810300000004],
     [19.086876, 45.5403704], [19.086570400000003, 45.5400457]]}},
  {"type":"Feature",
   "properties":{},
   "geometry":
   {"type":"LineString",
    "coordinates":
    [[19.089083600000002, 45.5427763], [19.0889931, 45.5426492],
     [19.0888403, 45.5424589], [19.0886767, 45.542282300000004],
     [19.088004400000003, 45.541568700000006]]}},
  {"type":"Feature",
   "properties":{},
   "geometry":
   {"type":"LineString",
    "coordinates":
    [[19.0896168, 45.5441481], [19.0896151, 45.5441395],
     [19.089555700000002, 45.5438375],
     [19.0894744, 45.543520400000006],
     [19.089364800000002, 45.5432755], [19.0892716, 45.5430774],
     [19.0891749, 45.5429061], [19.089083600000002, 45.5427763]]}},
  {"type":"Feature",
   "properties":{},
   "geometry":
   {"type":"LineString",
    "coordinates":
    [[19.090247100000003, 45.5458129],
     [19.0901633, 45.545734100000004], [19.0900712, 45.5456328],
     [19.089984700000002, 45.5455175],
     [19.0899031, 45.545379100000005], [19.0898508, 45.5452608],
     [19.0898095, 45.5451282], [19.0896168, 45.5441481]]}},
  {"type":"Feature",
   "properties":{},
   "geometry":
   {"type":"LineString",
    "coordinates":
    [[19.0920263, 45.547338800000006], [19.092022, 45.547334500000005],
     [19.091942900000003, 45.5472526],
     [19.0918366, 45.547149100000006],
     [19.091745500000002, 45.5470655], [19.0916237, 45.5469603],
     [19.090247100000003, 45.5458129]]}},
  {"type":"Feature",
   "properties":{},
   "geometry":
   {"type":"LineString",
    "coordinates":
    [[19.0929799, 45.548246500000005],
     [19.092904400000002, 45.5481874], [19.0927688, 45.5480676],
     [19.0926239, 45.547935200000005],
     [19.0920263, 45.547338800000006]]}},
  {"type":"Feature",
   "properties":{},
   "geometry":
   {"type":"LineString",
    "coordinates":
    [[19.094709100000003, 45.5492763],
     [19.093402700000002, 45.548509900000006],
     [19.0931775, 45.5483763], [19.0930554, 45.548296300000004],
     [19.0929799, 45.548246500000005]]}},
  {"type":"Feature",
   "properties":{},
   "geometry":
   {"type":"LineString",
    "coordinates":
    [[19.0963758, 45.5503325], [19.0961761, 45.550197000000004],
     [19.0956419, 45.5498348],
     [19.095161400000002, 45.549541700000006],
     [19.0949679, 45.5494282], [19.094709100000003, 45.5492763]]}},
  {"type":"Feature",
   "properties":{},
   "geometry":
   {"type":"LineString",
    "coordinates":
    [[19.0963758, 45.5503325], [19.0957976, 45.5496823],
     [19.095762500000003, 45.5495597],
     [19.0958852, 45.549360300000004],
     [19.096305700000002, 45.549032100000005],
     [19.0979701, 45.547995300000004],
     [19.098565800000003, 45.549047400000006],
     [19.099100200000002, 45.550075],
     [19.100011300000002, 45.551712900000005],
     [19.1003091, 45.5521454], [19.1003836, 45.552492],
     [19.100611400000002, 45.5529766],
     [19.101325300000003, 45.5536606], [19.1017064, 45.5540777],
     [19.1022716, 45.555114700000004],
     [19.102806700000002, 45.5560101], [19.103109, 45.556997700000004],
     [19.1030476, 45.557841100000005],
     [19.103139600000002, 45.5583195], [19.10296, 45.5599143],
     [19.102548300000002, 45.5614385], [19.102579300000002, 45.561666],
     [19.105925600000003, 45.5618561],
     [19.1067372, 45.561894800000005],
     [19.108391400000002, 45.561973800000004],
     [19.109829700000002, 45.562026100000004],
     [19.1107824, 45.562052200000004], [19.1116043, 45.5620653],
     [19.111884500000002, 45.5620653],
     [19.1120527, 45.561777600000006],
     [19.111977900000003, 45.5613983],
     [19.111884500000002, 45.561058300000006],
     [19.1117911, 45.5606136], [19.111548300000003, 45.5603258],
     [19.1116791, 45.5601689], [19.112034, 45.5600904],
     [19.1127235, 45.560018500000005],
     [19.1129119, 45.559998900000004], [19.1134723, 45.5597896],
     [19.1137286, 45.559730300000005]]}},
  {"type":"Feature",
   "properties":{},
   "geometry":
   {"type":"LineString",
    "coordinates":
    [[19.1191301, 45.573195000000005],
     [19.116395800000003, 45.5673991],
     [19.115988100000003, 45.5665052], [19.1155268, 45.565694],
     [19.115247800000002, 45.565363600000005],
     [19.1143359, 45.5649054], [19.1131235, 45.5642894],
     [19.112923900000002, 45.564174200000004],
     [19.1128119, 45.5639514], [19.1128012, 45.56336],
     [19.1130265, 45.5605167], [19.1130694, 45.560253800000005],
     [19.1134771, 45.560058500000004],
     [19.113680900000002, 45.559915800000006],
     [19.1137286, 45.559730300000005]]}},
  {"type":"Feature",
   "properties":{},
   "geometry":
   {"type":"LineString",
    "coordinates":
    [[19.111903700000003, 45.586308300000006],
     [19.1118488, 45.586139900000006],
     [19.111696600000002, 45.585856400000004],
     [19.111645600000003, 45.585703300000006],
     [19.1115561, 45.5854245], [19.1115643, 45.584969300000004],
     [19.11167, 45.5830241], [19.111718800000002, 45.582199],
     [19.1117513, 45.5817209], [19.1118357, 45.580126400000005],
     [19.1119302, 45.578340100000005], [19.1119871, 45.5781523],
     [19.1120847, 45.5780612], [19.1123936, 45.577862],
     [19.112605000000002, 45.577708300000005],
     [19.112889600000003, 45.577589800000005],
     [19.1135808, 45.5774191], [19.1140686, 45.5772484],
     [19.114645900000003, 45.576776], [19.117044500000002, 45.5747499],
     [19.1174104, 45.5744254], [19.1178414, 45.5741409],
     [19.1179227, 45.5740555], [19.1186097, 45.573462500000005],
     [19.1188781, 45.5732462], [19.1191301, 45.573195000000005]]}},
  {"type":"Feature",
   "properties":{},
   "geometry":
   {"type":"LineString",
    "coordinates":
    [[19.1144727, 45.5935489], [19.114598, 45.5933745],
     [19.114842, 45.593249300000004], [19.1151184, 45.5931469],
     [19.115264800000002, 45.593061600000006], [19.1156325, 45.592678],
     [19.115845500000002, 45.592435900000005],
     [19.115910500000002, 45.5919213],
     [19.1158925, 45.591454600000006],
     [19.1157569, 45.590936500000005],
     [19.115623900000003, 45.590694600000006],
     [19.1155355, 45.5905337], [19.114842, 45.5898726],
     [19.114120800000002, 45.589343500000005],
     [19.113793100000002, 45.5889898],
     [19.1135197, 45.588865600000005],
     [19.1131345, 45.588530600000006], [19.1130044, 45.5883297],
     [19.112898700000002, 45.5880907], [19.112675, 45.587889600000004],
     [19.112633300000002, 45.5878345],
     [19.1125978, 45.587749300000006],
     [19.1126691, 45.587617800000004],
     [19.1127343, 45.587467000000004],
     [19.1127651, 45.587349800000005],
     [19.1127895, 45.587175200000004], [19.1128325, 45.587007],
     [19.112856100000002, 45.5868849], [19.112849, 45.5868016],
     [19.1128211, 45.5867103], [19.1127624, 45.5866405],
     [19.112463700000003, 45.5866381], [19.1123173, 45.5866373],
     [19.1121108, 45.586576], [19.1120236, 45.5865261],
     [19.1119546, 45.586460100000004],
     [19.111917000000002, 45.5863828],
     [19.111903700000003, 45.586308300000006]]}},
  {"type":"Feature",
   "properties":{},
   "geometry":
   {"type":"LineString",
    "coordinates":
    [[19.1143106, 45.593478600000005], [19.1144727, 45.5935489]]}},
  {"type":"Feature",
   "properties":{},
   "geometry":
   {"type":"LineString",
    "coordinates":
    [[19.1143106, 45.593478600000005],
     [19.111356800000003, 45.5971982]]}},
  {"type":"Feature",
   "properties":{},
   "geometry":
   {"type":"LineString",
    "coordinates":
    [[19.111147000000003, 45.597121200000004],
     [19.111278300000002, 45.5971944],
     [19.111356800000003, 45.5971982]]}},
  {"type":"Feature",
   "properties":{},
   "geometry":
   {"type":"LineString",
    "coordinates":
    [[19.1103478, 45.5972097], [19.1104576, 45.5970827],
     [19.1105582, 45.5970407], [19.1107017, 45.5970019],
     [19.1107725, 45.597010100000006], [19.1108304, 45.5970199],
     [19.1110314, 45.597051],
     [19.111147000000003, 45.597121200000004]]}},
  {"type":"Feature",
   "properties":{},
   "geometry":
   {"type":"LineString",
    "coordinates":
    [[19.1098541, 45.6023373], [19.109882300000002, 45.6018325],
     [19.109934600000003, 45.600911100000005],
     [19.109950700000002, 45.6003247],
     [19.1099949, 45.600062900000005],
     [19.110117000000002, 45.599645300000006],
     [19.110177800000002, 45.5993914], [19.1103478, 45.5972097]]}},
  {"type":"Feature",
   "properties":{},
   "geometry":
   {"type":"LineString",
    "coordinates":
    [[19.1098541, 45.6023373],
     [19.109902400000003, 45.602402100000006], [19.110011, 45.6024602],
     [19.1100844, 45.602507800000005],
     [19.110144100000003, 45.6025853],
     [19.1101545, 45.602625800000006],
     [19.110165900000002, 45.6030199],
     [19.1101062, 45.604168300000005]]}},
  {"type":"Feature",
   "properties":{},
   "geometry":
   {"type":"LineString",
    "coordinates":
    [[19.1103156, 45.6163849],
     [19.110282700000003, 45.616258300000005],
     [19.1103136, 45.616011900000004], [19.110242, 45.6159623],
     [19.110057400000002, 45.615980300000004],
     [19.109956200000003, 45.615974900000005],
     [19.1099286, 45.6160821], [19.109845, 45.616142200000006],
     [19.1096746, 45.6161697], [19.1095975, 45.616191],
     [19.109471900000003, 45.616214500000005],
     [19.1093639, 45.6161803], [19.109243900000003, 45.6161485],
     [19.1091461, 45.6161584], [19.1088147, 45.6164482],
     [19.1085263, 45.6161989], [19.1082928, 45.6160748],
     [19.108115400000003, 45.6160617],
     [19.1078072, 45.616048600000006], [19.1074616, 45.6160225],
     [19.10706, 45.61582], [19.1045568, 45.613539900000006],
     [19.104370000000003, 45.6133047], [19.1053694, 45.6128408],
     [19.106639700000002, 45.6117955], [19.1093669, 45.6093454],
     [19.1096845, 45.6090971], [19.109946, 45.6089076],
     [19.109899300000002, 45.6086789],
     [19.109796600000003, 45.608463300000004],
     [19.1098801, 45.6078818], [19.1098761, 45.6076405],
     [19.1100356, 45.6068434], [19.109979000000003, 45.6064765],
     [19.1099977, 45.6062233], [19.109951600000002, 45.6060115],
     [19.110032500000003, 45.605288300000005],
     [19.1100636, 45.6048692], [19.1101005, 45.6044745],
     [19.1100365, 45.604274800000006],
     [19.1101062, 45.604168300000005]]}},
  {"type":"Feature",
   "properties":{},
   "geometry":
   {"type":"LineString",
    "coordinates":
    [[19.1103156, 45.6163849], [19.1104597, 45.616435300000006],
     [19.1104971, 45.616442400000004],
     [19.110598200000002, 45.6164709]]}},
  {"type":"Feature",
   "properties":{},
   "geometry":
   {"type":"LineString",
    "coordinates":
    [[19.110598200000002, 45.6164709], [19.1105251, 45.6180607],
     [19.110305200000003, 45.621616800000005],
     [19.1101511, 45.624436300000006],
     [19.110161400000003, 45.624619200000005],
     [19.1101663, 45.6248024],
     [19.110105100000002, 45.624835100000006],
     [19.1093954, 45.624856300000005], [19.1092955, 45.6248805]]}},
  {"type":"Feature",
   "properties":{},
   "geometry":
   {"type":"LineString",
    "coordinates":
    [[19.1084074, 45.6315115], [19.1084925, 45.6310792],
     [19.108576600000003, 45.630951100000004],
     [19.1086494, 45.6308756], [19.1087077, 45.6307466],
     [19.108794800000002, 45.6304123], [19.1090054, 45.629519],
     [19.1091298, 45.6287126], [19.1093093, 45.626939500000006],
     [19.1093456, 45.626235900000005], [19.1093629, 45.625689],
     [19.1092964, 45.6253873], [19.1092666, 45.625066000000004],
     [19.1092955, 45.6248805]]}},
  {"type":"Feature",
   "properties":{},
   "geometry":
   {"type":"LineString",
    "coordinates":
    [[19.077456400000003, 45.6451213], [19.0775809, 45.6451604],
     [19.077651, 45.6452041], [19.077719000000002, 45.6452851],
     [19.078534700000002, 45.646745800000005],
     [19.0787537, 45.6470132], [19.0788315, 45.647145900000005],
     [19.0789979, 45.647074700000005], [19.07918, 45.646994500000005],
     [19.0793679, 45.6468988], [19.0796388, 45.64676],
     [19.080076000000002, 45.6465538], [19.080639400000003, 45.646244],
     [19.081232200000002, 45.645960900000006],
     [19.081731100000002, 45.645704], [19.0824365, 45.645360800000006],
     [19.0826675, 45.6452504], [19.0835575, 45.6448249],
     [19.0850811, 45.644061400000005],
     [19.086017100000003, 45.6436061], [19.0865991, 45.6432723],
     [19.0867225, 45.643242300000004], [19.0867796, 45.6432421],
     [19.0868702, 45.6432419], [19.0870171, 45.643402800000004],
     [19.087191400000002, 45.6435678], [19.0876179, 45.6439297],
     [19.0877039, 45.6439612], [19.0878352, 45.6439597],
     [19.087939900000002, 45.6439237], [19.0882268, 45.6437516],
     [19.088763200000002, 45.6433915], [19.0892032, 45.6431267],
     [19.0898954, 45.6426321], [19.090688, 45.6421617],
     [19.0911897, 45.641835], [19.0912487, 45.641806900000006],
     [19.091321100000002, 45.641803200000005],
     [19.0913828, 45.6418163], [19.0914632, 45.641857900000005],
     [19.0917959, 45.6421295], [19.0919944, 45.642273800000005],
     [19.09263, 45.6427914], [19.0928527, 45.6429714],
     [19.0929089, 45.6429831], [19.0929732, 45.6429774],
     [19.093032400000002, 45.6429489],
     [19.093405800000003, 45.6426753], [19.096212, 45.6408664],
     [19.096306000000002, 45.640807800000005],
     [19.0963837, 45.6407801], [19.0964803, 45.640767000000004],
     [19.096563500000002, 45.640781600000004],
     [19.0966439, 45.6408232],
     [19.096783300000002, 45.640930100000006],
     [19.0968316, 45.640950700000005], [19.0968881, 45.6409335],
     [19.096957800000002, 45.6408866],
     [19.097608400000002, 45.6404622],
     [19.098364800000002, 45.639965200000006],
     [19.0985444, 45.6398774], [19.0988288, 45.639697000000005],
     [19.0989764, 45.6395714], [19.0995583, 45.6391873],
     [19.1004444, 45.638603], [19.1005507, 45.6385328],
     [19.1010764, 45.6381859], [19.101879800000003, 45.6377511],
     [19.102623100000002, 45.6371922],
     [19.1033322, 45.636758900000004], [19.1035943, 45.6365866],
     [19.104289400000003, 45.636146200000006],
     [19.1047087, 45.635879700000004],
     [19.104943300000002, 45.635653000000005],
     [19.1052411, 45.635481500000004],
     [19.105614300000003, 45.6352771],
     [19.1058978, 45.635140500000006],
     [19.105952600000002, 45.6351437],
     [19.1060215, 45.635182900000004],
     [19.1061051, 45.635228500000004],
     [19.106678300000002, 45.6356346],
     [19.1067977, 45.635685300000006], [19.1068982, 45.6356806],
     [19.1069646, 45.6356721], [19.1070163, 45.6356583],
     [19.1070904, 45.6355896],
     [19.107150400000002, 45.635509000000006],
     [19.1072124, 45.635392100000004],
     [19.1072723, 45.635344700000005], [19.1073267, 45.6353403],
     [19.107455100000003, 45.6353724],
     [19.1075975, 45.635260800000005], [19.1076422, 45.6351631],
     [19.107851200000002, 45.634364000000005],
     [19.1082019, 45.633023900000005], [19.1083681, 45.6322794],
     [19.1083925, 45.6321473], [19.1083897, 45.6320381],
     [19.1083263, 45.6319144],
     [19.108325500000003, 45.631821200000005],
     [19.1083623, 45.6316398], [19.1084074, 45.6315115]]}},
  {"type":"Feature",
   "properties":{},
   "geometry":
   {"type":"LineString",
    "coordinates":
    [[19.077376, 45.645168000000005],
     [19.077456400000003, 45.6451213]]}},
  {"type":"Feature",
   "properties":{},
   "geometry":
   {"type":"LineString",
    "coordinates":
    [[19.076958, 45.6450333], [19.0771079, 45.6451149],
     [19.077250600000003, 45.6451797],
     [19.077376, 45.645168000000005]]}},
  {"type":"Feature",
   "properties":{},
   "geometry":
   {"type":"LineString",
    "coordinates":
    [[19.076958, 45.6450333], [19.0767785, 45.645010600000006],
     [19.0754245, 45.643972100000006], [19.0753418, 45.6439133],
     [19.0738121, 45.6428066], [19.070578400000002, 45.6448806],
     [19.0705074, 45.644932100000005], [19.0703873, 45.6450036],
     [19.0671533, 45.6470755], [19.0670372, 45.647145300000005],
     [19.0663857, 45.6475699],
     [19.066355700000003, 45.647589700000005],
     [19.0657545, 45.6479872], [19.0656679, 45.6480429],
     [19.0623469, 45.6501693], [19.062292900000003, 45.6502034],
     [19.0622307, 45.6502441], [19.059235100000002, 45.6521696],
     [19.0606681, 45.6532956], [19.0607417, 45.6533511],
     [19.0608435, 45.653427900000004],
     [19.062186800000003, 45.654437400000006],
     [19.0623046, 45.6545262], [19.0624043, 45.654594],
     [19.0634124, 45.6553471],
     [19.063442900000002, 45.655452000000004]]}},
  {"type":"Feature",
   "properties":{},
   "geometry":
   {"type":"LineString",
    "coordinates":
    [[19.063442900000002, 45.655452000000004], [19.063405, 45.6555187],
     [19.0633711, 45.6555782]]}},
  {"type":"Feature",
   "properties":{},
   "geometry":
   {"type":"LineString",
    "coordinates":
    [[19.0633711, 45.6555782], [19.063472, 45.6557046],
     [19.065947100000002, 45.6575587],
     [19.0659284, 45.657650100000005],
     [19.0660816, 45.657659900000006],
     [19.0680643, 45.659231000000005],
     [19.068421700000002, 45.659617700000005], [19.069194, 45.6602462],
     [19.0694477, 45.660318700000005],
     [19.0694707, 45.660423400000006],
     [19.0692747, 45.660552300000006],
     [19.0693093, 45.660737600000004],
     [19.069828100000002, 45.6608504]]}},
  {"type":"Feature",
   "properties":{},
   "geometry":
   {"type":"LineString",
    "coordinates":
    [[19.069828100000002, 45.6608504], [19.0655621, 45.6628418],
     [19.0636349, 45.663573400000004],
     [19.062964700000002, 45.6638673], [19.0626493, 45.6640938],
     [19.062373400000002, 45.6642315],
     [19.062106200000002, 45.664292800000005],
     [19.0619441, 45.664363200000004], [19.0618872, 45.6644366],
     [19.061874, 45.664568300000006], [19.061830200000003, 45.6647029],
     [19.061729500000002, 45.664819300000005],
     [19.061698800000002, 45.664923300000005],
     [19.061707600000002, 45.665002900000005],
     [19.0616375, 45.665100900000006],
     [19.0613046, 45.665272300000005],
     [19.0609411, 45.665379400000006], [19.0606826, 45.665407],
     [19.0605425, 45.6653917],
     [19.060240200000003, 45.665425400000004],
     [19.0599512, 45.6655845], [19.0595044, 45.665786600000004],
     [19.058904300000002, 45.666068200000005],
     [19.0579669, 45.666591600000004], [19.056885, 45.6670171],
     [19.05645, 45.6673545]]}},
  {"type":"Feature",
   "properties":{},
   "geometry":
   {"type":"LineString",
    "coordinates":
    [[19.0518995, 45.6735744], [19.0520387, 45.673206500000006],
     [19.0521229, 45.6726077],
     [19.052137700000003, 45.672502300000005],
     [19.0526495, 45.670798600000005], [19.0526667, 45.6707413],
     [19.052481800000002, 45.670356700000006],
     [19.0524671, 45.6699524], [19.0523029, 45.6697714],
     [19.052221600000003, 45.669629400000005],
     [19.0522557, 45.669541300000006],
     [19.0525822, 45.669315100000006], [19.0527842, 45.6691118],
     [19.052841100000002, 45.6689924], [19.0532293, 45.6688771],
     [19.053677, 45.6685196], [19.0539478, 45.668347100000005],
     [19.0543839, 45.6683481], [19.0547811, 45.6682026],
     [19.0562943, 45.6675508], [19.056418700000002, 45.6674534],
     [19.05645, 45.6673545]]}},
  {"type":"Feature",
   "properties":{},
   "geometry":
   {"type":"LineString",
    "coordinates":
    [[19.032081100000003, 45.676562600000004], [19.0324402, 45.677053],
     [19.0331054, 45.6768428], [19.0336257, 45.6772888],
     [19.034763, 45.6767641], [19.0359002, 45.676959000000004],
     [19.036667100000003, 45.6769637],
     [19.037134000000002, 45.676966500000006],
     [19.0368795, 45.676803500000005],
     [19.0364578, 45.676625900000005], [19.0357078, 45.6761288],
     [19.0348903, 45.6756363], [19.0349064, 45.675438400000004],
     [19.035215400000002, 45.6753687], [19.0371241, 45.6750988],
     [19.0385372, 45.6747412], [19.0392131, 45.674511800000005],
     [19.039757100000003, 45.6743206],
     [19.040233500000003, 45.674003500000005],
     [19.041038200000003, 45.673861800000005],
     [19.041765700000003, 45.673783], [19.0427442, 45.6737223],
     [19.0437613, 45.6735829],
     [19.044382600000002, 45.673463700000006],
     [19.045242000000002, 45.6734142], [19.0457976, 45.6732407],
     [19.0460873, 45.6731282], [19.0507543, 45.673300700000006],
     [19.0518995, 45.6735744]]}},
  {"type":"Feature",
   "properties":{},
   "geometry":
   {"type":"LineString",
    "coordinates":
    [[19.031976, 45.6764081], [19.032005700000003, 45.676449500000004],
     [19.032081100000003, 45.676562600000004]]}},
  {"type":"Feature",
   "properties":{},
   "geometry":
   {"type":"LineString",
    "coordinates":
    [[19.030344200000002, 45.676872200000005],
     [19.0311583, 45.6766341], [19.0312096, 45.6767057],
     [19.031852800000003, 45.676506800000006],
     [19.031976, 45.6764081]]}},
  {"type":"Feature",
   "properties":{},
   "geometry":
   {"type":"LineString",
    "coordinates":
    [[19.030344200000002, 45.676872200000005],
     [19.029482700000003, 45.6771333], [19.0294327, 45.6771778]]}},
  {"type":"Feature",
   "properties":{},
   "geometry":
   {"type":"LineString",
    "coordinates":
    [[19.0231877, 45.6792652], [19.0234494, 45.67911],
     [19.0237622, 45.678921900000006], [19.0240394, 45.6788029],
     [19.0245977, 45.678612], [19.0247084, 45.678589900000006],
     [19.0248667, 45.6785705], [19.0250212, 45.678523500000004],
     [19.0251518, 45.678459800000006],
     [19.025270600000002, 45.6783907],
     [19.0254251, 45.678277200000004], [19.0257104, 45.6781306],
     [19.025944000000003, 45.6780531], [19.0262172, 45.6779923],
     [19.026545900000002, 45.677834600000004],
     [19.026886400000002, 45.6776907], [19.0274527, 45.6774804],
     [19.0277734, 45.6773698],
     [19.028177300000003, 45.677223100000006],
     [19.0284307, 45.6771374], [19.028585200000002, 45.6770295],
     [19.0286763, 45.676999], [19.028735700000002, 45.676999],
     [19.0288386, 45.677021200000006],
     [19.028925700000002, 45.6770737], [19.0290287, 45.6771346],
     [19.029214800000002, 45.677170600000004],
     [19.0294327, 45.6771778]]}},
  {"type":"Feature",
   "properties":{},
   "geometry":
   {"type":"LineString",
    "coordinates":
    [[19.0226064, 45.678968700000006], [19.0227018, 45.6790503],
     [19.0231877, 45.6792652]]}},
  {"type":"Feature",
   "properties":{},
   "geometry":
   {"type":"LineString",
    "coordinates":
    [[19.022566400000002, 45.6789155],
     [19.0226064, 45.678968700000006]]}},
  {"type":"Feature",
   "properties":{},
   "geometry":
   {"type":"LineString",
    "coordinates":
    [[19.022566400000002, 45.6789155], [19.0225477, 45.6788931],
     [19.0225137, 45.6788521], [19.0224181, 45.6786912],
     [19.022411700000003, 45.678620200000005], [19.0224505, 45.678533],
     [19.019611400000002, 45.679564000000006],
     [19.017793400000002, 45.6800907], [19.0176881, 45.6801034],
     [19.0174714, 45.680151], [19.016827300000003, 45.6801466],
     [19.0163698, 45.680077600000004],
     [19.0159293, 45.679947600000006],
     [19.0152419, 45.679679300000004],
     [19.014752700000003, 45.679679300000004],
     [19.014071400000002, 45.6798178], [19.013566100000002, 45.67991],
     [19.013119200000002, 45.679568100000004],
     [19.012880000000003, 45.6794397], [19.0124904, 45.6790965],
     [19.0119914, 45.6784085], [19.0114306, 45.6777662],
     [19.0106731, 45.676839300000005],
     [19.010419600000002, 45.6765405], [19.0099573, 45.6759299],
     [19.009828000000002, 45.6757222],
     [19.0094593, 45.674891900000006], [19.0092615, 45.6742323],
     [19.0089311, 45.673721]]}},
  {"type":"Feature",
   "properties":{},
   "geometry":
   {"type":"LineString",
    "coordinates":
    [[19.0089311, 45.673721], [19.008395500000002, 45.673056700000004],
     [19.008198200000002, 45.6726849],
     [19.0080718, 45.672515600000004],
     [19.008021600000003, 45.672442100000005],
     [19.0079846, 45.672377100000006],
     [19.007976600000003, 45.672111900000004],
     [19.0080169, 45.671910600000004], [19.0080597, 45.6717292]]}},
  {"type":"Feature",
   "properties":{},
   "geometry":
   {"type":"LineString",
    "coordinates":
    [[19.0062138, 45.670354200000006], [19.0077713, 45.6714064],
     [19.0078816, 45.671509500000006], [19.0080597, 45.6717292]]}},
  {"type":"Feature",
   "properties":{},
   "geometry":
   {"type":"LineString",
    "coordinates":
    [[19.0062138, 45.670354200000006],
     [19.0059624, 45.670184000000006], [19.005624, 45.6699494],
     [19.00442, 45.669467600000004], [19.003385400000003, 45.6690624],
     [19.0018612, 45.6684609],
     [19.001015900000002, 45.668129500000006]]}},
  {"type":"Feature",
   "properties":{},
   "geometry":
   {"type":"LineString",
    "coordinates":
    [[19.0008473, 45.668030400000006],
     [19.001015900000002, 45.668129500000006]]}},
  {"type":"Feature",
   "properties":{},
   "geometry":
   {"type":"LineString",
    "coordinates":
    [[18.9902592, 45.669634], [18.990314100000003, 45.669634],
     [18.990425600000002, 45.669618], [18.9914838, 45.6694782],
     [18.9923319, 45.669353400000006],
     [18.992411200000003, 45.6693401], [18.9939299, 45.6691227],
     [18.995237, 45.6689025], [18.996081200000003, 45.6687628],
     [18.998032000000002, 45.6684508], [18.9991124, 45.6682952],
     [18.9994915, 45.668240600000004],
     [19.0008473, 45.668030400000006]]}},
  {"type":"Feature",
   "properties":{},
   "geometry":
   {"type":"LineString",
    "coordinates":
    [[18.990152300000002, 45.669687], [18.9902592, 45.669634]]}},
  {"type":"Feature",
   "properties":{},
   "geometry":
   {"type":"LineString",
    "coordinates":
    [[18.990152300000002, 45.669687], [18.9902906, 45.6698608],
     [18.9903386, 45.6699211], [18.9904183, 45.6700212]]}},
  {"type":"Feature",
   "properties":{},
   "geometry":
   {"type":"LineString",
    "coordinates":
    [[18.9904183, 45.6700212],
     [18.990449700000003, 45.670062800000004]]}},
  {"type":"Feature",
   "properties":{},
   "geometry":
   {"type":"LineString",
    "coordinates":
    [[18.990449700000003, 45.670062800000004],
     [18.988201500000002, 45.6708981], [18.9873526, 45.6712119],
     [18.986710300000002, 45.671432], [18.986414500000002, 45.6715655],
     [18.9861526, 45.6716387], [18.9845976, 45.6722124],
     [18.9820934, 45.6731453],
     [18.981087300000002, 45.673531100000005],
     [18.9793746, 45.674167100000005],
     [18.979156500000002, 45.6742228]]}},
  {"type":"Feature",
   "properties":{},
   "geometry":
   {"type":"LineString",
    "coordinates":
    [[18.979131600000002, 45.6741955],
     [18.979156500000002, 45.6742228]]}},
  {"type":"Feature",
   "properties":{},
   "geometry":
   {"type":"LineString",
    "coordinates":
    [[18.979131600000002, 45.6741955], [18.9790923, 45.67421]]}},
  {"type":"Feature",
   "properties":{},
   "geometry":
   {"type":"LineString",
    "coordinates":
    [[18.9790923, 45.67421], [18.9790512, 45.6742253],
     [18.978898, 45.674281400000005], [18.9788196, 45.6743101],
     [18.9787989, 45.6743177],
     [18.978172700000002, 45.674547200000006],
     [18.9780582, 45.6745892], [18.9779428, 45.6746319],
     [18.977525800000002, 45.6747862],
     [18.9772235, 45.674898000000006],
     [18.977149700000002, 45.6749254],
     [18.977110500000002, 45.674939900000005]]}},
  {"type":"Feature",
   "properties":{},
   "geometry":
   {"type":"LineString",
    "coordinates":
    [[18.977110500000002, 45.674939900000005],
     [18.976474500000002, 45.675175200000005]]}},
  {"type":"Feature",
   "properties":{},
   "geometry":
   {"type":"LineString",
    "coordinates":
    [[18.976474500000002, 45.675175200000005],
     [18.9763528, 45.675218400000006],
     [18.9755831, 45.675491300000004], [18.9747598, 45.6757794],
     [18.974021800000003, 45.6760238], [18.9739431, 45.6760499],
     [18.9738688, 45.6760748], [18.9731078, 45.6763295],
     [18.972906000000002, 45.676395400000004]]}},
  {"type":"Feature",
   "properties":{},
   "geometry":
   {"type":"LineString",
    "coordinates":
    [[18.972906000000002, 45.676395400000004],
     [18.972722400000002, 45.6764607], [18.9726655, 45.6764777],
     [18.9726156, 45.676492700000004],
     [18.9725706, 45.676506200000006],
     [18.969902400000002, 45.6773481],
     [18.969647000000002, 45.6774318], [18.969496, 45.6774951],
     [18.9693496, 45.677580500000005],
     [18.969231500000003, 45.6777135]]}},
  {"type":"Feature",
   "properties":{},
   "geometry":
   {"type":"LineString",
    "coordinates":
    [[18.969231500000003, 45.6777135], [18.9692209, 45.677743],
     [18.969239400000003, 45.677956], [18.9692213, 45.678136300000006],
     [18.9691398, 45.678442100000005], [18.9690248, 45.6786498],
     [18.9689738, 45.6787134], [18.9688674, 45.6787641],
     [18.9687561, 45.6787854]]}},
  {"type":"Feature",
   "properties":{},
   "geometry":
   {"type":"LineString",
    "coordinates":
    [[18.9687561, 45.6787854], [18.968717700000003, 45.6788393],
     [18.9686042, 45.6790079], [18.9677803, 45.679779],
     [18.966797500000002, 45.680667500000006],
     [18.9664015, 45.6811152], [18.9662806, 45.6811991],
     [18.9660675, 45.681339900000005],
     [18.9659194, 45.681458000000006], [18.9657217, 45.6816188],
     [18.9654551, 45.6817903], [18.9649518, 45.6820833],
     [18.9645976, 45.6822719], [18.9643434, 45.682379100000006],
     [18.964110400000003, 45.682467800000005],
     [18.9637625, 45.6825794], [18.9633003, 45.6827144],
     [18.9622376, 45.6829454],
     [18.961642700000002, 45.683074700000006],
     [18.9595913, 45.6835205], [18.9568932, 45.6840824],
     [18.955431400000002, 45.684387], [18.9550288, 45.684488200000004],
     [18.952997800000002, 45.6852651], [18.9529201, 45.6852455]]}},
  {"type":"Feature",
   "properties":{},
   "geometry":
   {"type":"LineString",
    "coordinates":
    [[18.915693, 45.7159185], [18.915685, 45.7158005],
     [18.9156675, 45.715367900000004], [18.9156796, 45.715263],
     [18.9157011, 45.7151713], [18.9157279, 45.7150448],
     [18.9157373, 45.7148988], [18.9157507, 45.7147901],
     [18.9158472, 45.714298500000005],
     [18.9158821, 45.714050400000005], [18.9159116, 45.7138341],
     [18.915925, 45.713612100000006], [18.9159425, 45.713128000000005],
     [18.9159505, 45.7126083], [18.9159505, 45.7123761],
     [18.9159559, 45.7122393], [18.916004100000002, 45.7117852],
     [18.9160605, 45.7114771], [18.9161383, 45.711212],
     [18.916532500000002, 45.710269000000004],
     [18.916874500000002, 45.709474], [18.917105900000003, 45.7088766],
     [18.917278200000002, 45.708305200000005],
     [18.9174921, 45.707603000000006],
     [18.917673800000003, 45.707188900000006],
     [18.9178871, 45.706771200000006], [18.9181767, 45.7063038],
     [18.9185187, 45.705758800000005],
     [18.918769100000002, 45.7053973], [18.9191705, 45.7048812],
     [18.919469600000003, 45.7044944], [18.9198826, 45.7039709],
     [18.9203104, 45.703468900000004], [18.9205733, 45.7031841],
     [18.9208824, 45.702867700000006], [18.9209998, 45.7027926],
     [18.921151300000002, 45.702729000000005],
     [18.921305500000003, 45.7026934], [18.9214692, 45.7026812],
     [18.9216395, 45.7026934], [18.9220338, 45.7027542],
     [18.9224696, 45.7027973], [18.9226332, 45.702796400000004],
     [18.9228183, 45.702779500000005], [18.9229886, 45.7027402],
     [18.9231415, 45.7026868], [18.9232796, 45.702618400000006],
     [18.9234191, 45.7025341], [18.9235371, 45.702437700000004],
     [18.9236243, 45.702349600000005], [18.9236873, 45.7022485],
     [18.923782600000003, 45.7020284],
     [18.9238523, 45.701801700000004], [18.9239596, 45.7013849],
     [18.9243579, 45.7002862], [18.9245148, 45.6998788],
     [18.9246395, 45.699493800000006], [18.9247267, 45.69921],
     [18.9247468, 45.6991098], [18.9247629, 45.6989515],
     [18.9247897, 45.698827900000005],
     [18.9248474, 45.698715500000006],
     [18.9249064, 45.698618100000004],
     [18.9249882, 45.698520200000004],
     [18.9250928, 45.698432100000005],
     [18.925226900000002, 45.6983394], [18.9255079, 45.6982031],
     [18.9258157, 45.6980645], [18.9259853, 45.697975],
     [18.9261409, 45.6978743], [18.9265198, 45.697553000000006],
     [18.9266477, 45.697457400000005],
     [18.9267518, 45.697408800000005], [18.926859, 45.6973676],
     [18.926982900000002, 45.6973475],
     [18.927143400000002, 45.697335700000004],
     [18.928229700000003, 45.697332900000006],
     [18.9291939, 45.6973348], [18.9302494, 45.697332900000006],
     [18.9303794, 45.6973161], [18.930505500000002, 45.6972852],
     [18.930606100000002, 45.6972402],
     [18.930697300000002, 45.6971812],
     [18.9307778, 45.697115600000004],
     [18.931267300000002, 45.696582600000006],
     [18.9318788, 45.6959091], [18.9323576, 45.695372400000004],
     [18.9327881, 45.6948993], [18.9332065, 45.694444100000005],
     [18.933645000000002, 45.693955100000004],
     [18.9338073, 45.6937902], [18.9339495, 45.693652500000006],
     [18.934118400000003, 45.6934989],
     [18.9343317, 45.693324700000005],
     [18.934672300000003, 45.6930849],
     [18.935076000000002, 45.6927767],
     [18.9356835, 45.692343900000004],
     [18.936057700000003, 45.6920657],
     [18.936818600000002, 45.691517100000006],
     [18.9383483, 45.6903888], [18.9391623, 45.689793900000005],
     [18.939399700000003, 45.6896112],
     [18.939520400000003, 45.689502600000004],
     [18.939630400000002, 45.6893911], [18.9397296, 45.6892562],
     [18.939806100000002, 45.6891231],
     [18.939924100000002, 45.6889302],
     [18.940031400000002, 45.6887934],
     [18.9401413, 45.688692200000006], [18.9402902, 45.6886098],
     [18.9404659, 45.688543200000005], [18.9416997, 45.688251],
     [18.9428294, 45.687989200000004],
     [18.945241600000003, 45.687429300000005],
     [18.9468339, 45.6870758],
     [18.948652000000003, 45.686649900000006],
     [18.9501779, 45.686307600000006],
     [18.950343800000002, 45.6862462], [18.9505945, 45.6861711],
     [18.951841100000003, 45.6856783],
     [18.952586800000002, 45.6853804], [18.9529201, 45.6852455]]}},
  {"type":"Feature",
   "properties":{},
   "geometry":
   {"type":"LineString",
    "coordinates":
    [[18.9762981, 45.7303712], [18.976209, 45.7303987],
     [18.9761087, 45.7304034], [18.9759904, 45.730397800000006],
     [18.9758442, 45.7303762], [18.975255500000003, 45.730262],
     [18.975121400000003, 45.7302246],
     [18.975023500000002, 45.7301796],
     [18.9749202, 45.730113200000005],
     [18.974429400000002, 45.729710600000004],
     [18.9741155, 45.7294672], [18.973573700000003, 45.7290338],
     [18.9731084, 45.728678], [18.972715400000002, 45.7283934],
     [18.9723072, 45.7281154], [18.9719832, 45.727925400000004],
     [18.9716354, 45.727754100000006],
     [18.9713663, 45.727629500000006], [18.9710383, 45.7274909],
     [18.9705616, 45.7273122], [18.9699259, 45.727056600000004],
     [18.9693861, 45.726865700000005], [18.9687136, 45.7266409],
     [18.9681584, 45.726463], [18.9679867, 45.7264162],
     [18.9677936, 45.726375000000004], [18.967571, 45.7263376],
     [18.9673993, 45.7262945], [18.967241, 45.726236500000006],
     [18.9667019, 45.725906900000005],
     [18.9661541, 45.725601700000006],
     [18.9655513, 45.725247800000005],
     [18.965005400000003, 45.7249361], [18.9641203, 45.7244352],
     [18.963994200000002, 45.7243575],
     [18.963903000000002, 45.724271300000005],
     [18.9638145, 45.7241683], [18.9634994, 45.7236862],
     [18.9633746, 45.723496100000006],
     [18.963250600000002, 45.723310700000006],
     [18.962928100000003, 45.7228323], [18.96263, 45.722412600000006],
     [18.962240100000002, 45.7219063], [18.962059, 45.721675100000006],
     [18.961998700000002, 45.7216067], [18.9619159, 45.7215408],
     [18.961832400000002, 45.721474900000004],
     [18.961741800000002, 45.721433000000005],
     [18.9616399, 45.721408700000005], [18.9615139, 45.7213933],
     [18.9613838, 45.721369800000005], [18.961251, 45.721333800000004],
     [18.961086, 45.721282800000004], [18.9600715, 45.7208446],
     [18.9587022, 45.7202678], [18.9585735, 45.7202107],
     [18.9584964, 45.7201578], [18.9584186, 45.720091800000006],
     [18.9580303, 45.7196714], [18.957691, 45.7193259],
     [18.9574161, 45.719044100000005],
     [18.957190800000003, 45.718856800000005],
     [18.956968200000002, 45.718679800000004],
     [18.9566597, 45.7184588], [18.9565659, 45.7183867],
     [18.956470600000003, 45.7183221], [18.9564103, 45.7182875],
     [18.956329800000002, 45.7182547], [18.9562044, 45.7182308],
     [18.9560898, 45.7182224], [18.955947600000002, 45.7182224],
     [18.9555694, 45.7182594], [18.9554568, 45.7182763],
     [18.9553656, 45.718309000000005], [18.9552811, 45.7183587],
     [18.955227400000002, 45.718414800000005],
     [18.9551872, 45.7184832], [18.9551041, 45.718657300000004],
     [18.9549512, 45.719025300000006], [18.954294, 45.720360500000005],
     [18.954197500000003, 45.7205571], [18.9539909, 45.7209541],
     [18.9539373, 45.721029], [18.95382, 45.7211172],
     [18.9531734, 45.7213634], [18.9524487, 45.7216226],
     [18.952234100000002, 45.7216788],
     [18.952022200000002, 45.7217125],
     [18.951818300000003, 45.7217387],
     [18.949201900000002, 45.7219391],
     [18.946542400000002, 45.722113300000004],
     [18.9457887, 45.7221619], [18.9451396, 45.7221769],
     [18.9445093, 45.7221825],
     [18.943755600000003, 45.722208800000004],
     [18.943594700000002, 45.722188200000005],
     [18.943425700000002, 45.722139500000004],
     [18.9431334, 45.7220196], [18.9429027, 45.721884800000005],
     [18.9427355, 45.721783900000005], [18.9425245, 45.7213361],
     [18.942470800000002, 45.7212182], [18.9423797, 45.721147],
     [18.9422509, 45.721113300000006], [18.9421275, 45.7211021],
     [18.9414838, 45.7211021], [18.939434600000002, 45.7211657],
     [18.9381364, 45.7211938], [18.9376134, 45.721206900000006],
     [18.937420200000002, 45.721203200000005],
     [18.9372379, 45.7211845], [18.936747, 45.7210796],
     [18.936224000000003, 45.720989700000004],
     [18.935451500000003, 45.720883],
     [18.934642200000003, 45.720789800000006],
     [18.934043300000003, 45.720731300000004],
     [18.9337935, 45.7207224], [18.9336115, 45.7207238],
     [18.9334317, 45.7207553], [18.9332467, 45.720795],
     [18.9312486, 45.721617900000005],
     [18.929937600000002, 45.722135900000005],
     [18.929725, 45.722188200000005], [18.9293368, 45.7222408],
     [18.9289941, 45.7223314], [18.9287809, 45.7224054],
     [18.9281708, 45.722762100000004],
     [18.9280191, 45.722804200000006],
     [18.9278367, 45.722835100000005],
     [18.927499100000002, 45.7228774],
     [18.927183600000003, 45.7229134], [18.9268477, 45.7229748],
     [18.924379300000002, 45.7235785], [18.92415, 45.723610300000004],
     [18.9239877, 45.7236057],
     [18.923796000000003, 45.723584100000004],
     [18.922485700000003, 45.7233267], [18.9215966, 45.7231244],
     [18.921099, 45.7229971], [18.920679200000002, 45.722837000000006],
     [18.9197257, 45.7224475], [18.918895600000003, 45.7221245],
     [18.9187923, 45.722063600000006],
     [18.918732000000002, 45.722011200000004],
     [18.918702500000002, 45.7219569],
     [18.9186917, 45.721886700000006],
     [18.9187078, 45.721817400000006],
     [18.9188674, 45.721296800000005],
     [18.919023000000003, 45.720708800000004],
     [18.9190431, 45.7205768], [18.9190404, 45.7204495],
     [18.9189894, 45.720318400000004],
     [18.9188848, 45.720110500000004], [18.9187413, 45.7198718],
     [18.91863, 45.7197322], [18.918533500000002, 45.7196414],
     [18.9184141, 45.719564600000005],
     [18.9181016, 45.719430800000005], [18.9176644, 45.7192622],
     [18.917278200000002, 45.7191489], [18.9166318, 45.7190103],
     [18.9165688, 45.7189879], [18.916509700000002, 45.7189514],
     [18.9164762, 45.718899900000004],
     [18.916368900000002, 45.718315600000004],
     [18.9162187, 45.717736900000006],
     [18.9160632, 45.717187300000006],
     [18.9158365, 45.716340800000005],
     [18.9157815, 45.716106700000005], [18.9157453, 45.7160159],
     [18.915693, 45.7159185]]}},
  {"type":"Feature",
   "properties":{},
   "geometry":
   {"type":"LineString",
    "coordinates":
    [[18.9762981, 45.7303712], [18.9762689, 45.7304643],
     [18.9762855, 45.7305578], [18.9763305, 45.730838600000006],
     [18.976527700000002, 45.731810700000004],
     [18.9766346, 45.732000600000006], [18.976844, 45.7322861],
     [18.9771131, 45.7328601], [18.9776615, 45.7337591],
     [18.977698500000002, 45.7339311], [18.977643, 45.7344774],
     [18.977452, 45.734886], [18.9771316, 45.7352214],
     [18.9767988, 45.735488100000005],
     [18.9765339, 45.735724700000006],
     [18.976422600000003, 45.7358047],
     [18.9762101, 45.735957400000004], [18.9758824, 45.7361182]]}},
  {"type":"Feature",
   "properties":{},
   "geometry":
   {"type":"LineString",
    "coordinates":
    [[18.9758824, 45.7361182],
     [18.975148400000002, 45.736318000000004],
     [18.9746387, 45.7364168], [18.974079500000002, 45.7364959],
     [18.9715975, 45.736512700000006], [18.97143, 45.736524300000006],
     [18.9714251, 45.7365798],
     [18.971453500000003, 45.740309700000005],
     [18.9715384, 45.742923000000005],
     [18.971503000000002, 45.7431008],
     [18.9714464, 45.743160100000004],
     [18.971177400000002, 45.7431897], [18.9695635, 45.7432194],
     [18.9606447, 45.7432935], [18.9587219, 45.743307400000006],
     [18.9531487, 45.7433478],
     [18.952681600000002, 45.743367600000006],
     [18.9524338, 45.7434713], [18.9519737, 45.7437035],
     [18.9506996, 45.744157900000005],
     [18.950366900000002, 45.7442963],
     [18.950211200000002, 45.744429600000004], [18.9500767, 45.744484],
     [18.9498885, 45.7444195], [18.9497754, 45.744193]]}},
  {"type":"Feature",
   "properties":{},
   "geometry":
   {"type":"LineString",
    "coordinates":
    [[18.9461616, 45.746819900000006], [18.9461723, 45.7466627],
     [18.9462152, 45.7465429], [18.9464539, 45.746247100000005],
     [18.946816000000002, 45.745842800000005],
     [18.946985, 45.745672500000005], [18.947341700000003, 45.7453768],
     [18.947634100000002, 45.7450399],
     [18.947800400000002, 45.7448471],
     [18.947993500000003, 45.7447329],
     [18.948197200000003, 45.744626600000004], [18.948467, 45.7444798],
     [18.948920700000002, 45.7443351],
     [18.9492511, 45.744250400000006], [18.9495209, 45.7441794],
     [18.9496785, 45.744181000000005], [18.9497754, 45.744193]]}},
  {"type":"Feature",
   "properties":{},
   "geometry":
   {"type":"LineString",
    "coordinates":
    [[18.9461616, 45.746819900000006],
     [18.9457592, 45.747390800000005], [18.945515200000003, 45.74781],
     [18.9451933, 45.7485475], [18.9449894, 45.7492943],
     [18.944922400000003, 45.7499194],
     [18.944863400000003, 45.750159000000004],
     [18.9447856, 45.7508458], [18.9447963, 45.751291300000005],
     [18.944817800000003, 45.751646900000004],
     [18.9449465, 45.752301900000006], [18.9454722, 45.7536494],
     [18.9459443, 45.7543943], [18.9467007, 45.755633200000005],
     [18.9471084, 45.7561272], [18.9478326, 45.7568159],
     [18.948267100000002, 45.756980600000006],
     [18.948631900000002, 45.757463400000006],
     [18.948752600000002, 45.757540600000006],
     [18.949447300000003, 45.7581202], [18.9504048, 45.7589156],
     [18.951051200000002, 45.759346], [18.951971200000003, 45.7598381],
     [18.9526659, 45.760253500000005],
     [18.9543986, 45.761123700000006],
     [18.955605600000002, 45.7618796],
     [18.956678500000002, 45.7627778],
     [18.9579552, 45.764188700000005], [18.9585453, 45.7650008],
     [18.958776, 45.7655583], [18.9592481, 45.765835300000006],
     [18.959409, 45.766531300000004], [18.9594279, 45.7669365]]}},
  {"type":"Feature",
   "properties":{},
   "geometry":
   {"type":"LineString",
    "coordinates":
    [[18.9594279, 45.7669365], [18.9586143, 45.767371600000004]]}},
  {"type":"Feature",
   "properties":{},
   "geometry":
   {"type":"LineString",
    "coordinates":
    [[18.9586143, 45.767371600000004],
     [18.9583865, 45.767473900000006], [18.9582263, 45.7676157],
     [18.958103, 45.767843500000005], [18.9580106, 45.7683078],
     [18.9576101, 45.769679000000004],
     [18.9573143, 45.770809400000005], [18.957012300000002, 45.771424],
     [18.9564886, 45.772631800000006],
     [18.9560326, 45.773474300000004], [18.9555149, 45.7742049],
     [18.9543117, 45.775368300000004], [18.9521628, 45.777265],
     [18.9515774, 45.7777721], [18.9508009, 45.7783007],
     [18.9502525, 45.778691800000004],
     [18.949839700000002, 45.7791087], [18.948675, 45.779581400000005],
     [18.946900300000003, 45.7799811], [18.9448422, 45.7801745],
     [18.9436159, 45.780269000000004],
     [18.9417303, 45.780217500000006], [18.9404924, 45.7802753],
     [18.937879000000002, 45.780024100000006],
     [18.9364679, 45.7798737],
     [18.935019800000003, 45.779766200000005],
     [18.9340277, 45.779761900000004], [18.9330849, 45.779676],
     [18.931975700000002, 45.779512700000005],
     [18.931285600000002, 45.779431], [18.9303777, 45.7793749]]}},
  {"type":"Feature",
   "properties":{},
   "geometry":
   {"type":"LineString",
    "coordinates":
    [[18.9303777, 45.7793749], [18.9296079, 45.779604400000004],
     [18.929314700000003, 45.7796997], [18.9284231, 45.7798924],
     [18.9279349, 45.7800055], [18.9276157, 45.7801726],
     [18.9271421, 45.780469000000004], [18.9264438, 45.7808842],
     [18.925465300000003, 45.781372100000006],
     [18.9249057, 45.781651700000005],
     [18.924276000000003, 45.781929100000006],
     [18.923863400000002, 45.782124100000004],
     [18.9233338, 45.782281000000005], [18.9226657, 45.7825117],
     [18.9224344, 45.7825915]]}},
  {"type":"Feature",
   "properties":{},
   "geometry":
   {"type":"LineString",
    "coordinates":
    [[18.9224344, 45.7825915], [18.922567, 45.7826846],
     [18.9228074, 45.782815500000005],
     [18.923219200000002, 45.7829957]]}},
  {"type":"Feature",
   "properties":{},
   "geometry":
   {"type":"LineString",
    "coordinates":
    [[18.923219200000002, 45.7829957], [18.92386, 45.7833102]]}},
  {"type":"Feature",
   "properties":{},
   "geometry":
   {"type":"LineString",
    "coordinates":
    [[18.92386, 45.7833102], [18.9239755, 45.7833611],
     [18.9241165, 45.7834614], [18.9239441, 45.7837096],
     [18.923664000000002, 45.784090000000006],
     [18.9235134, 45.7843056], [18.9234641, 45.7843797],
     [18.923409600000003, 45.784479600000004],
     [18.9234034, 45.784603100000005],
     [18.9234708, 45.784840200000005], [18.9235198, 45.7850217],
     [18.9235443, 45.7852204], [18.923569, 45.785356500000006]]}},
  {"type":"Feature",
   "properties":{},
   "geometry":
   {"type":"LineString",
    "coordinates":
    [[18.926390100000003, 45.7882291],
     [18.926165700000002, 45.788073700000005],
     [18.9259153, 45.787957500000005],
     [18.925752000000003, 45.7878106],
     [18.925623400000003, 45.787657700000004],
     [18.925244900000003, 45.7872852],
     [18.924879400000002, 45.786873500000006],
     [18.9236654, 45.785468200000004],
     [18.923569, 45.785356500000006]]}},
  {"type":"Feature",
   "properties":{},
   "geometry":
   {"type":"LineString",
    "coordinates":
    [[18.928531800000002, 45.7914359], [18.9278812, 45.7900726],
     [18.9277413, 45.789832800000006], [18.9275404, 45.7894306],
     [18.927345900000002, 45.789188300000006],
     [18.927000500000002, 45.7888691],
     [18.9264951, 45.788374000000005],
     [18.926430500000002, 45.7883015],
     [18.926390100000003, 45.7882291]]}},
  {"type":"Feature",
   "properties":{},
   "geometry":
   {"type":"LineString",
    "coordinates":
    [[18.928531800000002, 45.7914359],
     [18.932118900000003, 45.790630300000004],
     [18.932237100000002, 45.7906075]]}},
  {"type":"Feature",
   "properties":{},
   "geometry":
   {"type":"LineString",
    "coordinates":
    [[18.932237100000002, 45.7906075], [18.932385, 45.790579],
     [18.93249, 45.7905571], [18.932650000000002, 45.7905193],
     [18.9363441, 45.7896951], [18.9403502, 45.7887937],
     [18.941389400000002, 45.7886237],
     [18.9424829, 45.788506600000005], [18.943635, 45.7884502],
     [18.943859500000002, 45.7884576], [18.9441469, 45.7885197],
     [18.944240100000002, 45.788566]]}},
  {"type":"Feature",
   "properties":{},
   "geometry":
   {"type":"LineString",
    "coordinates":
    [[18.9477522, 45.7885256], [18.9448025, 45.788564900000004],
     [18.944240100000002, 45.788566]]}},
  {"type":"Feature",
   "properties":{},
   "geometry":
   {"type":"LineString",
    "coordinates":
    [[18.953022800000003, 45.789126700000004],
     [18.9522041, 45.789039300000006], [18.9517586, 45.7889774],
     [18.949773, 45.7887568], [18.9495031, 45.788717600000005],
     [18.948614900000003, 45.788620200000004],
     [18.9477522, 45.7885256]]}},
  {"type":"Feature",
   "properties":{},
   "geometry":
   {"type":"LineString",
    "coordinates":
    [[18.9549978, 45.7888777], [18.953628300000002, 45.7890998],
     [18.9533831, 45.789124400000006],
     [18.953022800000003, 45.789126700000004]]}},
  {"type":"Feature",
   "properties":{},
   "geometry":
   {"type":"LineString",
    "coordinates":
    [[18.9549978, 45.7888777], [18.9550771, 45.7887909],
     [18.957041800000002, 45.7884144],
     [18.957871700000002, 45.788239600000004],
     [18.9585507, 45.788101100000006], [18.958684, 45.7880617],
     [18.958818400000002, 45.787992], [18.9589529, 45.787896100000005],
     [18.9590611, 45.787847400000004],
     [18.9592424, 45.787781100000004], [18.9593017, 45.7877525],
     [18.9598519, 45.7871261], [18.9618834, 45.7854577],
     [18.963886600000002, 45.783814], [18.9649837, 45.782886000000005],
     [18.9666754, 45.7815087], [18.9675037, 45.780899600000005],
     [18.967663, 45.780790200000006], [18.968048800000002, 45.7806215],
     [18.9680804, 45.7805337], [18.9680804, 45.7804706],
     [18.968065300000003, 45.7802918], [18.968292, 45.778269]]}},
  {"type":"Feature",
   "properties":{},
   "geometry":
   {"type":"LineString",
    "coordinates":
    [[18.968292, 45.778269], [18.9752957, 45.7787656],
     [18.9818712, 45.779153300000004],
     [18.985562700000003, 45.7794085],
     [18.9859855, 45.779397200000005],
     [18.9863514, 45.779465200000004], [18.9865546, 45.7794539],
     [18.9868636, 45.7794766], [18.9910673, 45.779743100000005],
     [18.9928399, 45.7798735],
     [18.993132600000003, 45.779850800000006],
     [18.9932708, 45.779799800000006], [18.9940758, 45.7794936],
     [18.996425600000002, 45.7785012],
     [18.9978729, 45.777922800000006], [18.9982632, 45.7778094],
     [18.998582000000003, 45.7778183], [18.9986697, 45.7778207]]}},
  {"type":"Feature",
   "properties":{},
   "geometry":
   {"type":"LineString",
    "coordinates":
    [[18.9986697, 45.7778207], [18.9988256, 45.7773471],
     [18.9988712, 45.777258700000004], [18.9990814, 45.7770695],
     [18.9998998, 45.776195400000006],
     [19.000187200000003, 45.775808700000006],
     [19.0007735, 45.775215900000006], [19.0010052, 45.7752045],
     [19.0034168, 45.7754108]]}},
  {"type":"Feature",
   "properties":{},
   "geometry":
   {"type":"LineString",
    "coordinates":
    [[19.0034168, 45.7754108], [19.0035062, 45.7754223]]}},
  {"type":"Feature",
   "properties":{},
   "geometry":
   {"type":"LineString",
    "coordinates":
    [[19.0035062, 45.7754223],
     [19.004582000000003, 45.775508900000005],
     [19.0046307, 45.775512500000005]]}},
  {"type":"Feature",
   "properties":{},
   "geometry":
   {"type":"LineString",
    "coordinates":
    [[19.0046307, 45.775512500000005],
     [19.004717, 45.775517400000005]]}},
  {"type":"Feature",
   "properties":{},
   "geometry":
   {"type":"LineString",
    "coordinates":
    [[19.004717, 45.775517400000005], [19.0048886, 45.7755333],
     [19.0053832, 45.775640700000004],
     [19.0055848, 45.775680300000005], [19.0056854, 45.7756849],
     [19.005748, 45.775675400000004], [19.005886, 45.775594700000006],
     [19.0059893, 45.7755458], [19.0060633, 45.775564],
     [19.0063833, 45.775699700000004], [19.0066272, 45.7757595],
     [19.0067686, 45.775783600000004],
     [19.007062700000002, 45.775772200000006],
     [19.0084914, 45.775837300000006], [19.011524, 45.7759561],
     [19.011579, 45.775905200000004],
     [19.011639300000002, 45.775795900000006],
     [19.011911400000002, 45.773431300000006],
     [19.0119633, 45.772714300000004], [19.0120009, 45.7722637],
     [19.0121222, 45.771802400000006], [19.0122608, 45.7714963],
     [19.012366500000002, 45.7712584], [19.012407, 45.771137200000005],
     [19.012407200000002, 45.7709606], [19.0126418, 45.7704791],
     [19.0127917, 45.7699915], [19.0131425, 45.767116900000005],
     [19.013843, 45.7631438]]}},
  {"type":"Feature",
   "properties":{},
   "geometry":
   {"type":"LineString",
    "coordinates":
    [[19.0286124, 45.764455600000005], [19.0281223, 45.7644036],
     [19.026804000000002, 45.7642977],
     [19.026121800000002, 45.764224600000006],
     [19.013843, 45.7631438]]}},
  {"type":"Feature",
   "properties":{},
   "geometry":
   {"type":"LineString",
    "coordinates":
    [[19.037454800000003, 45.764966400000006],
     [19.036588300000002, 45.7650865],
     [19.0364335, 45.765103800000006], [19.0362313, 45.7650893],
     [19.032707600000002, 45.7647673],
     [19.0319659, 45.764658000000004], [19.0312871, 45.7646038],
     [19.0294469, 45.7644497], [19.0286124, 45.764455600000005]]}},
  {"type":"Feature",
   "properties":{},
   "geometry":
   {"type":"LineString",
    "coordinates":
    [[19.037630500000002, 45.764942000000005],
     [19.037454800000003, 45.764966400000006]]}},
  {"type":"Feature",
   "properties":{},
   "geometry":
   {"type":"LineString",
    "coordinates":
    [[19.053184100000003, 45.7625371],
     [19.0521776, 45.762711200000005],
     [19.044052100000002, 45.7639666],
     [19.0406215, 45.764521200000004],
     [19.037630500000002, 45.764942000000005]]}},
  {"type":"Feature",
   "properties":{},
   "geometry":
   {"type":"LineString",
    "coordinates":
    [[19.0526524, 45.763121500000004],
     [19.052725300000002, 45.762812800000006],
     [19.053019000000003, 45.762669200000005],
     [19.0531001, 45.762619300000004],
     [19.053184100000003, 45.7625371]]}},
  {"type":"Feature",
   "properties":{},
   "geometry":
   {"type":"LineString",
    "coordinates":
    [[19.0893795, 45.7535052], [19.089292200000003, 45.7536725],
     [19.089205200000002, 45.7538428],
     [19.0885983, 45.753752500000004],
     [19.088174300000002, 45.753736700000005],
     [19.087818300000002, 45.7537675], [19.0874314, 45.7538179],
     [19.0864879, 45.7540497], [19.0862583, 45.754096100000005],
     [19.0851958, 45.754395300000006],
     [19.085037200000002, 45.754426300000006],
     [19.0847517, 45.7545018], [19.0841907, 45.7546873],
     [19.0793886, 45.755940700000004],
     [19.0747582, 45.757234100000005],
     [19.0736616, 45.757511400000006],
     [19.073170700000002, 45.757621500000006],
     [19.0727856, 45.7576891], [19.0725833, 45.7577257],
     [19.071879300000003, 45.7579538], [19.0693433, 45.7586406],
     [19.0688363, 45.758786300000004],
     [19.0687085, 45.758848300000004],
     [19.068489800000002, 45.758916500000005],
     [19.0681741, 45.7588986], [19.065045, 45.7597048],
     [19.062764100000003, 45.760282600000004],
     [19.0614281, 45.760653100000006],
     [19.060978000000002, 45.760783700000005], [19.060672, 45.7608325],
     [19.0603777, 45.760865800000005],
     [19.058259800000002, 45.761410000000005],
     [19.0560677, 45.7619732], [19.0537339, 45.7626095],
     [19.0530483, 45.7628749], [19.0526524, 45.763121500000004]]}},
  {"type":"Feature",
   "properties":{},
   "geometry":
   {"type":"LineString",
    "coordinates":
    [[19.0911955, 45.752619800000005], [19.0911121, 45.7526608],
     [19.0903244, 45.753048400000004], [19.090101, 45.7531564],
     [19.0893795, 45.7535052]]}},
  {"type":"Feature",
   "properties":{},
   "geometry":
   {"type":"LineString",
    "coordinates":
    [[19.0911955, 45.752619800000005], [19.0912668, 45.7526604],
     [19.091354300000003, 45.7527102],
     [19.091378000000002, 45.752723700000004],
     [19.0914143, 45.7527443], [19.092285800000003, 45.753275],
     [19.092465100000002, 45.753406600000005],
     [19.092652700000002, 45.7535614], [19.0928182, 45.7537157],
     [19.0929587, 45.753863300000006], [19.0930548, 45.7539729]]}},
  {"type":"Feature",
   "properties":{},
   "geometry":
   {"type":"LineString",
    "coordinates":
    [[19.0930548, 45.7539729], [19.0934952, 45.7544552]]}},
  {"type":"Feature",
   "properties":{},
   "geometry":
   {"type":"LineString",
    "coordinates":
    [[19.0934952, 45.7544552],
     [19.093561100000002, 45.754525300000005]]}},
  {"type":"Feature",
   "properties":{},
   "geometry":
   {"type":"LineString",
    "coordinates":
    [[19.093561100000002, 45.754525300000005],
     [19.094318700000002, 45.7553312],
     [19.0948257, 45.755839900000005], [19.0950884, 45.7560975],
     [19.0952218, 45.7562184]]}},
  {"type":"Feature",
   "properties":{},
   "geometry":
   {"type":"LineString",
    "coordinates":
    [[19.0952547, 45.7560914], [19.0952656, 45.7561218],
     [19.0952677, 45.756149300000004], [19.0952613, 45.7561857],
     [19.0952218, 45.7562184]]}},
  {"type":"Feature",
   "properties":{},
   "geometry":
   {"type":"LineString",
    "coordinates":
    [[19.0979475, 45.7587393], [19.0970814, 45.757849500000006],
     [19.0957967, 45.7566287], [19.0952547, 45.7560914]]}},
  {"type":"Feature",
   "properties":{},
   "geometry":
   {"type":"LineString",
    "coordinates":
    [[19.098215800000002, 45.7590024], [19.0979475, 45.7587393]]}},
  {"type":"Feature",
   "properties":{},
   "geometry":
   {"type":"LineString",
    "coordinates":
    [[19.0982516, 45.7590331], [19.098215800000002, 45.7590024]]}},
  {"type":"Feature",
   "properties":{},
   "geometry":
   {"type":"LineString",
    "coordinates":
    [[19.1075425, 45.7678604], [19.106968000000002, 45.7674388],
     [19.106426600000002, 45.766974000000005],
     [19.1057557, 45.7663084],
     [19.105203500000002, 45.765748200000004],
     [19.1048323, 45.7653781], [19.1042996, 45.7648583],
     [19.1034407, 45.764068900000005],
     [19.102965400000002, 45.763563500000004], [19.102765, 45.7633579],
     [19.102755600000002, 45.7632952],
     [19.1025625, 45.763110000000005], [19.1024561, 45.76306],
     [19.102164300000002, 45.7627832],
     [19.1012783, 45.761912200000005],
     [19.1003791, 45.761008800000006],
     [19.1003103, 45.760939400000005],
     [19.099155500000002, 45.759832700000004],
     [19.098568500000003, 45.7593085],
     [19.098484000000003, 45.7592292],
     [19.098421000000002, 45.759162700000005],
     [19.0983598, 45.7591076], [19.0982516, 45.7590331]]}},
  {"type":"Feature",
   "properties":{},
   "geometry":
   {"type":"LineString",
    "coordinates":
    [[19.107510400000002, 45.7679124],
     [19.107525000000003, 45.7678918], [19.1075425, 45.7678604]]}},
  {"type":"Feature",
   "properties":{},
   "geometry":
   {"type":"LineString",
    "coordinates":
    [[19.1074777, 45.768411500000006], [19.1075169, 45.768318],
     [19.107536500000002, 45.768227800000005],
     [19.1075623, 45.7680944], [19.1075607, 45.7680463],
     [19.1075477, 45.7679981], [19.107510400000002, 45.7679124]]}},
  {"type":"Feature",
   "properties":{},
   "geometry":
   {"type":"LineString",
    "coordinates":
    [[19.1068348, 45.769063300000006],
     [19.107203000000002, 45.7687031],
     [19.1074777, 45.768411500000006]]}},
  {"type":"Feature",
   "properties":{},
   "geometry":
   {"type":"LineString",
    "coordinates":
    [[19.111313300000003, 45.771659], [19.109461200000002, 45.7705148],
     [19.1093784, 45.770466500000005],
     [19.108811300000003, 45.7701499], [19.107958, 45.7696734],
     [19.1079081, 45.7696479], [19.106886600000003, 45.7690939],
     [19.1068348, 45.769063300000006]]}},
  {"type":"Feature",
   "properties":{},
   "geometry":
   {"type":"LineString",
    "coordinates":
    [[19.111313300000003, 45.771659], [19.1117777, 45.771966500000005],
     [19.1118147, 45.772010200000004],
     [19.1118147, 45.772123500000006], [19.1116448, 45.7722971],
     [19.1116612, 45.7723771], [19.111688, 45.7723979]]}},
  {"type":"Feature",
   "properties":{},
   "geometry":
   {"type":"LineString",
    "coordinates":
    [[19.111688, 45.7723979], [19.1125344, 45.772685800000005],
     [19.1131411, 45.772904200000006]]}},
  {"type":"Feature",
   "properties":{},
   "geometry":
   {"type":"LineString",
    "coordinates":
    [[19.1131411, 45.772904200000006], [19.1132862, 45.772731],
     [19.1133867, 45.772611100000006]]}},
  {"type":"Feature",
   "properties":{},
   "geometry":
   {"type":"LineString",
    "coordinates":
    [[19.1133867, 45.772611100000006],
     [19.113438000000002, 45.7726361],
     [19.113477500000002, 45.7726606], [19.1135071, 45.7726848],
     [19.113522, 45.772707600000004]]}},
  {"type":"Feature",
   "properties":{},
   "geometry":
   {"type":"LineString",
    "coordinates":
    [[19.114332, 45.773021], [19.1139321, 45.772838500000006],
     [19.113699500000003, 45.772738700000005],
     [19.1136315, 45.7727213], [19.113522, 45.772707600000004]]}},
  {"type":"Feature",
   "properties":{},
   "geometry":
   {"type":"LineString",
    "coordinates":
    [[19.1150725, 45.7733593],
     [19.114676300000003, 45.773170900000004],
     [19.114332, 45.773021]]}},
  {"type":"Feature",
   "properties":{},
   "geometry":
   {"type":"LineString",
    "coordinates":
    [[19.1150725, 45.7733593], [19.1155125, 45.772814800000006]]}},
  {"type":"Feature",
   "properties":{},
   "geometry":
   {"type":"LineString",
    "coordinates":
    [[19.1155125, 45.772814800000006],
     [19.1155617, 45.772747800000005], [19.1159769, 45.772182],
     [19.116897, 45.7710178]]}}]}
