{"type":"FeatureCollection",
 "properties":{},
 "features":
 [{"type":"Feature",
   "properties":{},
   "geometry":
   {"type":"LineString",
    "coordinates":
    [[19.8550547, 45.2543694], [19.8551231, 45.254375800000005],
     [19.855196000000003, 45.2543827], [19.8552746, 45.2543902],
     [19.8593373, 45.254778], [19.859579800000002, 45.2548018]]}},
  {"type":"Feature",
   "properties":{},
   "geometry":
   {"type":"LineString",
    "coordinates":
    [[19.8546942, 45.2542081], [19.8547136, 45.2542253],
     [19.854733, 45.254242500000004], [19.8547693, 45.254269],
     [19.8548189, 45.2542959],
     [19.854886500000003, 45.254330800000005],
     [19.854968200000002, 45.2543547], [19.8550547, 45.2543694]]}},
  {"type":"Feature",
   "properties":{},
   "geometry":
   {"type":"LineString",
    "coordinates":
    [[19.8546942, 45.2542081], [19.854657, 45.2542271],
     [19.854616500000002, 45.254246]]}},
  {"type":"Feature",
   "properties":{},
   "geometry":
   {"type":"LineString",
    "coordinates":
    [[19.854616500000002, 45.254246],
     [19.8541949, 45.254195300000006]]}},
  {"type":"Feature",
   "properties":{},
   "geometry":
   {"type":"LineString",
    "coordinates":
    [[19.8541949, 45.254195300000006],
     [19.8541564, 45.254190900000005],
     [19.8541083, 45.254184900000006]]}},
  {"type":"Feature",
   "properties":{},
   "geometry":
   {"type":"LineString",
    "coordinates":
    [[19.8541083, 45.254184900000006], [19.854095, 45.2541742],
     [19.8540648, 45.254139], [19.8538047, 45.2541158],
     [19.8531073, 45.254053600000006],
     [19.852811600000003, 45.2540272], [19.8527531, 45.2540531],
     [19.8527005, 45.2540479], [19.8526336, 45.254041400000006]]}},
  {"type":"Feature",
   "properties":{},
   "geometry":
   {"type":"LineString",
    "coordinates":
    [[19.8526336, 45.254041400000006], [19.8525859, 45.2540367],
     [19.852538300000003, 45.254032]]}},
  {"type":"Feature",
   "properties":{},
   "geometry":
   {"type":"LineString",
    "coordinates":
    [[19.852538300000003, 45.254032], [19.8524961, 45.2539864],
     [19.8524064, 45.253978700000005]]}},
  {"type":"Feature",
   "properties":{},
   "geometry":
   {"type":"LineString",
    "coordinates":
    [[19.8524128, 45.2540976], [19.8524002, 45.254044],
     [19.8524064, 45.253978700000005]]}},
  {"type":"Feature",
   "properties":{},
   "geometry":
   {"type":"LineString",
    "coordinates":
    [[19.8524432, 45.254227300000004], [19.8524284, 45.254164],
     [19.8524128, 45.2540976]]}},
  {"type":"Feature",
   "properties":{},
   "geometry":
   {"type":"LineString",
    "coordinates":
    [[19.852449500000002, 45.254330100000004],
     [19.852446500000003, 45.2542818],
     [19.8524432, 45.254227300000004]]}},
  {"type":"Feature",
   "properties":{},
   "geometry":
   {"type":"LineString",
    "coordinates":
    [[19.851998000000002, 45.254297],
     [19.852449500000002, 45.254330100000004]]}},
  {"type":"Feature",
   "properties":{},
   "geometry":
   {"type":"LineString",
    "coordinates":
    [[19.851998000000002, 45.254297], [19.851911400000002, 45.2545331],
     [19.851845400000002, 45.2546187], [19.8515842, 45.2549579],
     [19.851554, 45.2550144], [19.8515459, 45.2550296],
     [19.851475800000003, 45.255160800000006],
     [19.85144, 45.255228900000006]]}},
  {"type":"Feature",
   "properties":{},
   "geometry":
   {"type":"LineString",
    "coordinates":
    [[19.85144, 45.255228900000006], [19.8512102, 45.2553202],
     [19.8505977, 45.2551737], [19.850369800000003, 45.2554576],
     [19.850350000000002, 45.2554822], [19.850339, 45.255496],
     [19.850341, 45.255583800000004], [19.8503565, 45.255684]]}},
  {"type":"Feature",
   "properties":{},
   "geometry":
   {"type":"LineString",
    "coordinates":
    [[19.8503565, 45.255684], [19.8503906, 45.2559161],
     [19.8503925, 45.255986400000005], [19.8503463, 45.2560706],
     [19.8502806, 45.256110500000005],
     [19.850260600000002, 45.256122600000005]]}},
  {"type":"Feature",
   "properties":{},
   "geometry":
   {"type":"LineString",
    "coordinates":
    [[19.850260600000002, 45.256122600000005],
     [19.850239900000002, 45.2561314]]}},
  {"type":"Feature",
   "properties":{},
   "geometry":
   {"type":"LineString",
    "coordinates":
    [[19.850239900000002, 45.2561314],
     [19.8501938, 45.256151200000005], [19.850159, 45.256166]]}},
  {"type":"Feature",
   "properties":{},
   "geometry":
   {"type":"LineString",
    "coordinates":
    [[19.850159, 45.256166], [19.8501268, 45.256180500000006],
     [19.8501099, 45.2561869]]}},
  {"type":"Feature",
   "properties":{},
   "geometry":
   {"type":"LineString",
    "coordinates":
    [[19.8501099, 45.2561869], [19.849693000000002, 45.2563812],
     [19.849651400000003, 45.256395600000005], [19.849505, 45.2564469],
     [19.849237600000002, 45.2565303], [19.849142, 45.2565572],
     [19.8490606, 45.256579800000004],
     [19.849027500000002, 45.2565892],
     [19.849009900000002, 45.256594400000004],
     [19.8488519, 45.256638900000006],
     [19.848607700000002, 45.2567077],
     [19.848115200000002, 45.256842000000006],
     [19.847901200000003, 45.256900300000005]]}},
  {"type":"Feature",
   "properties":{},
   "geometry":
   {"type":"LineString",
    "coordinates":
    [[19.845780700000002, 45.255284], [19.8458136, 45.255304300000006],
     [19.8460956, 45.255506800000006],
     [19.846212700000002, 45.2555921], [19.8463402, 45.255685],
     [19.8465975, 45.2558725], [19.846663200000002, 45.2559224],
     [19.846689100000003, 45.2559392],
     [19.8468158, 45.256031500000006],
     [19.846893100000003, 45.2560878],
     [19.846942300000002, 45.2561237],
     [19.8470386, 45.256193800000005],
     [19.8471811, 45.256297700000005], [19.8472858, 45.2563739],
     [19.8473919, 45.2564513], [19.8474293, 45.2564785],
     [19.847683500000002, 45.256663700000004],
     [19.8478198, 45.256792700000005],
     [19.847901200000003, 45.256900300000005]]}},
  {"type":"Feature",
   "properties":{},
   "geometry":
   {"type":"LineString",
    "coordinates":
    [[19.845780700000002, 45.255284],
     [19.845684300000002, 45.255202000000004],
     [19.845680400000003, 45.2551988],
     [19.845465100000002, 45.2550157],
     [19.844960200000003, 45.254686400000004]]}},
  {"type":"Feature",
   "properties":{},
   "geometry":
   {"type":"LineString",
    "coordinates":
    [[19.8448537, 45.254760000000005],
     [19.844960200000003, 45.254686400000004]]}},
  {"type":"Feature",
   "properties":{},
   "geometry":
   {"type":"LineString",
    "coordinates":
    [[19.8448537, 45.254760000000005], [19.8448239, 45.2547416],
     [19.844696000000003, 45.254668900000006],
     [19.8442991, 45.2543992], [19.8440116, 45.2541779],
     [19.8437898, 45.253980000000006],
     [19.8438187, 45.253910600000005],
     [19.8438324, 45.253877800000005],
     [19.843863600000002, 45.253825400000004],
     [19.843922300000003, 45.2537984]]}},
  {"type":"Feature",
   "properties":{},
   "geometry":
   {"type":"LineString",
    "coordinates":
    [[19.843922300000003, 45.2537984],
     [19.8439671, 45.253661900000004]]}},
  {"type":"Feature",
   "properties":{},
   "geometry":
   {"type":"LineString",
    "coordinates":
    [[19.8439671, 45.253661900000004], [19.8438735, 45.2536605]]}},
  {"type":"Feature",
   "properties":{},
   "geometry":
   {"type":"LineString",
    "coordinates":
    [[19.8438735, 45.2536605], [19.8438254, 45.2536568]]}},
  {"type":"Feature",
   "properties":{},
   "geometry":
   {"type":"LineString",
    "coordinates":
    [[19.8438254, 45.2536568], [19.8438173, 45.2536562]]}},
  {"type":"Feature",
   "properties":{},
   "geometry":
   {"type":"LineString",
    "coordinates":
    [[19.8438173, 45.2536562], [19.8437685, 45.2536524]]}},
  {"type":"Feature",
   "properties":{},
   "geometry":
   {"type":"LineString",
    "coordinates":
    [[19.8437685, 45.2536524], [19.8437318, 45.2536496],
     [19.8436978, 45.2536124]]}},
  {"type":"Feature",
   "properties":{},
   "geometry":
   {"type":"LineString",
    "coordinates":
    [[19.8436978, 45.2536124], [19.843627, 45.253644400000006],
     [19.843363200000002, 45.253574], [19.843263800000003, 45.2535474],
     [19.8432242, 45.2535369], [19.843207, 45.253518],
     [19.843176, 45.2535139]]}},
  {"type":"Feature",
   "properties":{},
   "geometry":
   {"type":"LineString",
    "coordinates":
    [[19.843123900000002, 45.253507000000006],
     [19.843176, 45.2535139]]}},
  {"type":"Feature",
   "properties":{},
   "geometry":
   {"type":"LineString",
    "coordinates":
    [[19.8431111, 45.2535053],
     [19.843123900000002, 45.253507000000006]]}},
  {"type":"Feature",
   "properties":{},
   "geometry":
   {"type":"LineString",
    "coordinates":
    [[19.843059500000003, 45.253498400000005],
     [19.8431111, 45.2535053]]}},
  {"type":"Feature",
   "properties":{},
   "geometry":
   {"type":"LineString",
    "coordinates":
    [[19.843059500000003, 45.253498400000005],
     [19.8429721, 45.2534847]]}},
  {"type":"Feature",
   "properties":{},
   "geometry":
   {"type":"LineString",
    "coordinates":
    [[19.8429721, 45.2534847], [19.8429915, 45.253339700000005],
     [19.8430228, 45.253144000000006]]}},
  {"type":"Feature",
   "properties":{},
   "geometry":
   {"type":"LineString",
    "coordinates":
    [[19.8427201, 45.252659900000005],
     [19.8427574, 45.252725500000004],
     [19.842952800000003, 45.2530336],
     [19.8430228, 45.253144000000006]]}},
  {"type":"Feature",
   "properties":{},
   "geometry":
   {"type":"LineString",
    "coordinates":
    [[19.842710500000003, 45.252642200000004],
     [19.8427201, 45.252659900000005]]}},
  {"type":"Feature",
   "properties":{},
   "geometry":
   {"type":"LineString",
    "coordinates":
    [[19.8426686, 45.2525692],
     [19.842692500000002, 45.252611200000004],
     [19.842710500000003, 45.252642200000004]]}},
  {"type":"Feature",
   "properties":{},
   "geometry":
   {"type":"LineString",
    "coordinates":
    [[19.8426604, 45.252554700000005], [19.8426686, 45.2525692]]}},
  {"type":"Feature",
   "properties":{},
   "geometry":
   {"type":"LineString",
    "coordinates":
    [[19.8422018, 45.2519518], [19.8422705, 45.251938],
     [19.842318300000002, 45.2520376], [19.8424546, 45.2522381],
     [19.8425374, 45.2523655], [19.842596200000003, 45.2524559],
     [19.8426604, 45.252554700000005]]}},
  {"type":"Feature",
   "properties":{},
   "geometry":
   {"type":"LineString",
    "coordinates":
    [[19.8422018, 45.2519518], [19.842040400000002, 45.2514878],
     [19.8420256, 45.2514545],
     [19.842014600000002, 45.251435900000004],
     [19.841842, 45.251089400000005], [19.8414354, 45.2504173],
     [19.841399000000003, 45.2503964],
     [19.840939900000002, 45.2497478],
     [19.840927500000003, 45.249729900000006]]}},
  {"type":"Feature",
   "properties":{},
   "geometry":
   {"type":"LineString",
    "coordinates":
    [[19.840927500000003, 45.249729900000006],
     [19.8409188, 45.249694600000005],
     [19.8409102, 45.249660500000005]]}},
  {"type":"Feature",
   "properties":{},
   "geometry":
   {"type":"LineString",
    "coordinates":
    [[19.8409102, 45.249660500000005],
     [19.8399015, 45.248285700000004]]}},
  {"type":"Feature",
   "properties":{},
   "geometry":
   {"type":"LineString",
    "coordinates":
    [[19.8399015, 45.248285700000004],
     [19.839418000000002, 45.248171600000006],
     [19.839443600000003, 45.2481396]]}},
  {"type":"Feature",
   "properties":{},
   "geometry":
   {"type":"LineString",
    "coordinates":
    [[19.839443600000003, 45.2481396], [19.8394796, 45.2480721],
     [19.8395344, 45.2479614], [19.8395608, 45.247908200000005]]}},
  {"type":"Feature",
   "properties":{},
   "geometry":
   {"type":"LineString",
    "coordinates":
    [[19.8395608, 45.247908200000005],
     [19.8395738, 45.247886900000005],
     [19.839606800000002, 45.247821800000004],
     [19.839673100000002, 45.247790800000004],
     [19.8399891, 45.247213200000004],
     [19.8400833, 45.247041200000005],
     [19.8402236, 45.246772500000006],
     [19.8402725, 45.246678700000004]]}},
  {"type":"Feature",
   "properties":{},
   "geometry":
   {"type":"LineString",
    "coordinates":
    [[19.8402725, 45.246678700000004],
     [19.840295100000002, 45.246641200000006],
     [19.840317000000002, 45.246605]]}},
  {"type":"Feature",
   "properties":{},
   "geometry":
   {"type":"LineString",
    "coordinates":
    [[19.8410997, 45.2452002], [19.8404306, 45.2463758],
     [19.840361700000003, 45.246502400000004],
     [19.840317000000002, 45.246605]]}},
  {"type":"Feature",
   "properties":{},
   "geometry":
   {"type":"LineString",
    "coordinates":
    [[19.8410997, 45.2452002], [19.8411183, 45.2451676],
     [19.841164900000003, 45.245087500000004],
     [19.841198600000002, 45.245043]]}},
  {"type":"Feature",
   "properties":{},
   "geometry":
   {"type":"LineString",
    "coordinates":
    [[19.841198600000002, 45.245043], [19.841328, 45.244812100000004],
     [19.841446100000002, 45.2445825], [19.8414821, 45.2445158],
     [19.8415302, 45.244426600000004],
     [19.841537900000002, 45.2444122],
     [19.8415909, 45.244317900000006], [19.841673500000002, 45.244159],
     [19.8417034, 45.244088700000006],
     [19.8417275, 45.244043500000004]]}},
  {"type":"Feature",
   "properties":{},
   "geometry":
   {"type":"LineString",
    "coordinates":
    [[19.8417275, 45.244043500000004],
     [19.8417762, 45.243950600000005], [19.8418227, 45.2438561],
     [19.8418591, 45.2437886], [19.8419081, 45.2437455]]}},
  {"type":"Feature",
   "properties":{},
   "geometry":
   {"type":"LineString",
    "coordinates":
    [[19.841802, 45.2437083], [19.8419081, 45.2437455]]}},
  {"type":"Feature",
   "properties":{},
   "geometry":
   {"type":"LineString",
    "coordinates":
    [[19.8413915, 45.243603400000005],
     [19.841527600000003, 45.2436371], [19.8416789, 45.2436768],
     [19.841802, 45.2437083]]}},
  {"type":"Feature",
   "properties":{},
   "geometry":
   {"type":"LineString",
    "coordinates":
    [[19.839728100000002, 45.2431938], [19.8398113, 45.2432133],
     [19.840439200000002, 45.2433811],
     [19.840897400000003, 45.2434913],
     [19.841300800000003, 45.243581500000005],
     [19.8413915, 45.243603400000005]]}},
  {"type":"Feature",
   "properties":{},
   "geometry":
   {"type":"LineString",
    "coordinates":
    [[19.8365599, 45.2423921], [19.8366888, 45.242424],
     [19.8367982, 45.242451200000005],
     [19.8368645, 45.242465900000006],
     [19.836947600000002, 45.2424844],
     [19.8370167, 45.242497400000005], [19.8382727, 45.2428201],
     [19.8383983, 45.2428527], [19.8385012, 45.2428794],
     [19.838880800000002, 45.2429781], [19.83914, 45.243045200000005],
     [19.839237100000002, 45.24307],
     [19.839346900000002, 45.243099400000006],
     [19.839556700000003, 45.2431518], [19.8396724, 45.2431812],
     [19.839728100000002, 45.2431938]]}},
  {"type":"Feature",
   "properties":{},
   "geometry":
   {"type":"LineString",
    "coordinates":
    [[19.8314543, 45.241262600000006],
     [19.8315211, 45.241287500000006],
     [19.832016600000003, 45.2413991],
     [19.8324484, 45.241494800000005],
     [19.833113400000002, 45.2416421],
     [19.8333154, 45.241686900000005], [19.833796, 45.241793400000006],
     [19.833841200000002, 45.2418039], [19.833893800000002, 45.241816],
     [19.834613400000002, 45.2419674],
     [19.834978900000003, 45.2420507], [19.8350617, 45.2420696],
     [19.8359108, 45.242263200000004], [19.8363507, 45.2423639],
     [19.8364106, 45.242373400000005], [19.8365599, 45.2423921]]}},
  {"type":"Feature",
   "properties":{},
   "geometry":
   {"type":"LineString",
    "coordinates":
    [[19.8314543, 45.241262600000006],
     [19.8313764, 45.241244800000004]]}},
  {"type":"Feature",
   "properties":{},
   "geometry":
   {"type":"LineString",
    "coordinates":
    [[19.8313764, 45.241244800000004], [19.8313157, 45.2412289],
     [19.831232800000002, 45.241207300000006],
     [19.8311096, 45.2411751],
     [19.831058300000002, 45.241161700000006],
     [19.831031000000003, 45.2411546]]}},
  {"type":"Feature",
   "properties":{},
   "geometry":
   {"type":"LineString",
    "coordinates":
    [[19.831031000000003, 45.2411546],
     [19.8310001, 45.241138500000005]]}},
  {"type":"Feature",
   "properties":{},
   "geometry":
   {"type":"LineString",
    "coordinates":
    [[19.8310001, 45.241138500000005], [19.8309506, 45.2411447],
     [19.830869500000002, 45.2411424], [19.8302787, 45.2409787],
     [19.830254200000002, 45.240972500000005],
     [19.8295809, 45.2408048], [19.8294667, 45.240774800000004],
     [19.829225100000002, 45.2407058], [19.8277787, 45.240327],
     [19.8276988, 45.2403053], [19.8275572, 45.2402663]]}},
  {"type":"Feature",
   "properties":{},
   "geometry":
   {"type":"LineString",
    "coordinates":
    [[19.8275572, 45.2402663], [19.8275077, 45.2402536],
     [19.827415300000002, 45.2402287],
     [19.8271267, 45.240154600000004], [19.826483, 45.239997100000004],
     [19.8258072, 45.2398181], [19.825672, 45.239775400000006],
     [19.8256182, 45.239751000000005],
     [19.825579100000002, 45.239707200000005]]}},
  {"type":"Feature",
   "properties":{},
   "geometry":
   {"type":"LineString",
    "coordinates":
    [[19.825274500000003, 45.239642700000005],
     [19.825328600000002, 45.2396541],
     [19.8254901, 45.239688400000006],
     [19.825579100000002, 45.239707200000005]]}},
  {"type":"Feature",
   "properties":{},
   "geometry":
   {"type":"LineString",
    "coordinates":
    [[19.825274500000003, 45.239642700000005],
     [19.8252226, 45.239631800000005],
     [19.8251712, 45.239626900000005]]}},
  {"type":"Feature",
   "properties":{},
   "geometry":
   {"type":"LineString",
    "coordinates":
    [[19.8251712, 45.239626900000005],
     [19.825119700000002, 45.2396152], [19.8250877, 45.2396079],
     [19.824782900000002, 45.239535800000006],
     [19.8243496, 45.239451300000006],
     [19.823949000000002, 45.2394053], [19.8235543, 45.2393754],
     [19.823266800000003, 45.2393726],
     [19.823224200000002, 45.2393717], [19.8230836, 45.2393644],
     [19.822889500000002, 45.2393312],
     [19.822612000000003, 45.2392698],
     [19.8224212, 45.239238900000004],
     [19.8220435, 45.239159400000005],
     [19.821928500000002, 45.2391348],
     [19.8207257, 45.238928200000004], [19.8194531, 45.2387316],
     [19.8187944, 45.238587800000005], [19.817993400000002, 45.238415],
     [19.817928600000002, 45.238401], [19.8169161, 45.2381839],
     [19.8168684, 45.2382257],
     [19.816837500000002, 45.238285700000006],
     [19.8167645, 45.238279600000006],
     [19.8166976, 45.238272800000004],
     [19.8167218, 45.238179200000005],
     [19.816734800000003, 45.238027900000006],
     [19.8167219, 45.2380064], [19.816695300000003, 45.2379927],
     [19.8162458, 45.237907500000006],
     [19.816077500000002, 45.2378372],
     [19.8156989, 45.237768700000004], [19.8153213, 45.2376911],
     [19.8140599, 45.2378173], [19.813846400000003, 45.2378341],
     [19.8135453, 45.2378617], [19.813151400000002, 45.2378954],
     [19.8125274, 45.2379623], [19.8119078, 45.238033],
     [19.8114102, 45.238087], [19.810970400000002, 45.2381347],
     [19.8107925, 45.2381523], [19.810702300000003, 45.2381583]]}},
  {"type":"Feature",
   "properties":{},
   "geometry":
   {"type":"LineString",
    "coordinates":
    [[19.8106806, 45.2380603], [19.8106931, 45.238113600000005],
     [19.810702300000003, 45.2381583]]}},
  {"type":"Feature",
   "properties":{},
   "geometry":
   {"type":"LineString",
    "coordinates":
    [[19.806572000000003, 45.238450500000006],
     [19.806709100000003, 45.2384372],
     [19.808730500000003, 45.238239300000004],
     [19.808781200000002, 45.2382367], [19.8088243, 45.2382325],
     [19.8090915, 45.238207200000005], [19.8091447, 45.2382022],
     [19.8092142, 45.2381961], [19.8092806, 45.238190200000005],
     [19.810451, 45.2380816], [19.8105695, 45.2380706],
     [19.8106806, 45.2380603]]}},
  {"type":"Feature",
   "properties":{},
   "geometry":
   {"type":"LineString",
    "coordinates":
    [[19.8065834, 45.238510600000005],
     [19.806572000000003, 45.238450500000006]]}},
  {"type":"Feature",
   "properties":{},
   "geometry":
   {"type":"LineString",
    "coordinates":
    [[19.806106800000002, 45.238556300000006],
     [19.806160300000002, 45.2385512],
     [19.8065834, 45.238510600000005]]}},
  {"type":"Feature",
   "properties":{},
   "geometry":
   {"type":"LineString",
    "coordinates":
    [[19.800326400000003, 45.2391157], [19.8003553, 45.239113],
     [19.8003869, 45.239110000000004],
     [19.800406900000002, 45.2391081], [19.8014055, 45.2390143],
     [19.8023944, 45.2389194], [19.8024367, 45.2389165],
     [19.8037473, 45.238785500000006], [19.8040999, 45.2387506],
     [19.804718100000002, 45.2386895],
     [19.804870700000002, 45.2386749],
     [19.806106800000002, 45.238556300000006]]}},
  {"type":"Feature",
   "properties":{},
   "geometry":
   {"type":"LineString",
    "coordinates":
    [[19.800326400000003, 45.2391157],
     [19.8003138, 45.239049400000006], [19.8003113, 45.2390361],
     [19.800303, 45.238972700000005], [19.8002918, 45.2388617]]}},
  {"type":"Feature",
   "properties":{},
   "geometry":
   {"type":"LineString",
    "coordinates":
    [[19.8002918, 45.2388617],
     [19.800287100000002, 45.238815800000005],
     [19.8002433, 45.238449300000006]]}},
  {"type":"Feature",
   "properties":{},
   "geometry":
   {"type":"LineString",
    "coordinates":
    [[19.8002433, 45.238449300000006], [19.8002362, 45.2384068],
     [19.8002118, 45.2383084], [19.8001742, 45.238254500000004],
     [19.800116600000003, 45.2381818], [19.8000495, 45.2381101],
     [19.7986939, 45.236880400000004], [19.798537, 45.236744200000004],
     [19.797622500000003, 45.235950200000005]]}},
  {"type":"Feature",
   "properties":{},
   "geometry":
   {"type":"LineString",
    "coordinates":
    [[19.797622500000003, 45.235950200000005],
     [19.797119300000002, 45.2355133], [19.7969939, 45.2354177],
     [19.796916900000003, 45.235359100000004], [19.7968286, 45.235287],
     [19.7967403, 45.235215000000004], [19.7965984, 45.2350879],
     [19.7964762, 45.2349511], [19.7964078, 45.234865600000006]]}},
  {"type":"Feature",
   "properties":{},
   "geometry":
   {"type":"LineString",
    "coordinates":
    [[19.7964078, 45.234865600000006],
     [19.7962898, 45.234736000000005],
     [19.796081700000002, 45.2345453],
     [19.795993300000003, 45.2344926],
     [19.795583200000003, 45.2343411],
     [19.795040200000003, 45.2341792],
     [19.794989400000002, 45.2341641], [19.794571, 45.2340486],
     [19.7942259, 45.233971000000004],
     [19.7934386, 45.233836100000005], [19.7932792, 45.2338164],
     [19.792595600000002, 45.2337319], [19.7923793, 45.2337021],
     [19.7918118, 45.2336304], [19.790225900000003, 45.2334429],
     [19.7891158, 45.233308300000004],
     [19.787998400000003, 45.233160600000005],
     [19.7879277, 45.233152200000006]]}},
  {"type":"Feature",
   "properties":{},
   "geometry":
   {"type":"LineString",
    "coordinates":
    [[19.7879277, 45.233152200000006],
     [19.7875924, 45.233112600000005], [19.787351, 45.233084100000006],
     [19.7872601, 45.2330733]]}},
  {"type":"Feature",
   "properties":{},
   "geometry":
   {"type":"LineString",
    "coordinates":
    [[19.7872601, 45.2330733], [19.7871981, 45.233065800000006],
     [19.7871361, 45.2330582], [19.7870284, 45.233045100000005]]}},
  {"type":"Feature",
   "properties":{},
   "geometry":
   {"type":"LineString",
    "coordinates":
    [[19.7870284, 45.233045100000005], [19.7846228, 45.2327528]]}},
  {"type":"Feature",
   "properties":{},
   "geometry":
   {"type":"LineString",
    "coordinates":
    [[19.7846228, 45.2327528], [19.7816985, 45.2324439],
     [19.780627000000003, 45.2323109],
     [19.780264600000002, 45.2322659]]}},
  {"type":"Feature",
   "properties":{},
   "geometry":
   {"type":"LineString",
    "coordinates":
    [[19.780264600000002, 45.2322659],
     [19.780152400000002, 45.2322685], [19.7800675, 45.232244],
     [19.7758755, 45.229334], [19.7758179, 45.229294],
     [19.7757781, 45.2292774], [19.7757164, 45.2292718],
     [19.775307700000003, 45.2292453],
     [19.7752272, 45.229227800000004]]}},
  {"type":"Feature",
   "properties":{},
   "geometry":
   {"type":"LineString",
    "coordinates":
    [[19.7752272, 45.229227800000004],
     [19.774910900000002, 45.2292422], [19.7742024, 45.2292834],
     [19.7735001, 45.229358100000006], [19.7730934, 45.2294041],
     [19.7720086, 45.229532500000005], [19.770873, 45.229686400000006],
     [19.7689227, 45.229985000000006], [19.7687154, 45.2300193],
     [19.7676848, 45.2301884],
     [19.765067600000002, 45.230601400000005],
     [19.7641189, 45.2307423],
     [19.764078700000002, 45.230751000000005],
     [19.7640001, 45.230768000000005], [19.7625533, 45.2309739],
     [19.7582485, 45.231653200000004], [19.7571878, 45.2318184],
     [19.7561542, 45.231964600000005],
     [19.7550046, 45.232152400000004],
     [19.7510093, 45.232779900000004],
     [19.750855100000003, 45.2328247], [19.7506452, 45.2328592],
     [19.7504843, 45.2328634],
     [19.746538100000002, 45.233477400000005],
     [19.7460258, 45.233557100000006],
     [19.745876900000003, 45.233604400000004],
     [19.7456262, 45.2336327], [19.745524200000002, 45.2336308],
     [19.742314, 45.2341345], [19.742152700000002, 45.2341266]]}},
  {"type":"Feature",
   "properties":{},
   "geometry":
   {"type":"LineString",
    "coordinates":
    [[19.7408545, 45.234304200000004], [19.7415461, 45.2342055],
     [19.742152700000002, 45.2341266]]}},
  {"type":"Feature",
   "properties":{},
   "geometry":
   {"type":"LineString",
    "coordinates":
    [[19.739504, 45.234479], [19.7402899, 45.2343843],
     [19.7408545, 45.234304200000004]]}},
  {"type":"Feature",
   "properties":{},
   "geometry":
   {"type":"LineString",
    "coordinates":
    [[19.6944713, 45.232976300000004], [19.6947172, 45.2328558],
     [19.694916900000003, 45.2328428],
     [19.6953608, 45.232839600000005], [19.6965144, 45.2328118],
     [19.6972309, 45.2328035],
     [19.697681600000003, 45.232854800000005],
     [19.6979253, 45.232933900000006], [19.698145, 45.2330422],
     [19.6986029, 45.233246900000005], [19.7000862, 45.2338521],
     [19.700590400000003, 45.2340269],
     [19.701257000000002, 45.234114500000004], [19.7014859, 45.234167],
     [19.7016768, 45.2341623],
     [19.702080900000002, 45.234245900000005],
     [19.702300100000002, 45.234292800000006],
     [19.7036205, 45.2345831],
     [19.704590200000002, 45.234901900000004],
     [19.7054607, 45.235116700000006],
     [19.705893200000002, 45.2351831],
     [19.706885800000002, 45.2352495],
     [19.707084700000003, 45.2352392], [19.7073959, 45.2352026],
     [19.707861700000002, 45.2352417],
     [19.708132600000003, 45.235231500000005],
     [19.708771000000002, 45.235299100000006],
     [19.709266900000003, 45.2353206],
     [19.710053000000002, 45.235463200000005],
     [19.7110996, 45.235514200000004], [19.7114613, 45.235453],
     [19.711789200000002, 45.2352493],
     [19.7118872, 45.235181100000005],
     [19.7122205, 45.235334800000004],
     [19.7126194, 45.235305600000004], [19.7133977, 45.235208],
     [19.714494600000002, 45.2351163], [19.7149988, 45.2351807],
     [19.7154032, 45.2351827],
     [19.716159400000002, 45.235130000000005],
     [19.7164502, 45.2350695], [19.716915500000002, 45.2351046],
     [19.7178712, 45.2350227], [19.718323, 45.2349892],
     [19.718688200000003, 45.2349204], [19.7209615, 45.2349388],
     [19.7232504, 45.2350403], [19.723618600000002, 45.2350435],
     [19.7241915, 45.235048500000005],
     [19.7261324, 45.235099700000006],
     [19.726512500000002, 45.235136700000005], [19.726911, 45.2351448],
     [19.727346, 45.2351036], [19.7279833, 45.2350238],
     [19.728836, 45.234917100000004], [19.7291782, 45.2348742],
     [19.729527, 45.234865000000006], [19.7308048, 45.234684200000004],
     [19.731482800000002, 45.2346342],
     [19.7327352, 45.234539100000006],
     [19.733044500000002, 45.2344772], [19.7331714, 45.2344224],
     [19.7333284, 45.2343491], [19.733546200000003, 45.2343844],
     [19.733737700000002, 45.234431300000004],
     [19.7340999, 45.234463600000005],
     [19.7349533, 45.234434300000004],
     [19.736024800000003, 45.2344171], [19.7367266, 45.2343911],
     [19.7374708, 45.2343927], [19.738126700000002, 45.2343782],
     [19.7384364, 45.234328700000006],
     [19.738770000000002, 45.2343345], [19.739096, 45.234351800000006],
     [19.739353400000002, 45.234413200000006],
     [19.739504, 45.234479]]}},
  {"type":"Feature",
   "properties":{},
   "geometry":
   {"type":"LineString",
    "coordinates":
    [[19.635734300000003, 45.233051800000005],
     [19.636072600000002, 45.2332331],
     [19.637126000000002, 45.2340662],
     [19.639311900000003, 45.2354587],
     [19.641107700000003, 45.236418500000006],
     [19.6434459, 45.237419300000006],
     [19.645108200000003, 45.238048000000006],
     [19.646534600000003, 45.238633300000004], [19.648197, 45.2391535],
     [19.649664400000002, 45.2395148], [19.6509573, 45.2397749],
     [19.651767600000003, 45.2398967],
     [19.652742800000002, 45.240042300000006],
     [19.6554827, 45.240425200000004],
     [19.6562346, 45.240462900000004], [19.6582426, 45.2404298],
     [19.6609892, 45.240347500000006], [19.6620482, 45.2402955],
     [19.6651989, 45.2399858],
     [19.666464700000002, 45.239856200000006],
     [19.6682215, 45.2396655], [19.669426400000003, 45.2395209],
     [19.670048700000002, 45.2393635],
     [19.671396100000003, 45.2391529], [19.6729704, 45.2388576],
     [19.674571200000003, 45.2385974],
     [19.676777400000002, 45.238272300000006],
     [19.678203800000002, 45.238033800000004], [19.678728, 45.2379405],
     [19.679024700000003, 45.237846000000005],
     [19.679312, 45.237723100000004], [19.681456700000002, 45.2370583],
     [19.682175, 45.2368849], [19.684483800000002, 45.236458600000006],
     [19.685109800000003, 45.2362996], [19.685787, 45.2360288],
     [19.686303300000002, 45.235808600000006],
     [19.6867008, 45.235680300000006], [19.6869881, 45.235627],
     [19.687263, 45.235602500000006], [19.6878777, 45.235573800000004],
     [19.6883771, 45.2355527], [19.688758, 45.2355357],
     [19.6891603, 45.235511100000004],
     [19.689575700000002, 45.2354008], [19.6898845, 45.2352524],
     [19.693276100000002, 45.233322900000005],
     [19.6935532, 45.2331638], [19.693787800000003, 45.233049],
     [19.6939762, 45.2330046], [19.69421, 45.2329822],
     [19.6944713, 45.232976300000004]]}},
  {"type":"Feature",
   "properties":{},
   "geometry":
   {"type":"LineString",
    "coordinates":
    [[19.623153900000002, 45.2257588], [19.6233054, 45.2257632],
     [19.6234703, 45.225786400000004],
     [19.624139200000002, 45.2259218], [19.6248565, 45.2260441],
     [19.6251319, 45.2261061], [19.6254968, 45.2262174],
     [19.6278808, 45.2269718], [19.6285966, 45.2274284],
     [19.6312001, 45.229709], [19.632788700000003, 45.2308802],
     [19.635734300000003, 45.233051800000005]]}},
  {"type":"Feature",
   "properties":{},
   "geometry":
   {"type":"LineString",
    "coordinates":
    [[19.6229963, 45.225635600000004], [19.6230796, 45.2256921],
     [19.623153900000002, 45.2257588]]}},
  {"type":"Feature",
   "properties":{},
   "geometry":
   {"type":"LineString",
    "coordinates":
    [[19.605128, 45.2246231], [19.6052381, 45.2244765],
     [19.605339, 45.2243754], [19.6054405, 45.224333],
     [19.605798200000002, 45.2243068], [19.6064626, 45.2243471],
     [19.6071308, 45.224377800000006],
     [19.607384500000002, 45.2243894],
     [19.6084868, 45.224445900000006],
     [19.608991800000002, 45.224452500000005],
     [19.6096371, 45.2243465], [19.6102549, 45.2242436],
     [19.6110072, 45.2241182],
     [19.612245700000003, 45.223911900000004],
     [19.6126514, 45.223845600000004], [19.6129061, 45.2238039],
     [19.6130022, 45.2237882], [19.6137094, 45.2237321],
     [19.614539500000003, 45.2237401],
     [19.6148533, 45.223748900000004], [19.6151695, 45.2237578],
     [19.6164931, 45.223955700000005],
     [19.6181716, 45.224418400000005], [19.6191901, 45.2246384],
     [19.6194098, 45.224685900000004], [19.622356, 45.225363400000006],
     [19.622837200000003, 45.2255611],
     [19.6229963, 45.225635600000004]]}},
  {"type":"Feature",
   "properties":{},
   "geometry":
   {"type":"LineString",
    "coordinates":
    [[19.5613289, 45.240829700000006],
     [19.561447100000002, 45.240692300000006],
     [19.5624745, 45.239740600000005],
     [19.564402700000002, 45.2379995], [19.5667996, 45.2358278],
     [19.567655300000002, 45.2350745], [19.5681756, 45.2346164],
     [19.569285400000002, 45.2335871],
     [19.5695711, 45.233232900000004], [19.5714048, 45.2308904],
     [19.5728309, 45.2290403], [19.5732003, 45.228561000000006],
     [19.573297200000003, 45.228453300000005],
     [19.5737911, 45.2279039], [19.5738515, 45.227836700000005],
     [19.5742371, 45.2275889], [19.582117800000002, 45.2241634],
     [19.582869000000002, 45.223843900000006],
     [19.5834577, 45.223831600000004], [19.5844861, 45.2239791],
     [19.5867706, 45.2243069],
     [19.588530900000002, 45.224559400000004],
     [19.595681300000003, 45.225563900000004],
     [19.5974301, 45.2258283],
     [19.597800200000002, 45.225903900000006],
     [19.5980309, 45.226005900000004],
     [19.600137800000002, 45.227025100000006],
     [19.602508800000003, 45.2281585],
     [19.6028294, 45.228287900000005],
     [19.603069400000003, 45.2283455],
     [19.603340300000003, 45.228372900000004],
     [19.6046519, 45.2284239], [19.6052608, 45.2284409],
     [19.6054472, 45.228436200000004],
     [19.6055759, 45.228429600000005],
     [19.6056792, 45.228304900000005], [19.6057677, 45.2281009],
     [19.6058911, 45.227725], [19.6058965, 45.2275058],
     [19.6058509, 45.2273207], [19.6054432, 45.2258227],
     [19.605181700000003, 45.224903600000005],
     [19.605128, 45.2246231]]}},
  {"type":"Feature",
   "properties":{},
   "geometry":
   {"type":"LineString",
    "coordinates":
    [[19.5613289, 45.240829700000006],
     [19.5606595, 45.241631600000005], [19.5588157, 45.2439039],
     [19.5575824, 45.245454], [19.556946200000002, 45.246175300000004],
     [19.5540354, 45.249779200000006],
     [19.552349900000003, 45.2517979], [19.5520329, 45.2520954],
     [19.5516697, 45.252280600000006],
     [19.5487769, 45.253592600000005],
     [19.546296100000003, 45.254719800000004],
     [19.545307400000002, 45.2551493],
     [19.5452118, 45.255173600000006], [19.5451336, 45.2551934],
     [19.5433923, 45.255441000000005],
     [19.5374999, 45.256287500000006], [19.5359479, 45.2564872],
     [19.535636, 45.2565273], [19.5346531, 45.256560500000006],
     [19.5321687, 45.2565414], [19.531397300000002, 45.2565734]]}},
  {"type":"Feature",
   "properties":{},
   "geometry":
   {"type":"LineString",
    "coordinates":
    [[19.531397300000002, 45.2565734],
     [19.5246751, 45.256501400000005]]}},
  {"type":"Feature",
   "properties":{},
   "geometry":
   {"type":"LineString",
    "coordinates":
    [[19.5246751, 45.256501400000005],
     [19.524451000000003, 45.256486800000005],
     [19.5230332, 45.256394300000004],
     [19.517286000000002, 45.2561119], [19.5140371, 45.2562651],
     [19.5101625, 45.256529400000005],
     [19.5082834, 45.256607300000006],
     [19.5080321, 45.256586500000004],
     [19.507566200000003, 45.256590200000005],
     [19.507249100000003, 45.256677800000006],
     [19.5070635, 45.256885600000004],
     [19.506441600000002, 45.2577057]]}},
  {"type":"Feature",
   "properties":{},
   "geometry":
   {"type":"LineString",
    "coordinates":
    [[19.506441600000002, 45.2577057], [19.5057549, 45.2585658]]}},
  {"type":"Feature",
   "properties":{},
   "geometry":
   {"type":"LineString",
    "coordinates":
    [[19.5057549, 45.2585658], [19.5055604, 45.258479900000005],
     [19.505428600000002, 45.2584261],
     [19.505381500000002, 45.2584068]]}},
  {"type":"Feature",
   "properties":{},
   "geometry":
   {"type":"LineString",
    "coordinates":
    [[19.505381500000002, 45.2584068], [19.5053096, 45.2583774]]}},
  {"type":"Feature",
   "properties":{},
   "geometry":
   {"type":"LineString",
    "coordinates":
    [[19.5053096, 45.2583774], [19.5050199, 45.258275100000006],
     [19.5047289, 45.2581835], [19.5044553, 45.258097600000006]]}},
  {"type":"Feature",
   "properties":{},
   "geometry":
   {"type":"LineString",
    "coordinates":
    [[19.5044553, 45.258097600000006],
     [19.504020500000003, 45.257960700000005],
     [19.5039932, 45.2579523], [19.5036102, 45.257834100000004],
     [19.503512500000003, 45.2578046]]}},
  {"type":"Feature",
   "properties":{},
   "geometry":
   {"type":"LineString",
    "coordinates":
    [[19.503512500000003, 45.2578046],
     [19.503330400000003, 45.2577495], [19.5026435, 45.2575416]]}},
  {"type":"Feature",
   "properties":{},
   "geometry":
   {"type":"LineString",
    "coordinates":
    [[19.5026435, 45.2575416], [19.5021178, 45.2573584],
     [19.501855600000003, 45.2572642],
     [19.5015474, 45.257153800000005]]}},
  {"type":"Feature",
   "properties":{},
   "geometry":
   {"type":"LineString",
    "coordinates":
    [[19.5015474, 45.257153800000005],
     [19.5014654, 45.257124700000006],
     [19.501422100000003, 45.2571093], [19.5010915, 45.2569882],
     [19.501076700000002, 45.2569828],
     [19.500560800000002, 45.256793900000005],
     [19.4999103, 45.2565565], [19.4994584, 45.2564153],
     [19.499192800000003, 45.2563417],
     [19.4988227, 45.256257700000006],
     [19.4980945, 45.256127400000004], [19.4972804, 45.2559867],
     [19.496528100000003, 45.255848900000004],
     [19.495946, 45.255741300000004],
     [19.495334500000002, 45.255620400000005],
     [19.494511000000003, 45.2554401],
     [19.4942771, 45.255387600000006], [19.4936863, 45.2552551],
     [19.4927689, 45.2550323], [19.491650500000002, 45.2547566],
     [19.491040400000003, 45.2546015],
     [19.490666700000002, 45.254520500000005]]}},
  {"type":"Feature",
   "properties":{},
   "geometry":
   {"type":"LineString",
    "coordinates":
    [[19.490666700000002, 45.254520500000005],
     [19.490654000000003, 45.2545182], [19.4903187, 45.2544564],
     [19.489897600000003, 45.2544051],
     [19.489760800000003, 45.2543884]]}},
  {"type":"Feature",
   "properties":{},
   "geometry":
   {"type":"LineString",
    "coordinates":
    [[19.489760800000003, 45.2543884], [19.489326300000002, 45.254345],
     [19.4885489, 45.2542826]]}},
  {"type":"Feature",
   "properties":{},
   "geometry":
   {"type":"LineString",
    "coordinates":
    [[19.4885489, 45.2542826], [19.4884305, 45.254276100000006],
     [19.487973200000003, 45.2542477], [19.4871671, 45.2542071]]}},
  {"type":"Feature",
   "properties":{},
   "geometry":
   {"type":"LineString",
    "coordinates":
    [[19.4871671, 45.2542071], [19.4863727, 45.254161700000004],
     [19.4860997, 45.254145300000005],
     [19.485730800000002, 45.2541231]]}},
  {"type":"Feature",
   "properties":{},
   "geometry":
   {"type":"LineString",
    "coordinates":
    [[19.485730800000002, 45.2541231], [19.4853567, 45.2540976],
     [19.4847866, 45.2540501]]}},
  {"type":"Feature",
   "properties":{},
   "geometry":
   {"type":"LineString",
    "coordinates":
    [[19.4847866, 45.2540501], [19.484768000000003, 45.2540483],
     [19.4837795, 45.2539541], [19.482192, 45.2538075]]}},
  {"type":"Feature",
   "properties":{},
   "geometry":
   {"type":"LineString",
    "coordinates":
    [[19.482192, 45.2538075], [19.4817439, 45.253764600000004],
     [19.4806309, 45.253655900000005]]}},
  {"type":"Feature",
   "properties":{},
   "geometry":
   {"type":"LineString",
    "coordinates":
    [[19.4806309, 45.253655900000005], [19.4804293, 45.2536341]]}},
  {"type":"Feature",
   "properties":{},
   "geometry":
   {"type":"LineString",
    "coordinates":
    [[19.4804293, 45.2536341], [19.480105100000003, 45.25359]]}},
  {"type":"Feature",
   "properties":{},
   "geometry":
   {"type":"LineString",
    "coordinates":
    [[19.480105100000003, 45.25359], [19.4798446, 45.253546300000004],
     [19.4795859, 45.2534955],
     [19.478495600000002, 45.253256400000005],
     [19.47803, 45.2531516]]}},
  {"type":"Feature",
   "properties":{},
   "geometry":
   {"type":"LineString",
    "coordinates":
    [[19.47803, 45.2531516], [19.477672300000002, 45.2530711],
     [19.476435600000002, 45.2527929], [19.4760239, 45.2526947]]}},
  {"type":"Feature",
   "properties":{},
   "geometry":
   {"type":"LineString",
    "coordinates":
    [[19.4760239, 45.2526947], [19.476518600000002, 45.2515194],
     [19.4768507, 45.2507436], [19.4771594, 45.2500097],
     [19.4773879, 45.2494828], [19.4777804, 45.248580800000006]]}},
  {"type":"Feature",
   "properties":{},
   "geometry":
   {"type":"LineString",
    "coordinates":
    [[19.4777804, 45.248580800000006],
     [19.477846800000002, 45.2484533]]}},
  {"type":"Feature",
   "properties":{},
   "geometry":
   {"type":"LineString",
    "coordinates":
    [[19.477846800000002, 45.2484533], [19.4782532, 45.2475206],
     [19.478568900000003, 45.246790000000004],
     [19.4795942, 45.244238200000005],
     [19.479522900000003, 45.2439308], [19.4788023, 45.2437618],
     [19.4781799, 45.2435496], [19.4773077, 45.2433193],
     [19.4762641, 45.243121900000006], [19.4751638, 45.2428109],
     [19.4741457, 45.2426065], [19.473304600000002, 45.2426065],
     [19.4727772, 45.2426961], [19.472370100000003, 45.2426503],
     [19.4720274, 45.242463900000004],
     [19.472023200000002, 45.242432900000004]]}},
  {"type":"Feature",
   "properties":{},
   "geometry":
   {"type":"LineString",
    "coordinates":
    [[19.472023200000002, 45.242432900000004],
     [19.4716227, 45.242374000000005], [19.4705009, 45.2421239],
     [19.4698156, 45.2419923], [19.4695041, 45.24208],
     [19.467728400000002, 45.241597500000005],
     [19.466809400000002, 45.241367200000006],
     [19.4663733, 45.241312300000004],
     [19.4659216, 45.241367200000006], [19.4654543, 45.2414659],
     [19.463554000000002, 45.241356200000006],
     [19.4577139, 45.240855800000006],
     [19.453154100000003, 45.240473900000005],
     [19.4518306, 45.240439200000004],
     [19.449681100000003, 45.2401928], [19.4495171, 45.240239],
     [19.449167000000003, 45.240196600000004],
     [19.4489045, 45.2402968], [19.448691200000003, 45.2405047],
     [19.448609100000002, 45.2406318], [19.4484615, 45.2406626],
     [19.4473239, 45.2405625], [19.4470832, 45.2404662],
     [19.446990200000002, 45.240358400000005],
     [19.447023, 45.240138900000005],
     [19.447102100000002, 45.239978400000005]]}},
  {"type":"Feature",
   "properties":{},
   "geometry":
   {"type":"LineString",
    "coordinates":
    [[19.4439658, 45.2405332], [19.4441557, 45.240414200000004],
     [19.4445011, 45.2402865], [19.4451694, 45.2401002],
     [19.445782100000002, 45.2399409],
     [19.446053600000003, 45.239906600000005],
     [19.447102100000002, 45.239978400000005]]}},
  {"type":"Feature",
   "properties":{},
   "geometry":
   {"type":"LineString",
    "coordinates":
    [[19.443843100000002, 45.240661700000004],
     [19.4439658, 45.2405332]]}},
  {"type":"Feature",
   "properties":{},
   "geometry":
   {"type":"LineString",
    "coordinates":
    [[19.443953200000003, 45.242246200000004],
     [19.4437666, 45.2420516], [19.4436711, 45.2414196],
     [19.4437122, 45.241048000000006], [19.4437538, 45.2407733],
     [19.443843100000002, 45.240661700000004]]}},
  {"type":"Feature",
   "properties":{},
   "geometry":
   {"type":"LineString",
    "coordinates":
    [[19.443630900000002, 45.2423737],
     [19.443953200000003, 45.242246200000004]]}},
  {"type":"Feature",
   "properties":{},
   "geometry":
   {"type":"LineString",
    "coordinates":
    [[19.4237493, 45.2405598], [19.4241686, 45.240736600000005],
     [19.4245504, 45.2409267], [19.4255989, 45.2413224],
     [19.425992100000002, 45.2414806],
     [19.426315600000002, 45.2415669],
     [19.426926700000003, 45.2416892],
     [19.427497000000002, 45.2417383], [19.4279464, 45.2417886],
     [19.4292725, 45.2419181], [19.4311829, 45.2421542],
     [19.4328092, 45.2423202], [19.4344481, 45.2424875],
     [19.4362651, 45.242668900000005],
     [19.436964800000002, 45.2426983],
     [19.437507800000002, 45.242673800000006],
     [19.438496400000002, 45.2425292],
     [19.4396138, 45.242281600000005], [19.4409122, 45.2419826],
     [19.4413856, 45.2419777], [19.4417894, 45.2420096],
     [19.442635300000003, 45.2421566], [19.4432401, 45.242285],
     [19.443630900000002, 45.2423737]]}},
  {"type":"Feature",
   "properties":{},
   "geometry":
   {"type":"LineString",
    "coordinates":
    [[19.407963600000002, 45.241123], [19.4080175, 45.241095800000004],
     [19.4080692, 45.241079000000006],
     [19.408151800000002, 45.241068600000006],
     [19.408332100000003, 45.2410694],
     [19.408741300000003, 45.2410731], [19.408973, 45.2410671],
     [19.409266600000002, 45.2410542],
     [19.4096441, 45.241020400000004], [19.409917, 45.240996],
     [19.410410900000002, 45.2409411],
     [19.4114159, 45.240831500000006],
     [19.4132333, 45.240628900000004],
     [19.4163704, 45.240285500000006], [19.4193277, 45.2399659],
     [19.4203544, 45.239867600000004], [19.4209059, 45.239859],
     [19.4214381, 45.2398978], [19.4219244, 45.2399633],
     [19.422402400000003, 45.2400668], [19.4229296, 45.2402249],
     [19.4232084, 45.240335], [19.4234246, 45.2404237],
     [19.4235557, 45.2404809], [19.4236055, 45.240511500000004],
     [19.4237493, 45.2405598]]}},
  {"type":"Feature",
   "properties":{},
   "geometry":
   {"type":"LineString",
    "coordinates":
    [[19.360829000000003, 45.242421300000004],
     [19.3610647, 45.2423548],
     [19.361304200000003, 45.242281600000005],
     [19.3616992, 45.2421444],
     [19.361961100000002, 45.242032900000005],
     [19.3624191, 45.2417863],
     [19.362876200000002, 45.241491700000005],
     [19.363853900000002, 45.240800400000005],
     [19.364731600000002, 45.2401679],
     [19.365319500000002, 45.2397719],
     [19.3658968, 45.239464500000004], [19.3663786, 45.2392655],
     [19.3668173, 45.2391305], [19.3673387, 45.2390127],
     [19.367839500000002, 45.238932000000005],
     [19.368553300000002, 45.238891900000006],
     [19.3703968, 45.2389001],
     [19.372224300000003, 45.238916700000004],
     [19.375545300000002, 45.238952000000005],
     [19.380467200000002, 45.238980500000004],
     [19.381525500000002, 45.2389882],
     [19.3819601, 45.238992100000004], [19.3824013, 45.2389923],
     [19.3826192, 45.238994700000006],
     [19.382696900000003, 45.2390004], [19.3827667, 45.2390186],
     [19.3829177, 45.2390951], [19.3830497, 45.2391529],
     [19.3831078, 45.2391664], [19.383164, 45.239178100000004],
     [19.383153800000002, 45.2390847],
     [19.3831996, 45.239084000000005], [19.3832409, 45.2390819],
     [19.383242000000003, 45.239119800000005],
     [19.383363900000003, 45.2391268], [19.383399, 45.239099],
     [19.3834529, 45.239026800000005],
     [19.383486100000002, 45.238953800000004],
     [19.383582200000003, 45.238668600000004],
     [19.3838486, 45.238114200000005],
     [19.384124500000002, 45.2375069], [19.384286300000003, 45.237175],
     [19.3844305, 45.2368715], [19.3845753, 45.2366558],
     [19.384731900000002, 45.2364472], [19.3848846, 45.2362868],
     [19.385018900000002, 45.2361602],
     [19.3852388, 45.235975200000006], [19.3855256, 45.2357979],
     [19.3858731, 45.235611600000006], [19.3861981, 45.2354773],
     [19.3865149, 45.2353642], [19.387032, 45.2352353],
     [19.387725200000002, 45.235162100000004],
     [19.3884337, 45.235176800000005],
     [19.389890700000002, 45.235336800000006],
     [19.3926385, 45.2356197], [19.3951037, 45.2359115],
     [19.397814, 45.2361294], [19.4000947, 45.2362857],
     [19.4006039, 45.2363208], [19.4009581, 45.236350400000006],
     [19.401516700000002, 45.2363087],
     [19.4016066, 45.236307800000006],
     [19.4016954, 45.236320000000006],
     [19.401888800000002, 45.236361800000005],
     [19.4019741, 45.236373500000006], [19.40212, 45.2363875],
     [19.402219600000002, 45.2363951],
     [19.4023463, 45.236409900000005],
     [19.4024575, 45.236427400000004],
     [19.4025393, 45.236444500000005],
     [19.402598100000002, 45.2364763],
     [19.402640700000003, 45.236506600000006],
     [19.4026737, 45.2365526],
     [19.402695100000003, 45.236594800000006],
     [19.4027095, 45.236643900000004],
     [19.4026925, 45.236693200000005], [19.4026362, 45.2367633],
     [19.4026009, 45.236812], [19.402551000000003, 45.2368814],
     [19.402525, 45.2369385], [19.402513300000003, 45.2369968],
     [19.4025103, 45.237048400000006], [19.4025204, 45.2371927],
     [19.402534300000003, 45.237313900000004],
     [19.4025441, 45.2374297],
     [19.402558300000003, 45.237483000000005],
     [19.4025925, 45.2375485],
     [19.402621200000002, 45.237584600000005], [19.4026383, 45.237602],
     [19.4026719, 45.2376365], [19.4027093, 45.2376749],
     [19.402826400000002, 45.2377928],
     [19.402885100000002, 45.237851600000006],
     [19.402943800000003, 45.237910500000005], [19.4031157, 45.238084],
     [19.4032853, 45.2382591], [19.4036395, 45.238623100000005],
     [19.4039892, 45.238980100000006], [19.4041646, 45.2391583],
     [19.404251900000002, 45.239247600000006],
     [19.404338300000003, 45.239337000000006],
     [19.4046172, 45.2396149], [19.4047358, 45.2397203],
     [19.404856300000002, 45.239825], [19.4048824, 45.2398473],
     [19.4049432, 45.2398946], [19.4050324, 45.2399603],
     [19.4051438, 45.240038500000004],
     [19.405245400000002, 45.2401058],
     [19.405408700000002, 45.2402053], [19.4055821, 45.2403057],
     [19.405669500000002, 45.240352300000005],
     [19.4057582, 45.240398600000006], [19.4058247, 45.2404335],
     [19.406027400000003, 45.240522600000006], [19.406165, 45.2405811],
     [19.406289100000002, 45.240629500000004],
     [19.4064668, 45.2406938], [19.4066738, 45.2407583],
     [19.4068931, 45.2408215], [19.407121800000002, 45.2408871],
     [19.4073229, 45.240937100000004],
     [19.4076506, 45.241022400000006],
     [19.4078106, 45.241073300000004],
     [19.407963600000002, 45.241123]]}},
  {"type":"Feature",
   "properties":{},
   "geometry":
   {"type":"LineString",
    "coordinates":
    [[19.3284491, 45.248055900000004],
     [19.3284893, 45.248072300000004], [19.3285318, 45.2480854],
     [19.3285822, 45.2480964], [19.3286349, 45.2481049],
     [19.3286902, 45.248110600000004], [19.3287479, 45.2481129],
     [19.328801600000002, 45.248110800000006],
     [19.3288553, 45.2481062], [19.3289095, 45.2480983],
     [19.328960300000002, 45.248088],
     [19.329025100000003, 45.248070000000006],
     [19.3290887, 45.248043800000005],
     [19.3292176, 45.247970900000006],
     [19.329750100000002, 45.247658200000004],
     [19.3300433, 45.2474848], [19.3310651, 45.246890900000004],
     [19.3315762, 45.246589900000004],
     [19.331834100000002, 45.2464383],
     [19.331958500000002, 45.246360900000006],
     [19.3320782, 45.246281800000006],
     [19.3322709, 45.246148500000004],
     [19.332460100000002, 45.2460126],
     [19.3326558, 45.245867800000006],
     [19.3328515, 45.245721700000004], [19.3334175, 45.2452885],
     [19.333700500000003, 45.2450757],
     [19.3338487, 45.244969700000006], [19.3340023, 45.2448714],
     [19.3341348, 45.244791400000004], [19.3342032, 45.2447527],
     [19.3342734, 45.244714900000005],
     [19.3344178, 45.244640600000004], [19.334564, 45.244564700000005],
     [19.3349857, 45.2443776],
     [19.335202600000002, 45.244292900000005],
     [19.3354246, 45.244212600000004],
     [19.335640700000003, 45.2441454], [19.335867, 45.244083200000006],
     [19.336091200000002, 45.244033900000005],
     [19.336319500000002, 45.2439903],
     [19.3366174, 45.243944000000006], [19.3369162, 45.2439027],
     [19.337291200000003, 45.243853400000006],
     [19.3376677, 45.2438106], [19.338270400000003, 45.2437455],
     [19.338555900000003, 45.243712900000006],
     [19.3388399, 45.243679300000004],
     [19.3402803, 45.243520700000005],
     [19.341153000000002, 45.2434145], [19.3415955, 45.2433635],
     [19.342026500000003, 45.243315900000006],
     [19.3433841, 45.243165600000005], [19.3447433, 45.2430109],
     [19.3450883, 45.242969900000006], [19.3454827, 45.2429244],
     [19.3469671, 45.2427585],
     [19.348453600000003, 45.242589800000005],
     [19.3495189, 45.2424696], [19.3505949, 45.2423488],
     [19.3509309, 45.242317], [19.351097600000003, 45.2423048],
     [19.3512683, 45.2423026], [19.3517204, 45.2423027],
     [19.352169200000002, 45.2423159],
     [19.352590300000003, 45.2423292], [19.3528005, 45.242341],
     [19.352918600000002, 45.2423446], [19.3532154, 45.2423499],
     [19.3534969, 45.242365], [19.353789300000003, 45.242381200000004],
     [19.3545601, 45.2424131], [19.355335500000002, 45.2424498],
     [19.3556056, 45.242465100000004],
     [19.355875100000002, 45.2424747],
     [19.356412600000002, 45.2424982], [19.3570105, 45.2425227],
     [19.3573081, 45.2425366], [19.3576011, 45.2425505],
     [19.3583353, 45.2425834], [19.3587834, 45.242601],
     [19.3589087, 45.2426049], [19.359034, 45.242606900000006],
     [19.3592839, 45.2426055], [19.3594933, 45.2425993],
     [19.3596007, 45.2425943], [19.3597034, 45.242589800000005],
     [19.3597529, 45.2425866], [19.359801, 45.242584400000005],
     [19.3598992, 45.2425766], [19.3600862, 45.242556400000005],
     [19.360197, 45.242545], [19.360307900000002, 45.2425316],
     [19.3603788, 45.2425201], [19.3604294, 45.242510200000005],
     [19.360454, 45.242505400000006], [19.360596400000002, 45.2424721],
     [19.360710700000002, 45.242443400000006],
     [19.360829000000003, 45.242421300000004]]}},
  {"type":"Feature",
   "properties":{},
   "geometry":
   {"type":"LineString",
    "coordinates":
    [[19.2989697, 45.264270200000006], [19.2991859, 45.264212],
     [19.2992208, 45.2642151],
     [19.299242900000003, 45.264215400000005],
     [19.2992585, 45.2642139], [19.2992734, 45.264212],
     [19.2992968, 45.264203], [19.2993285, 45.2641876],
     [19.29937, 45.264164400000006], [19.2996208, 45.2640637],
     [19.299874000000003, 45.2639645], [19.2999486, 45.2639336],
     [19.3000165, 45.263899800000004],
     [19.3001417, 45.263849300000004], [19.3002587, 45.2638052],
     [19.300332700000002, 45.263779400000004],
     [19.300406600000002, 45.2637554],
     [19.300608500000003, 45.2636892], [19.3008051, 45.263621],
     [19.3010023, 45.2635501], [19.3011968, 45.2634744],
     [19.3013118, 45.263432], [19.301428100000003, 45.2633877],
     [19.3015525, 45.26335], [19.3016715, 45.2633086],
     [19.301969200000002, 45.2632032], [19.302263, 45.263094900000006],
     [19.302555400000003, 45.2629843],
     [19.3027039, 45.262931800000004], [19.3028498, 45.2628774],
     [19.303876900000002, 45.2624763], [19.303967, 45.2624434],
     [19.3040077, 45.262424100000004],
     [19.3040333, 45.262412000000005], [19.30406, 45.262396100000004],
     [19.304090300000002, 45.2623826],
     [19.304195800000002, 45.2623418], [19.3043048, 45.2623059],
     [19.304472, 45.2622474], [19.3045104, 45.262233300000005],
     [19.3047088, 45.2621532], [19.3051058, 45.261996800000006],
     [19.3054807, 45.2618566], [19.3055421, 45.261833200000005],
     [19.305600300000002, 45.2618072], [19.3056549, 45.2617774],
     [19.3057048, 45.2617453], [19.3057607, 45.2617181],
     [19.3058255, 45.261693300000005],
     [19.305883100000003, 45.261675800000006],
     [19.3059443, 45.2616608], [19.3060754, 45.2616345],
     [19.306131, 45.261622100000004],
     [19.306181300000002, 45.261606500000006], [19.3062298, 45.261586],
     [19.3062766, 45.2615635], [19.3063347, 45.2615326],
     [19.3063714, 45.2615126],
     [19.306412400000003, 45.261492700000005],
     [19.3064526, 45.261477400000004], [19.3064919, 45.2614614],
     [19.3065494, 45.261444600000004], [19.3066068, 45.2614291],
     [19.3067227, 45.2614004], [19.3068394, 45.261368100000006],
     [19.306894200000002, 45.2613507], [19.3069455, 45.2613295],
     [19.3073708, 45.2611701], [19.3075826, 45.261088],
     [19.307794400000002, 45.2610083],
     [19.3082572, 45.260828800000006],
     [19.308724400000003, 45.2606648], [19.3091978, 45.2604922],
     [19.3096597, 45.2603158], [19.309788, 45.2602689],
     [19.309911, 45.260212100000004], [19.3099715, 45.2601786],
     [19.310024300000002, 45.2601408],
     [19.310079400000003, 45.2601062],
     [19.310129800000002, 45.2600683],
     [19.3101723, 45.260077900000006],
     [19.310222500000002, 45.260082000000004],
     [19.3102735, 45.2600807],
     [19.310321300000002, 45.260071800000006],
     [19.3115896, 45.259612100000005], [19.3126165, 45.2591832],
     [19.3132534, 45.2589716], [19.314573900000003, 45.2585252],
     [19.315567, 45.2579015], [19.3164045, 45.2572404],
     [19.3166865, 45.257024], [19.316858, 45.2569068],
     [19.3170407, 45.256751200000004],
     [19.317121800000002, 45.2566812], [19.3171553, 45.2566463],
     [19.317215700000002, 45.2566016], [19.3173168, 45.2565283],
     [19.3174512, 45.2564325], [19.3175977, 45.2563377],
     [19.3177424, 45.2562434], [19.31786, 45.2561643],
     [19.3179884, 45.256078200000005],
     [19.318071200000002, 45.2560206],
     [19.3181495, 45.255968200000005],
     [19.318230200000002, 45.2559151], [19.3182854, 45.2558829],
     [19.318344500000002, 45.255855000000004],
     [19.3183832, 45.2558391], [19.3184703, 45.2558147],
     [19.3186815, 45.255754800000005],
     [19.3187988, 45.255723200000006], [19.3189101, 45.2556883],
     [19.3189627, 45.255670900000005],
     [19.319017900000002, 45.2556498], [19.3190549, 45.2556317],
     [19.3190901, 45.255616], [19.319125200000002, 45.255601600000006],
     [19.3191689, 45.2555878], [19.319225600000003, 45.2555757],
     [19.3193109, 45.2555611], [19.3193938, 45.2555439],
     [19.3194655, 45.2555283],
     [19.319530800000003, 45.255511500000004],
     [19.3195726, 45.255499900000004], [19.3196131, 45.2554875],
     [19.3197329, 45.255450700000004], [19.3198778, 45.2554066],
     [19.320188, 45.2553278], [19.3211131, 45.255069000000006],
     [19.321423900000003, 45.254986200000005],
     [19.3215966, 45.254935100000004],
     [19.3218147, 45.254873700000005],
     [19.322029500000003, 45.2548155],
     [19.3221911, 45.254771100000006], [19.3222682, 45.2547489],
     [19.3223439, 45.254724800000005], [19.322446000000003, 45.254694],
     [19.3231381, 45.254508900000005],
     [19.323378100000003, 45.254446200000004],
     [19.3236187, 45.254380700000006], [19.324003100000002, 45.254274],
     [19.324347600000003, 45.254175800000006],
     [19.324749800000003, 45.254065100000005],
     [19.3249542, 45.2540087], [19.3253151, 45.2539048],
     [19.3256075, 45.253818200000005],
     [19.3257574, 45.253781000000004],
     [19.325968500000002, 45.2537218],
     [19.326216300000002, 45.253648500000004],
     [19.326475600000002, 45.2535748],
     [19.3268971, 45.253452800000005],
     [19.327132000000002, 45.2533909],
     [19.3273796, 45.253317200000005], [19.3277593, 45.2532032],
     [19.3280476, 45.253118900000004],
     [19.3283986, 45.253019900000005],
     [19.328669700000003, 45.2529364],
     [19.3289827, 45.252844200000006], [19.3294505, 45.2527228],
     [19.331799200000003, 45.2519938]]}},
  {"type":"Feature",
   "properties":{},
   "geometry":
   {"type":"LineString",
    "coordinates":
    [[19.2989697, 45.264270200000006], [19.29867, 45.2643817],
     [19.297721300000003, 45.2647374], [19.2967564, 45.2650816],
     [19.295938, 45.265375600000006], [19.2918252, 45.266891],
     [19.2896438, 45.2676924], [19.288757500000003, 45.2680299],
     [19.287337100000002, 45.2685426],
     [19.2869275, 45.268698300000004], [19.286844600000002, 45.268748],
     [19.286791700000002, 45.2687797], [19.2867493, 45.2688168],
     [19.2867243, 45.2688585],
     [19.286716600000002, 45.268869800000004]]}},
  {"type":"Feature",
   "properties":{},
   "geometry":
   {"type":"LineString",
    "coordinates":
    [[19.286716600000002, 45.268869800000004],
     [19.2867509, 45.2689949], [19.2868341, 45.269117800000004],
     [19.290381500000002, 45.2738856], [19.2908014, 45.2744743],
     [19.2945399, 45.2796138],
     [19.296015500000003, 45.281647400000004],
     [19.298653100000003, 45.2851749]]}},
  {"type":"Feature",
   "properties":{},
   "geometry":
   {"type":"LineString",
    "coordinates":
    [[19.298653100000003, 45.2851749],
     [19.300330900000002, 45.287452900000005]]}},
  {"type":"Feature",
   "properties":{},
   "geometry":
   {"type":"LineString",
    "coordinates":
    [[19.300330900000002, 45.287452900000005],
     [19.298773200000003, 45.288054800000005],
     [19.298746, 45.288357700000006], [19.2987004, 45.2885049],
     [19.2985663, 45.288555900000006],
     [19.2983276, 45.288554000000005],
     [19.2981076, 45.288480400000005],
     [19.298013700000002, 45.288427500000004],
     [19.297959000000002, 45.2883695], [19.2978758, 45.2884016],
     [19.291429700000002, 45.290892500000005],
     [19.2828926, 45.294000100000005],
     [19.2756028, 45.296552000000005],
     [19.2752252, 45.296616400000005], [19.2703387, 45.2984196],
     [19.270523, 45.298754100000004]]}},
  {"type":"Feature",
   "properties":{},
   "geometry":
   {"type":"LineString",
    "coordinates":
    [[19.270523, 45.298754100000004], [19.2705981, 45.298976700000004],
     [19.2706035, 45.299105000000004],
     [19.270410400000003, 45.2995352],
     [19.2695839, 45.301033700000005]]}},
  {"type":"Feature",
   "properties":{},
   "geometry":
   {"type":"LineString",
    "coordinates":
    [[19.2691628, 45.300928500000005],
     [19.2695839, 45.301033700000005]]}},
  {"type":"Feature",
   "properties":{},
   "geometry":
   {"type":"LineString",
    "coordinates":
    [[19.263662, 45.2993886], [19.2658333, 45.3000119],
     [19.2679468, 45.300609300000005],
     [19.2691628, 45.300928500000005]]}},
  {"type":"Feature",
   "properties":{},
   "geometry":
   {"type":"LineString",
    "coordinates":
    [[19.2580129, 45.3091876], [19.2594226, 45.3067355],
     [19.260843400000002, 45.3042759],
     [19.262263400000002, 45.301793100000005],
     [19.263662, 45.2993886]]}},
  {"type":"Feature",
   "properties":{},
   "geometry":
   {"type":"LineString",
    "coordinates":
    [[19.263351200000002, 45.3107277],
     [19.262305100000003, 45.310415000000006],
     [19.2601824, 45.309793500000005], [19.2580129, 45.3091876]]}},
  {"type":"Feature",
   "properties":{},
   "geometry":
   {"type":"LineString",
    "coordinates":
    [[19.2709824, 45.3307927],
     [19.268632800000002, 45.327556900000005],
     [19.266154500000003, 45.324351], [19.2637459, 45.321136800000005],
     [19.261390900000002, 45.317931300000005],
     [19.2615625, 45.3178332], [19.265414200000002, 45.3164224],
     [19.265424900000003, 45.316301700000004],
     [19.2626676, 45.3126727], [19.2638263, 45.3109977],
     [19.2638156, 45.310899600000006], [19.2636976, 45.3108091],
     [19.263351200000002, 45.3107277]]}},
  {"type":"Feature",
   "properties":{},
   "geometry":
   {"type":"LineString",
    "coordinates":
    [[19.272328700000003, 45.356044600000004],
     [19.272036, 45.355598900000004], [19.2716782, 45.354981800000004],
     [19.270474800000002, 45.3526734], [19.2695967, 45.3513935],
     [19.26845, 45.3498888], [19.2683594, 45.3494359],
     [19.2660857, 45.3471795], [19.2660364, 45.346878600000004],
     [19.2653713, 45.343425], [19.265349800000003, 45.3428745],
     [19.2654678, 45.341947000000005], [19.266036, 45.3381612],
     [19.2660297, 45.3374189], [19.265893300000002, 45.3368138],
     [19.265020500000002, 45.332961100000006],
     [19.2709824, 45.3307927]]}},
  {"type":"Feature",
   "properties":{},
   "geometry":
   {"type":"LineString",
    "coordinates":
    [[19.272328700000003, 45.356044600000004], [19.272328, 45.3567252],
     [19.2728843, 45.3581079], [19.273009400000003, 45.3588456],
     [19.2730651, 45.359334200000006],
     [19.2730494, 45.359554700000004],
     [19.272974700000002, 45.3606045],
     [19.272759100000002, 45.3627443], [19.2720847, 45.3653725],
     [19.2717579, 45.366066200000006], [19.2716536, 45.3662372],
     [19.2707321, 45.366767800000005]]}},
  {"type":"Feature",
   "properties":{},
   "geometry":
   {"type":"LineString",
    "coordinates":
    [[19.2710033, 45.367537600000006],
     [19.270997100000002, 45.367520000000006],
     [19.2707321, 45.366767800000005]]}},
  {"type":"Feature",
   "properties":{},
   "geometry":
   {"type":"LineString",
    "coordinates":
    [[19.2712754, 45.367904700000004], [19.2710143, 45.3675524],
     [19.2710033, 45.367537600000006]]}},
  {"type":"Feature",
   "properties":{},
   "geometry":
   {"type":"LineString",
    "coordinates":
    [[19.2696796, 45.369481400000005],
     [19.2712754, 45.367904700000004]]}},
  {"type":"Feature",
   "properties":{},
   "geometry":
   {"type":"LineString",
    "coordinates":
    [[19.242838000000003, 45.3639852],
     [19.242668000000002, 45.363979900000004],
     [19.2425026, 45.3639985], [19.242399000000002, 45.364139],
     [19.2424415, 45.364313100000004],
     [19.2425548, 45.364566700000005],
     [19.242590200000002, 45.3647657], [19.2426043, 45.3649397],
     [19.242689300000002, 45.365123700000005],
     [19.2431509, 45.366342100000004], [19.2457429, 45.3675979],
     [19.2478473, 45.368516500000005],
     [19.2491723, 45.368874600000005],
     [19.2498697, 45.369047900000005],
     [19.2523297, 45.369564200000006], [19.2549339, 45.3699619],
     [19.2588355, 45.3700964], [19.2645003, 45.3703677],
     [19.267768500000003, 45.3705185], [19.2684696, 45.3705591],
     [19.2696796, 45.369481400000005]]}},
  {"type":"Feature",
   "properties":{},
   "geometry":
   {"type":"LineString",
    "coordinates":
    [[19.235370800000002, 45.3475066],
     [19.235513100000002, 45.3475866],
     [19.235635000000002, 45.347749500000006],
     [19.235647200000002, 45.3478523],
     [19.235590300000002, 45.347998100000005],
     [19.235187800000002, 45.348729500000005],
     [19.235045600000003, 45.3490757],
     [19.235025200000003, 45.3493043],
     [19.235122800000003, 45.3495757], [19.2353098, 45.3497672],
     [19.2355009, 45.3499215], [19.2357692, 45.350055700000006],
     [19.2359522, 45.3501472], [19.2373362, 45.3508562],
     [19.2391335, 45.3517756], [19.239778100000002, 45.3521445],
     [19.2399489, 45.352281600000005], [19.2400668, 45.3524131],
     [19.2401887, 45.3526388],
     [19.240225300000002, 45.352718800000005],
     [19.240583100000002, 45.3537054],
     [19.2412615, 45.355576500000005], [19.241654, 45.356669600000004],
     [19.2418754, 45.357286300000005], [19.242383, 45.3587417],
     [19.2428546, 45.3601912], [19.2429522, 45.360528200000005],
     [19.243358, 45.361937600000005], [19.2437198, 45.3632326],
     [19.2437609, 45.363424], [19.243830000000003, 45.363611000000006],
     [19.243903200000002, 45.3637139],
     [19.2439316, 45.363802400000004],
     [19.243915400000002, 45.3638938],
     [19.243870700000002, 45.3639567], [19.2437365, 45.3640338],
     [19.2434072, 45.363999500000006],
     [19.243163300000003, 45.3639595],
     [19.242838000000003, 45.3639852]]}},
  {"type":"Feature",
   "properties":{},
   "geometry":
   {"type":"LineString",
    "coordinates":
    [[19.235013000000002, 45.3474038],
     [19.235370800000002, 45.3475066]]}},
  {"type":"Feature",
   "properties":{},
   "geometry":
   {"type":"LineString",
    "coordinates":
    [[19.231624500000002, 45.3465325], [19.2333886, 45.3469819],
     [19.2344903, 45.3472705], [19.235013000000002, 45.3474038]]}},
  {"type":"Feature",
   "properties":{},
   "geometry":
   {"type":"LineString",
    "coordinates":
    [[19.231624500000002, 45.3465325], [19.2315709, 45.3466211],
     [19.2314933, 45.346749200000005],
     [19.2313906, 45.350585900000006],
     [19.230876900000002, 45.3515147],
     [19.2294224, 45.353923900000005]]}},
  {"type":"Feature",
   "properties":{},
   "geometry":
   {"type":"LineString",
    "coordinates":
    [[19.2294224, 45.353923900000005],
     [19.229217000000002, 45.354360400000004]]}},
  {"type":"Feature",
   "properties":{},
   "geometry":
   {"type":"LineString",
    "coordinates":
    [[19.229217000000002, 45.354360400000004], [19.228669, 45.3555251],
     [19.2283979, 45.356144300000004],
     [19.227584500000003, 45.357785400000004],
     [19.2270854, 45.358828900000006],
     [19.226185700000002, 45.3606734],
     [19.2248102, 45.363443100000005], [19.218874, 45.3647755]]}},
  {"type":"Feature",
   "properties":{},
   "geometry":
   {"type":"LineString",
    "coordinates":
    [[19.225765000000003, 45.385380600000005],
     [19.225740300000002, 45.3852665],
     [19.2254405, 45.383880000000005],
     [19.2253526, 45.383473300000006],
     [19.2251438, 45.382628100000005],
     [19.224669600000002, 45.380709200000005], [19.224491, 45.3799252],
     [19.224409400000003, 45.379567], [19.2233775, 45.375377400000005],
     [19.2233524, 45.375275300000006], [19.2229946, 45.3735617],
     [19.2229296, 45.3732647],
     [19.222848300000003, 45.373059100000006],
     [19.222177900000002, 45.3708341], [19.2213265, 45.368124],
     [19.220155700000003, 45.366669400000006],
     [19.218874, 45.3647755]]}},
  {"type":"Feature",
   "properties":{},
   "geometry":
   {"type":"LineString",
    "coordinates":
    [[19.225765000000003, 45.385380600000005],
     [19.2260594, 45.3861788], [19.2262589, 45.386637300000004],
     [19.2263591, 45.386848300000004], [19.2264325, 45.3870312],
     [19.2264363, 45.387266800000006]]}},
  {"type":"Feature",
   "properties":{},
   "geometry":
   {"type":"LineString",
    "coordinates":
    [[19.2320219, 45.3875672], [19.2316873, 45.3873028],
     [19.2315423, 45.3871915],
     [19.231389800000002, 45.387076400000005],
     [19.231206800000002, 45.38696],
     [19.230893700000003, 45.386801600000005],
     [19.230646, 45.386715300000006], [19.230381100000002, 45.3866499],
     [19.2300742, 45.3865965], [19.229771500000002, 45.3865611],
     [19.229399, 45.3865612], [19.229233800000003, 45.3865828],
     [19.2290604, 45.3866055], [19.228774, 45.386668500000006],
     [19.2284033, 45.3867636], [19.2264363, 45.387266800000006]]}},
  {"type":"Feature",
   "properties":{},
   "geometry":
   {"type":"LineString",
    "coordinates":
    [[19.232558, 45.3879887], [19.2320219, 45.3875672]]}},
  {"type":"Feature",
   "properties":{},
   "geometry":
   {"type":"LineString",
    "coordinates":
    [[19.2337168, 45.3889159], [19.232558, 45.3879887]]}},
  {"type":"Feature",
   "properties":{},
   "geometry":
   {"type":"LineString",
    "coordinates":
    [[19.2345116, 45.389554800000006], [19.2339814, 45.3891227],
     [19.2337168, 45.3889159]]}},
  {"type":"Feature",
   "properties":{},
   "geometry":
   {"type":"LineString",
    "coordinates":
    [[19.233787, 45.390769000000006],
     [19.233856900000003, 45.390775700000006],
     [19.2342491, 45.3906937], [19.2346204, 45.3906068],
     [19.2347395, 45.390539600000004], [19.2348025, 45.3904019],
     [19.234793200000002, 45.3902658], [19.2347068, 45.3901215],
     [19.234370600000002, 45.3900427],
     [19.234430800000002, 45.3899545],
     [19.234623900000003, 45.3898415], [19.2344018, 45.389629],
     [19.2345116, 45.389554800000006]]}},
  {"type":"Feature",
   "properties":{},
   "geometry":
   {"type":"LineString",
    "coordinates":
    [[19.2337436, 45.3908757], [19.233793000000002, 45.3908247],
     [19.233787, 45.390769000000006]]}},
  {"type":"Feature",
   "properties":{},
   "geometry":
   {"type":"LineString",
    "coordinates":
    [[19.233541600000002, 45.3909262], [19.2335603, 45.3909085],
     [19.2337436, 45.3908757]]}},
  {"type":"Feature",
   "properties":{},
   "geometry":
   {"type":"LineString",
    "coordinates":
    [[19.2332654, 45.391156900000006], [19.233267, 45.3910101],
     [19.2332748, 45.390979800000004],
     [19.233302000000002, 45.390958600000005],
     [19.2333933, 45.3909339], [19.233454700000003, 45.3909256],
     [19.233541600000002, 45.3909262]]}}]}
