{"type":"FeatureCollection",
 "properties":{},
 "features":
 [{"type":"Feature",
   "properties":{},
   "geometry":
   {"type":"LineString",
    "coordinates":
    [[19.5999079, 44.9654783], [19.601341, 44.965933],
     [19.602694500000002, 44.966379800000006],
     [19.603302900000003, 44.9665735]]}},
  {"type":"Feature",
   "properties":{},
   "geometry":
   {"type":"LineString",
    "coordinates":
    [[19.599588800000003, 44.965375900000005],
     [19.5999079, 44.9654783]]}},
  {"type":"Feature",
   "properties":{},
   "geometry":
   {"type":"LineString",
    "coordinates":
    [[19.5947666, 44.970300300000005],
     [19.5947934, 44.970401800000005],
     [19.594820300000002, 44.9704338], [19.5948816, 44.9704521],
     [19.5949944, 44.9704338], [19.5952024, 44.9703612],
     [19.595536000000003, 44.9702448],
     [19.5959623, 44.970055800000004], [19.596378, 44.969829100000005],
     [19.5973802, 44.9691319], [19.5975229, 44.9690285],
     [19.597775600000002, 44.968818500000005],
     [19.5982454, 44.9683294], [19.5983218, 44.968268800000004],
     [19.5985678, 44.967958], [19.598752700000002, 44.9676999],
     [19.598913800000002, 44.9674563],
     [19.5990699, 44.967169500000004],
     [19.599192000000002, 44.966933000000004],
     [19.599317600000003, 44.9666269],
     [19.5993242, 44.966600400000004],
     [19.5993956, 44.966388200000004],
     [19.599469300000003, 44.966044000000004],
     [19.599577200000002, 44.9654873],
     [19.599588800000003, 44.965375900000005]]}},
  {"type":"Feature",
   "properties":{},
   "geometry":
   {"type":"LineString",
    "coordinates":
    [[19.5947666, 44.970300300000005],
     [19.594720000000002, 44.970320300000004],
     [19.5946871, 44.970334400000006], [19.5946129, 44.9703662],
     [19.5945387, 44.970398]]}},
  {"type":"Feature",
   "properties":{},
   "geometry":
   {"type":"LineString",
    "coordinates":
    [[19.5945387, 44.970398], [19.5945098, 44.970551400000005],
     [19.594473500000003, 44.9705961], [19.5943583, 44.9706162],
     [19.594069400000002, 44.9706631],
     [19.593891000000003, 44.970688800000005],
     [19.593632200000002, 44.970723400000004],
     [19.5932849, 44.9707625], [19.5929092, 44.9707871],
     [19.592642400000003, 44.970796],
     [19.592345700000003, 44.970791500000004],
     [19.5919558, 44.970784800000004],
     [19.5914617, 44.970786000000004], [19.5907561, 44.9707826],
     [19.590293600000003, 44.970777000000005],
     [19.590048900000003, 44.9707592], [19.5897948, 44.9707402],
     [19.5897174, 44.9706989]]}},
  {"type":"Feature",
   "properties":{},
   "geometry":
   {"type":"LineString",
    "coordinates":
    [[19.5786479, 44.970217700000006],
     [19.5786684, 44.970416900000004], [19.5787191, 44.9704643],
     [19.5788164, 44.970470000000006],
     [19.579947800000003, 44.9704628], [19.5846561, 44.9701846],
     [19.587381500000003, 44.9704044], [19.5897174, 44.9706989]]}},
  {"type":"Feature",
   "properties":{},
   "geometry":
   {"type":"LineString",
    "coordinates":
    [[19.5786468, 44.9701614], [19.5786479, 44.970217700000006]]}},
  {"type":"Feature",
   "properties":{},
   "geometry":
   {"type":"LineString",
    "coordinates":
    [[19.5786468, 44.9701614], [19.578173800000002, 44.9700787],
     [19.576177700000002, 44.970152600000006],
     [19.575587300000002, 44.9702415], [19.5726927, 44.9707232],
     [19.5720138, 44.970832300000005], [19.5715901, 44.9709378],
     [19.5704232, 44.9713356], [19.5689803, 44.9718275],
     [19.5676124, 44.9723234],
     [19.564754100000002, 44.973338000000005],
     [19.5627333, 44.974006800000005], [19.562062, 44.974223900000005],
     [19.561795, 44.974286400000004], [19.5615062, 44.9743438],
     [19.5608344, 44.9744016], [19.559006, 44.9745095],
     [19.5569972, 44.9746195],
     [19.556756800000002, 44.974651200000004],
     [19.556555, 44.974725400000004], [19.5563146, 44.974825200000005],
     [19.556187, 44.9748595], [19.555503700000003, 44.975034900000004],
     [19.5545951, 44.9752876],
     [19.554463000000002, 44.975337700000004],
     [19.5544777, 44.9753951],
     [19.554503800000003, 44.975480600000004],
     [19.5543228, 44.975543900000005],
     [19.553655600000003, 44.975793700000004],
     [19.552866400000003, 44.976173300000006],
     [19.551906300000002, 44.976681000000006],
     [19.5513857, 44.976980600000005],
     [19.551212200000002, 44.977029900000005],
     [19.551033500000003, 44.9770648],
     [19.550787800000002, 44.9770959],
     [19.550613300000002, 44.977095600000006],
     [19.550358900000003, 44.9770576], [19.5500304, 44.976987],
     [19.5493123, 44.9767894], [19.5487706, 44.976605600000006],
     [19.5483595, 44.9765145], [19.5479793, 44.976465700000006],
     [19.5466753, 44.9764423], [19.5456521, 44.9763953],
     [19.5442633, 44.9762925], [19.5423271, 44.976176900000006],
     [19.5417862, 44.9761083], [19.5410793, 44.975958500000004],
     [19.5407753, 44.975871000000005], [19.5407772, 44.9757983]]}},
  {"type":"Feature",
   "properties":{},
   "geometry":
   {"type":"LineString",
    "coordinates":
    [[19.5407772, 44.9757983], [19.5407148, 44.975777400000005],
     [19.540413, 44.975669200000006],
     [19.540174500000003, 44.975566900000004],
     [19.539915500000003, 44.975434], [19.539676800000002, 44.9752992],
     [19.539364600000003, 44.9751014], [19.5375811, 44.9739645],
     [19.5362122, 44.973091800000006], [19.5355522, 44.9726731],
     [19.5345604, 44.9720413], [19.5341098, 44.971757600000004],
     [19.5333226, 44.9712509],
     [19.532827700000002, 44.970952100000005],
     [19.5324831, 44.9707519], [19.5320164, 44.9704824],
     [19.530004700000003, 44.9694207],
     [19.528824800000002, 44.968810000000005],
     [19.5284637, 44.9686231], [19.528230200000003, 44.9685044],
     [19.5254148, 44.967072800000004],
     [19.523587600000003, 44.9661385]]}},
  {"type":"Feature",
   "properties":{},
   "geometry":
   {"type":"LineString",
    "coordinates":
    [[19.523587600000003, 44.9661385], [19.5237145, 44.9658985],
     [19.5241544, 44.9655189], [19.524135, 44.9652813],
     [19.5227811, 44.9638945], [19.5225686, 44.9632773],
     [19.5209492, 44.9622824]]}},
  {"type":"Feature",
   "properties":{},
   "geometry":
   {"type":"LineString",
    "coordinates":
    [[19.5209492, 44.9622824], [19.5212097, 44.962052500000006],
     [19.5212958, 44.9619974], [19.5216533, 44.961825700000006],
     [19.521804600000003, 44.961712500000004],
     [19.5224137, 44.9610174], [19.5226015, 44.960877],
     [19.5229304, 44.960567600000005],
     [19.523084100000002, 44.9605071],
     [19.523216100000003, 44.9605155],
     [19.5234101, 44.960542100000005], [19.5236521, 44.9605754],
     [19.5236787, 44.960579], [19.5238772, 44.9605278],
     [19.5241025, 44.9604158], [19.5244968, 44.9601368],
     [19.5248026, 44.9598768], [19.5250761, 44.9595921],
     [19.5252532, 44.95926], [19.5254018, 44.9588879],
     [19.5255926, 44.958426700000004]]}},
  {"type":"Feature",
   "properties":{},
   "geometry":
   {"type":"LineString",
    "coordinates":
    [[19.5255926, 44.958426700000004],
     [19.5255589, 44.958390400000006], [19.5255519, 44.9583199],
     [19.525582200000002, 44.9581212], [19.5254854, 44.957953],
     [19.525140800000003, 44.9576001], [19.5250869, 44.9575449],
     [19.525061400000002, 44.9571927],
     [19.5249345, 44.956625300000006],
     [19.524890900000003, 44.9563786], [19.5247166, 44.956068],
     [19.524464400000003, 44.955352100000006], [19.524424, 44.955015],
     [19.5245329, 44.9542792], [19.5247882, 44.9531689],
     [19.524918900000003, 44.9528407],
     [19.5250787, 44.952515000000005],
     [19.525222900000003, 44.951897200000005],
     [19.5254637, 44.9509747], [19.5255933, 44.9504919],
     [19.5259731, 44.949856600000004],
     [19.526159800000002, 44.9496613],
     [19.526616500000003, 44.9488251],
     [19.5270084, 44.948334700000004], [19.5274448, 44.9475515],
     [19.527706900000002, 44.9469408],
     [19.527735800000002, 44.946455500000006],
     [19.527922200000003, 44.946034100000006],
     [19.528027100000003, 44.945234000000006],
     [19.5280211, 44.9447387], [19.528084800000002, 44.9443819],
     [19.528005800000003, 44.9441627],
     [19.527704200000002, 44.9432027], [19.5275693, 44.9428295],
     [19.527408400000002, 44.942491000000004],
     [19.527109600000003, 44.9419842], [19.5265333, 44.9413496],
     [19.526381200000003, 44.941182100000006],
     [19.525640300000003, 44.9406577], [19.5245663, 44.9400495],
     [19.5239219, 44.9396177], [19.5228946, 44.9391417],
     [19.5225024, 44.938864], [19.522234700000002, 44.9386018],
     [19.521210500000002, 44.9380663],
     [19.521042400000002, 44.9379209],
     [19.520185700000003, 44.9374021], [19.5199699, 44.9373305],
     [19.5198511, 44.9372448], [19.5197863, 44.937125900000005],
     [19.5194948, 44.936961000000004],
     [19.516833700000003, 44.9360281], [19.5147657, 44.935561],
     [19.5130813, 44.9352211], [19.5123026, 44.935142400000004],
     [19.5107541, 44.934994800000005], [19.509808, 44.9349939],
     [19.509326, 44.9350194], [19.5081306, 44.935245800000004],
     [19.5068381, 44.9355381], [19.505899000000003, 44.9358092],
     [19.5052536, 44.9361198],
     [19.504678000000002, 44.936491800000006],
     [19.5043894, 44.9367521], [19.503634, 44.9375669],
     [19.5032073, 44.9382755], [19.503063700000002, 44.9386327],
     [19.502702600000003, 44.9396056],
     [19.5019354, 44.941141900000005], [19.5018533, 44.9414323],
     [19.5017877, 44.9415514], [19.501192800000002, 44.9423529],
     [19.500930200000003, 44.9425852],
     [19.500474800000003, 44.9431631],
     [19.4999907, 44.943906600000005],
     [19.4997568, 44.944530900000004],
     [19.499289100000002, 44.945553100000005],
     [19.499174200000002, 44.9461397],
     [19.4988132, 44.946915000000004], [19.4982101, 44.9482536],
     [19.4980328, 44.9486897]]}},
  {"type":"Feature",
   "properties":{},
   "geometry":
   {"type":"LineString",
    "coordinates":
    [[19.4980328, 44.9486897], [19.4978877, 44.948915500000005],
     [19.4971356, 44.9497979], [19.497098, 44.949900400000004],
     [19.4971034, 44.950092100000006]]}},
  {"type":"Feature",
   "properties":{},
   "geometry":
   {"type":"LineString",
    "coordinates":
    [[19.4971034, 44.950092100000006],
     [19.496865800000002, 44.950138100000004],
     [19.4966535, 44.9502545], [19.4958095, 44.9508518],
     [19.4941853, 44.951933700000005],
     [19.493601400000003, 44.9522793], [19.4930224, 44.9525572],
     [19.491967000000002, 44.953021],
     [19.487699600000003, 44.954932500000005],
     [19.4862387, 44.9555917], [19.4856409, 44.955861500000005]]}},
  {"type":"Feature",
   "properties":{},
   "geometry":
   {"type":"LineString",
    "coordinates":
    [[19.4856409, 44.955861500000005], [19.4839632, 44.9566085],
     [19.482539000000003, 44.957147500000005],
     [19.4812629, 44.9576171], [19.480111, 44.958015200000006],
     [19.4792883, 44.958270600000006],
     [19.4784231, 44.958499700000004],
     [19.4775439, 44.958697400000005], [19.4770696, 44.958804],
     [19.475912400000002, 44.959003100000004],
     [19.4745271, 44.9591871],
     [19.473391200000002, 44.959281000000004],
     [19.4723402, 44.959299800000004],
     [19.4712892, 44.959284800000006],
     [19.4699357, 44.959217100000004],
     [19.469512400000003, 44.959184900000004],
     [19.469144800000002, 44.959157000000005],
     [19.4679505, 44.958984300000004],
     [19.4672074, 44.958819000000005], [19.466443, 44.9586162],
     [19.465625600000003, 44.9583645],
     [19.4646489, 44.957988900000004],
     [19.463868700000003, 44.9576471], [19.4630543, 44.957264],
     [19.4624969, 44.9569447], [19.462024500000002, 44.9566103],
     [19.4615309, 44.9561897], [19.4614455, 44.9561082],
     [19.4608886, 44.9555774]]}},
  {"type":"Feature",
   "properties":{},
   "geometry":
   {"type":"LineString",
    "coordinates":
    [[19.4608886, 44.9555774], [19.4603684, 44.955032700000004],
     [19.4598152, 44.9544639], [19.459689, 44.954334100000004],
     [19.4592272, 44.953872100000005], [19.4586115, 44.9534025],
     [19.4577592, 44.952865300000006],
     [19.456954200000002, 44.9523768],
     [19.456530700000002, 44.9521196], [19.4564163, 44.9520502],
     [19.4557846, 44.9516671],
     [19.455291000000003, 44.951340200000004],
     [19.4547442, 44.950983400000005],
     [19.454356800000003, 44.9506152],
     [19.454138500000003, 44.9503976],
     [19.453719800000002, 44.9499804], [19.4504129, 44.9466745],
     [19.4497261, 44.945998800000005], [19.4492748, 44.9457095]]}},
  {"type":"Feature",
   "properties":{},
   "geometry":
   {"type":"LineString",
    "coordinates":
    [[19.4492748, 44.9457095], [19.4489462, 44.9455163],
     [19.4483333, 44.9452751], [19.447867900000002, 44.9451501],
     [19.4469779, 44.9449794], [19.4461707, 44.9448687],
     [19.444746000000002, 44.9446722], [19.4427686, 44.9445052],
     [19.4398293, 44.9442328], [19.4393144, 44.9441909],
     [19.4376265, 44.944073100000004],
     [19.4344152, 44.943936900000004],
     [19.4333986, 44.943888400000006]]}},
  {"type":"Feature",
   "properties":{},
   "geometry":
   {"type":"LineString",
    "coordinates":
    [[19.4333986, 44.943888400000006],
     [19.433333100000002, 44.9438644],
     [19.4332837, 44.943828100000005],
     [19.433244600000002, 44.9437827],
     [19.433202700000002, 44.9437276], [19.4331766, 44.9436838],
     [19.4331684, 44.94364], [19.4331615, 44.9435141],
     [19.4331506, 44.943118500000004],
     [19.4331067, 44.942911900000006], [19.4327398, 44.941985],
     [19.4324182, 44.9410417], [19.4323535, 44.940732600000004],
     [19.4322898, 44.9402768], [19.4322026, 44.939976900000005],
     [19.432078500000003, 44.9397752],
     [19.431900600000002, 44.9395838], [19.4314429, 44.9391988],
     [19.431372800000002, 44.939118], [19.4313441, 44.9390578],
     [19.431332700000002, 44.9389886], [19.4313411, 44.9389278],
     [19.4313852, 44.938841000000004],
     [19.431443700000003, 44.938777800000004],
     [19.431528, 44.938708600000005]]}},
  {"type":"Feature",
   "properties":{},
   "geometry":
   {"type":"LineString",
    "coordinates":
    [[19.431528, 44.938708600000005],
     [19.431645800000002, 44.938617400000005]]}},
  {"type":"Feature",
   "properties":{},
   "geometry":
   {"type":"LineString",
    "coordinates":
    [[19.431645800000002, 44.938617400000005], [19.4319919, 44.938322],
     [19.4321594, 44.9381373], [19.4323415, 44.9379258],
     [19.4325265, 44.937682800000005], [19.4326432, 44.9374872],
     [19.4327116, 44.937375200000005], [19.432794700000002, 44.937192],
     [19.432892600000002, 44.9369451],
     [19.4329463, 44.936769500000004],
     [19.4330107, 44.936505600000004], [19.433049, 44.9361739],
     [19.433093900000003, 44.935166100000004],
     [19.4331174, 44.9349536], [19.4331743, 44.9346733],
     [19.4332515, 44.934442700000005],
     [19.4333567, 44.934193900000004], [19.4334114, 44.9340689],
     [19.4334367, 44.934010900000004], [19.4335659, 44.9337837],
     [19.4336772, 44.933602400000005],
     [19.433831400000003, 44.933401100000005],
     [19.4339736, 44.9332198], [19.4341627, 44.9330214],
     [19.434469800000002, 44.932743200000004],
     [19.434740700000003, 44.932522000000006],
     [19.435055000000002, 44.9323187], [19.4353811, 44.9321142],
     [19.4366412, 44.9314721],
     [19.437912100000002, 44.930835200000004],
     [19.439946000000003, 44.929884900000005],
     [19.442119100000003, 44.928968700000006]]}},
  {"type":"Feature",
   "properties":{},
   "geometry":
   {"type":"LineString",
    "coordinates":
    [[19.442119100000003, 44.928968700000006],
     [19.442558000000002, 44.929723800000005]]}},
  {"type":"Feature",
   "properties":{},
   "geometry":
   {"type":"LineString",
    "coordinates":
    [[19.442558000000002, 44.929723800000005],
     [19.4434253, 44.9295337], [19.4444018, 44.9293642],
     [19.446422000000002, 44.929017200000004],
     [19.4533966, 44.9277772],
     [19.455652800000003, 44.927392100000006], [19.455721, 44.927325],
     [19.4555273, 44.925999000000004],
     [19.455541800000002, 44.9258801],
     [19.456235600000003, 44.922849400000004]]}},
  {"type":"Feature",
   "properties":{},
   "geometry":
   {"type":"LineString",
    "coordinates":
    [[19.456235600000003, 44.922849400000004],
     [19.4563658, 44.9225694], [19.4564776, 44.9224517],
     [19.457352500000002, 44.9218689], [19.4574629, 44.9217602]]}},
  {"type":"Feature",
   "properties":{},
   "geometry":
   {"type":"LineString",
    "coordinates":
    [[19.4574629, 44.9217602],
     [19.457510300000003, 44.921795100000004],
     [19.4575661, 44.9217833], [19.4588463, 44.9212678],
     [19.458983, 44.9212343], [19.4590946, 44.9212343],
     [19.4592201, 44.9212639], [19.4597221, 44.9214989],
     [19.459811300000002, 44.9215427],
     [19.4599739, 44.921622500000005], [19.4600525, 44.9216187],
     [19.460094400000003, 44.921549500000005],
     [19.460160600000002, 44.921065500000005],
     [19.460219900000002, 44.9207988],
     [19.4602478, 44.920547000000006],
     [19.4603036, 44.920186400000006], [19.460328, 44.920013600000004],
     [19.4603699, 44.919811100000004],
     [19.4603733, 44.919650600000004],
     [19.4603943, 44.919623400000006],
     [19.4604396, 44.919618500000006], [19.4611336, 44.9200062],
     [19.4611789, 44.9200383], [19.4612452, 44.920023500000006],
     [19.461447500000002, 44.919895100000005],
     [19.462954, 44.918857900000006], [19.4637596, 44.918324500000004],
     [19.463846800000002, 44.9181936], [19.4638712, 44.9181072],
     [19.464010700000003, 44.9178924], [19.4641711, 44.9177565],
     [19.4644082, 44.9176355], [19.4647325, 44.9175442],
     [19.4649453, 44.9175491], [19.4651545, 44.9174972],
     [19.4651999, 44.917445400000005],
     [19.4652208, 44.917334200000006],
     [19.465158000000002, 44.917161400000005],
     [19.4649742, 44.916909100000005],
     [19.4649278, 44.916845300000006],
     [19.464760400000003, 44.9164551], [19.4647116, 44.916344],
     [19.4647814, 44.9160921], [19.464980200000003, 44.9159316],
     [19.4661066, 44.9158501], [19.466553, 44.915837700000004],
     [19.4669366, 44.9157488],
     [19.466935000000003, 44.915561200000006]]}},
  {"type":"Feature",
   "properties":{},
   "geometry":
   {"type":"LineString",
    "coordinates":
    [[19.466935000000003, 44.915561200000006],
     [19.466934300000002, 44.9154799]]}},
  {"type":"Feature",
   "properties":{},
   "geometry":
   {"type":"LineString",
    "coordinates":
    [[19.466934300000002, 44.9154799],
     [19.466933100000002, 44.9153389],
     [19.466378600000002, 44.9153685], [19.465723, 44.9153339],
     [19.465252200000002, 44.9154228], [19.4647814, 44.9154697],
     [19.464736000000002, 44.915442600000006],
     [19.4648197, 44.915045000000006],
     [19.4648511, 44.914679500000005],
     [19.4648197, 44.914514000000004],
     [19.464708100000003, 44.9144523],
     [19.464565200000003, 44.914439900000005], [19.462532, 44.9138966],
     [19.459836300000003, 44.9131878],
     [19.4597839, 44.913151000000006],
     [19.4597547, 44.913093100000005], [19.4605788, 44.9116103],
     [19.460694500000002, 44.9114524], [19.4607384, 44.9112524]]}},
  {"type":"Feature",
   "properties":{},
   "geometry":
   {"type":"LineString",
    "coordinates":
    [[19.4593567, 44.910824600000005], [19.4602508, 44.9111764],
     [19.4607384, 44.9112524]]}},
  {"type":"Feature",
   "properties":{},
   "geometry":
   {"type":"LineString",
    "coordinates":
    [[19.4578282, 44.9096521], [19.4577241, 44.9102346],
     [19.4577709, 44.9102781], [19.4582616, 44.910410500000005],
     [19.4589187, 44.9106504], [19.4593567, 44.910824600000005]]}},
  {"type":"Feature",
   "properties":{},
   "geometry":
   {"type":"LineString",
    "coordinates":
    [[19.4532403, 44.9089856],
     [19.453165000000002, 44.909033900000004],
     [19.4531333, 44.909094200000006], [19.4540034, 44.909309],
     [19.4540666, 44.9093145], [19.4549525, 44.9094424],
     [19.455913000000002, 44.909541100000006],
     [19.4570411, 44.9096264], [19.4578282, 44.9096521]]}},
  {"type":"Feature",
   "properties":{},
   "geometry":
   {"type":"LineString",
    "coordinates":
    [[19.452710800000002, 44.908879000000006],
     [19.4532403, 44.9089856]]}},
  {"type":"Feature",
   "properties":{},
   "geometry":
   {"type":"LineString",
    "coordinates":
    [[19.4526116, 44.9088578],
     [19.452710800000002, 44.908879000000006]]}},
  {"type":"Feature",
   "properties":{},
   "geometry":
   {"type":"LineString",
    "coordinates":
    [[19.4522078, 44.908770800000006], [19.4526116, 44.9088578]]}},
  {"type":"Feature",
   "properties":{},
   "geometry":
   {"type":"LineString",
    "coordinates":
    [[19.4459419, 44.9092599], [19.4460346, 44.909272900000005],
     [19.4461309, 44.9092885], [19.4462587, 44.909322],
     [19.448686000000002, 44.909086300000006],
     [19.4506124, 44.9089143], [19.4514672, 44.9088117],
     [19.451954200000003, 44.9087584], [19.4520956, 44.908762],
     [19.4522078, 44.908770800000006]]}},
  {"type":"Feature",
   "properties":{},
   "geometry":
   {"type":"LineString",
    "coordinates":
    [[19.4459419, 44.9092599], [19.4457472, 44.908556100000006]]}},
  {"type":"Feature",
   "properties":{},
   "geometry":
   {"type":"LineString",
    "coordinates":
    [[19.4394755, 44.9105233], [19.4400418, 44.9103906],
     [19.440246600000002, 44.9102857],
     [19.441453300000003, 44.9096903], [19.4417931, 44.9095607],
     [19.4425294, 44.9094373], [19.4428822, 44.9093632],
     [19.4432133, 44.909215100000004],
     [19.4434834, 44.909008400000005],
     [19.4437709, 44.908881900000004], [19.4441282, 44.9088079],
     [19.444755500000003, 44.9087431],
     [19.4457472, 44.908556100000006]]}},
  {"type":"Feature",
   "properties":{},
   "geometry":
   {"type":"LineString",
    "coordinates":
    [[19.411541800000002, 44.881864],
     [19.411705700000002, 44.882366100000006],
     [19.4117672, 44.8825877], [19.411777400000002, 44.8828727],
     [19.4115647, 44.883432000000006], [19.4114597, 44.8835628],
     [19.411024100000002, 44.884964000000004],
     [19.4123032, 44.8908296], [19.4166439, 44.890594],
     [19.4169309, 44.8913518], [19.4173633, 44.892105],
     [19.4192985, 44.8954195], [19.4225393, 44.9010024],
     [19.4241077, 44.9035219], [19.4245002, 44.9039378],
     [19.4265799, 44.905366400000005],
     [19.430731100000003, 44.908283100000006],
     [19.4335321, 44.909592100000005], [19.436668, 44.9110597],
     [19.4368704, 44.9111373], [19.4372188, 44.9110383],
     [19.4394755, 44.9105233]]}},
  {"type":"Feature",
   "properties":{},
   "geometry":
   {"type":"LineString",
    "coordinates":
    [[19.411541800000002, 44.881864], [19.4116725, 44.8818658],
     [19.411795700000003, 44.8818538],
     [19.411870800000003, 44.8818281], [19.4119171, 44.8817863],
     [19.4119573, 44.881734], [19.412252300000002, 44.881199200000005],
     [19.412333200000003, 44.8810755], [19.4124439, 44.8809307],
     [19.4126099, 44.880757200000005], [19.412759, 44.8806154]]}},
  {"type":"Feature",
   "properties":{},
   "geometry":
   {"type":"LineString",
    "coordinates":
    [[19.4059619, 44.8761567], [19.4061846, 44.876225100000006],
     [19.4064635, 44.8763506],
     [19.407168900000002, 44.877021500000005],
     [19.4073299, 44.8771812], [19.4074023, 44.8773199],
     [19.4076437, 44.878028900000004],
     [19.407716100000002, 44.8781334],
     [19.4077904, 44.878183400000005],
     [19.407820700000002, 44.8782037],
     [19.407938700000003, 44.8782398],
     [19.4083666, 44.878362900000006], [19.408937400000003, 44.878596],
     [19.410108100000002, 44.8791719], [19.412759, 44.8806154]]}},
  {"type":"Feature",
   "properties":{},
   "geometry":
   {"type":"LineString",
    "coordinates":
    [[19.4059619, 44.8761567], [19.4062361, 44.8754864],
     [19.406317, 44.8753778], [19.406457500000002, 44.875278200000004],
     [19.4068237, 44.875076], [19.4070791, 44.8749825],
     [19.407496400000003, 44.8748377], [19.4076142, 44.8747349],
     [19.407860900000003, 44.874446000000006],
     [19.4080152, 44.8743272],
     [19.408346400000003, 44.874217900000005],
     [19.4087943, 44.8741913], [19.4091989, 44.8741551],
     [19.4096285, 44.874126700000005],
     [19.410057700000003, 44.8740621],
     [19.410494200000002, 44.8739903], [19.4109267, 44.8739081]]}},
  {"type":"Feature",
   "properties":{},
   "geometry":
   {"type":"LineString",
    "coordinates":
    [[19.4109267, 44.8739081], [19.411110100000002, 44.8738867],
     [19.4114229, 44.873850100000006],
     [19.411929800000003, 44.8738131],
     [19.411984200000003, 44.873809300000005],
     [19.4120968, 44.8737865], [19.412151100000003, 44.8737751],
     [19.4125508, 44.8736192],
     [19.412851200000002, 44.873454800000005],
     [19.413242800000003, 44.873180100000006],
     [19.413386300000003, 44.8730575],
     [19.413451300000002, 44.872975800000006],
     [19.413480200000002, 44.872934400000005],
     [19.4134989, 44.872889300000004],
     [19.413535800000002, 44.8728009],
     [19.4135928, 44.872512900000004],
     [19.413627700000003, 44.8723751], [19.4136612, 44.8723247],
     [19.4137658, 44.8722183], [19.4139509, 44.872069100000004],
     [19.4140166, 44.872032000000004],
     [19.414074300000003, 44.8720197], [19.414203, 44.872020600000006],
     [19.414416300000003, 44.8720197], [19.4152142, 44.8720092],
     [19.415828400000002, 44.8720149],
     [19.415974600000002, 44.872005400000006],
     [19.4172254, 44.872060000000005],
     [19.4206128, 44.872393300000006], [19.4206495, 44.8724409]]}},
  {"type":"Feature",
   "properties":{},
   "geometry":
   {"type":"LineString",
    "coordinates":
    [[19.4251071, 44.873435900000004], [19.4243688, 44.8735228],
     [19.423862500000002, 44.873529500000004],
     [19.421835700000003, 44.8729205], [19.4206955, 44.8724938],
     [19.4206495, 44.8724409]]}},
  {"type":"Feature",
   "properties":{},
   "geometry":
   {"type":"LineString",
    "coordinates":
    [[19.4251071, 44.873435900000004],
     [19.4250908, 44.873055900000004],
     [19.425005000000002, 44.8727734],
     [19.423780800000003, 44.8668507],
     [19.4249923, 44.866528900000006],
     [19.4257592, 44.866412100000005], [19.4261757, 44.8662451],
     [19.426811800000003, 44.8660906],
     [19.427678800000002, 44.8657954], [19.429049300000003, 44.865212],
     [19.4291014, 44.865039100000004], [19.4291534, 44.8649946]]}},
  {"type":"Feature",
   "properties":{},
   "geometry":
   {"type":"LineString",
    "coordinates":
    [[19.4291534, 44.8649946], [19.4292492, 44.8650217],
     [19.4293556, 44.8650353], [19.4294663, 44.8650323],
     [19.429566400000002, 44.8650127], [19.429668600000003, 44.864984],
     [19.4317336, 44.864175200000005], [19.4334008, 44.8635153]]}},
  {"type":"Feature",
   "properties":{},
   "geometry":
   {"type":"LineString",
    "coordinates":
    [[19.4334008, 44.8635153], [19.4368984, 44.862138],
     [19.4376071, 44.8618651], [19.438306, 44.8615906],
     [19.4390292, 44.861321800000006],
     [19.4397062, 44.861083400000005],
     [19.4403723, 44.860869400000006], [19.4419468, 44.8603685],
     [19.442661, 44.860126400000006], [19.4431805, 44.859958500000005],
     [19.4442311, 44.859626500000005], [19.444576, 44.8595163],
     [19.445305100000002, 44.859292200000006],
     [19.445668100000002, 44.8591738], [19.4460407, 44.8590553],
     [19.4463334, 44.858958], [19.4466304, 44.858868900000004],
     [19.446831500000002, 44.8588086], [19.4470689, 44.8587361],
     [19.447271200000003, 44.8586796], [19.4474723, 44.858632],
     [19.4476309, 44.8585958], [19.4478119, 44.8585641]]}},
  {"type":"Feature",
   "properties":{},
   "geometry":
   {"type":"LineString",
    "coordinates":
    [[19.4478119, 44.8585641], [19.4480131, 44.858527900000006],
     [19.4485159, 44.8584497], [19.4518032, 44.8579688],
     [19.4519983, 44.8579273], [19.4522239, 44.857870500000004],
     [19.452397100000002, 44.857825600000005],
     [19.4525358, 44.8577777]]}},
  {"type":"Feature",
   "properties":{},
   "geometry":
   {"type":"LineString",
    "coordinates":
    [[19.4525358, 44.8577777], [19.452458500000002, 44.8576618],
     [19.452363000000002, 44.8564122], [19.452205600000003, 44.854672],
     [19.4521367, 44.854443200000006],
     [19.4521123, 44.853890400000004],
     [19.4520981, 44.852729200000006], [19.452085500000003, 44.851992],
     [19.452055, 44.851517400000006], [19.4517342, 44.8495968],
     [19.4518688, 44.8495177], [19.4532442, 44.849377700000005],
     [19.4555797, 44.849215300000004],
     [19.458163000000003, 44.848983700000005],
     [19.4595148, 44.848842600000005], [19.4606563, 44.8487415],
     [19.461557600000003, 44.8486581],
     [19.462452300000002, 44.8484884],
     [19.464129800000002, 44.8485747]]}},
  {"type":"Feature",
   "properties":{},
   "geometry":
   {"type":"LineString",
    "coordinates":
    [[19.464129800000002, 44.8485747], [19.464124, 44.8485552],
     [19.4641187, 44.8485303], [19.4641156, 44.848487600000006],
     [19.4641173, 44.848406700000005], [19.4641121, 44.8483512],
     [19.464107900000002, 44.848260100000005],
     [19.464105800000002, 44.848196900000005],
     [19.4641042, 44.8480998], [19.4641024, 44.848041300000006],
     [19.4641056, 44.8479388], [19.4641088, 44.847872],
     [19.4641257, 44.8478064], [19.4641401, 44.847743400000006],
     [19.4641415, 44.847689], [19.464129, 44.8476267],
     [19.46412, 44.8475916], [19.464116200000003, 44.847558],
     [19.4641202, 44.847479400000005],
     [19.4641266, 44.847380400000006],
     [19.464128300000002, 44.8472803],
     [19.464118900000003, 44.8471921],
     [19.464104600000002, 44.847123700000004],
     [19.4641012, 44.8470212], [19.4640853, 44.846766300000006],
     [19.464084200000002, 44.8467015],
     [19.464079400000003, 44.8466517],
     [19.4640612, 44.846570400000004],
     [19.464048400000003, 44.8465189],
     [19.4640439, 44.846460300000004],
     [19.464030700000002, 44.846405700000005],
     [19.464018600000003, 44.846361200000004],
     [19.464008800000002, 44.846321100000004],
     [19.4640036, 44.846287800000006], [19.4640035, 44.8462357],
     [19.464003, 44.8461853], [19.463995, 44.8461301],
     [19.463986300000002, 44.8461038],
     [19.4639829, 44.846071800000004],
     [19.4639797, 44.846012300000005], [19.4639625, 44.8459304],
     [19.463943500000003, 44.845863300000005],
     [19.4639244, 44.8457847], [19.4639153, 44.8457178],
     [19.4639139, 44.8456294], [19.4639136, 44.845551400000005],
     [19.4639174, 44.8454957], [19.4639209, 44.845451700000005],
     [19.4639159, 44.8453935], [19.4639111, 44.845325300000006],
     [19.463902100000002, 44.845237100000006],
     [19.4638877, 44.845158700000006],
     [19.463870500000002, 44.845094200000005],
     [19.4638518, 44.845034500000004],
     [19.463818500000002, 44.8449706], [19.4638028, 44.8449395],
     [19.4637827, 44.844896500000004],
     [19.463774400000002, 44.844872200000005],
     [19.463776000000003, 44.844847], [19.46378, 44.8448209],
     [19.463798200000003, 44.8447758], [19.463819, 44.8447213],
     [19.4638236, 44.8446901],
     [19.463825500000002, 44.844637000000006],
     [19.463822800000003, 44.8445765],
     [19.463819100000002, 44.844451500000005],
     [19.4638187, 44.8442882], [19.463811, 44.8442243],
     [19.463798, 44.844125600000005],
     [19.463788700000002, 44.8440298]]}},
  {"type":"Feature",
   "properties":{},
   "geometry":
   {"type":"LineString",
    "coordinates":
    [[19.463788700000002, 44.8440298],
     [19.4637871, 44.843984400000004], [19.4637885, 44.8439327],
     [19.463787, 44.843881200000006], [19.463789300000002, 44.843848],
     [19.4637961, 44.843824600000005],
     [19.4638049, 44.843810600000005], [19.4638259, 44.8437867],
     [19.4638613, 44.843768700000005],
     [19.4639078, 44.843761900000004],
     [19.463985100000002, 44.843748500000004],
     [19.464081800000002, 44.843737000000004],
     [19.464168, 44.843726100000005], [19.4642871, 44.8437032],
     [19.4643932, 44.843675700000006], [19.4645057, 44.8436527],
     [19.4645695, 44.8436339], [19.4646458, 44.8436151],
     [19.464724200000003, 44.8435995], [19.4647656, 44.8435937],
     [19.464818400000002, 44.8435823], [19.4648536, 44.8435718],
     [19.464912100000003, 44.8435568], [19.4649739, 44.843533],
     [19.465051300000002, 44.843504800000005],
     [19.465104800000002, 44.843483500000005],
     [19.465143400000002, 44.8434691],
     [19.4651949, 44.843459200000005],
     [19.465239500000003, 44.8434541],
     [19.4652742, 44.843453700000005],
     [19.4653359, 44.843459700000004],
     [19.465394800000002, 44.8434654],
     [19.465463500000002, 44.843475600000005],
     [19.4654977, 44.8434832], [19.4655269, 44.843495600000004],
     [19.465537400000002, 44.8435098],
     [19.4655488, 44.843523700000006], [19.4655691, 44.8435313]]}},
  {"type":"Feature",
   "properties":{},
   "geometry":
   {"type":"LineString",
    "coordinates":
    [[19.4655691, 44.8435313], [19.4657552, 44.843533400000005],
     [19.4659204, 44.843537600000005], [19.4661692, 44.8435222],
     [19.466453700000002, 44.843496800000004],
     [19.466737300000002, 44.8434626],
     [19.467033500000003, 44.8434316],
     [19.4685099, 44.843231700000004],
     [19.469017100000002, 44.843160600000004]]}},
  {"type":"Feature",
   "properties":{},
   "geometry":
   {"type":"LineString",
    "coordinates":
    [[19.469017100000002, 44.843160600000004],
     [19.469901500000002, 44.8430417],
     [19.4713123, 44.842857300000006], [19.4716907, 44.8428065]]}},
  {"type":"Feature",
   "properties":{},
   "geometry":
   {"type":"LineString",
    "coordinates":
    [[19.4716907, 44.8428065], [19.4723487, 44.8427382],
     [19.473087200000002, 44.8426516],
     [19.4736081, 44.842582300000004],
     [19.4750534, 44.842414100000006],
     [19.4752446, 44.842399500000006], [19.4753331, 44.8423956],
     [19.4753587, 44.8423998],
     [19.475376500000003, 44.842404800000004],
     [19.4753936, 44.842411500000004],
     [19.475406800000002, 44.842418200000004],
     [19.475424200000003, 44.84243], [19.4754398, 44.8424416]]}},
  {"type":"Feature",
   "properties":{},
   "geometry":
   {"type":"LineString",
    "coordinates":
    [[19.4754398, 44.8424416], [19.4754653, 44.8424257],
     [19.4754882, 44.842411000000006], [19.475536, 44.842386000000005],
     [19.475567100000003, 44.842372600000004],
     [19.4756064, 44.842359200000004],
     [19.475650100000003, 44.842348900000005],
     [19.4756997, 44.8423388], [19.4757991, 44.842321600000005],
     [19.4759621, 44.842302000000004], [19.4761937, 44.8422752],
     [19.4783498, 44.8420153], [19.4811663, 44.841677100000005],
     [19.481344800000002, 44.841655700000004]]}},
  {"type":"Feature",
   "properties":{},
   "geometry":
   {"type":"LineString",
    "coordinates":
    [[19.481344800000002, 44.841655700000004],
     [19.481317800000003, 44.841540300000005],
     [19.4812318, 44.841173100000006]]}},
  {"type":"Feature",
   "properties":{},
   "geometry":
   {"type":"LineString",
    "coordinates":
    [[19.4812318, 44.841173100000006],
     [19.481025900000002, 44.8402946],
     [19.480840800000003, 44.8395187], [19.4805709, 44.8383929]]}},
  {"type":"Feature",
   "properties":{},
   "geometry":
   {"type":"LineString",
    "coordinates":
    [[19.4805709, 44.8383929], [19.4804007, 44.837673200000005]]}},
  {"type":"Feature",
   "properties":{},
   "geometry":
   {"type":"LineString",
    "coordinates":
    [[19.4804007, 44.837673200000005],
     [19.4803927, 44.837640400000005],
     [19.4803415, 44.837425700000004],
     [19.480243400000003, 44.8370108], [19.4802147, 44.8368832],
     [19.4801326, 44.8365376], [19.4801197, 44.836488100000004],
     [19.4801027, 44.8364149], [19.4800831, 44.836336],
     [19.480040000000002, 44.8361433],
     [19.4800064, 44.835998800000006]]}},
  {"type":"Feature",
   "properties":{},
   "geometry":
   {"type":"LineString",
    "coordinates":
    [[19.4800064, 44.835998800000006], [19.4799785, 44.8358878]]}},
  {"type":"Feature",
   "properties":{},
   "geometry":
   {"type":"LineString",
    "coordinates":
    [[19.4799785, 44.8358878], [19.4799368, 44.8357018],
     [19.479894400000003, 44.8355211],
     [19.479832000000002, 44.8352591], [19.4798259, 44.8352336],
     [19.479754800000002, 44.8349294],
     [19.479701900000002, 44.8346825]]}},
  {"type":"Feature",
   "properties":{},
   "geometry":
   {"type":"LineString",
    "coordinates":
    [[19.479701900000002, 44.8346825],
     [19.479644800000003, 44.8344542],
     [19.4796291, 44.834382500000004], [19.479599, 44.8342455]]}},
  {"type":"Feature",
   "properties":{},
   "geometry":
   {"type":"LineString",
    "coordinates":
    [[19.479599, 44.8342455], [19.4795643, 44.834116400000006],
     [19.4795479, 44.834055500000005],
     [19.479497900000002, 44.8338734]]}},
  {"type":"Feature",
   "properties":{},
   "geometry":
   {"type":"LineString",
    "coordinates":
    [[19.479497900000002, 44.8338734], [19.4794373, 44.8336272],
     [19.478829400000002, 44.8311444], [19.4788017, 44.8310313],
     [19.4786895, 44.830650000000006]]}},
  {"type":"Feature",
   "properties":{},
   "geometry":
   {"type":"LineString",
    "coordinates":
    [[19.4786895, 44.830650000000006], [19.4785691, 44.8302643],
     [19.4785444, 44.8301798], [19.4784826, 44.8299432],
     [19.478460300000002, 44.829849200000005],
     [19.478416600000003, 44.829609500000004], [19.478337, 44.8290549],
     [19.478125300000002, 44.8275318],
     [19.478019500000002, 44.826757400000005],
     [19.4779638, 44.8263399],
     [19.477551700000003, 44.823284900000004],
     [19.477283, 44.821249800000004], [19.4772655, 44.820568800000004],
     [19.477272300000003, 44.820427200000005],
     [19.4772776, 44.8203602], [19.4772934, 44.8202063],
     [19.4773074, 44.820097100000005],
     [19.4773207, 44.820012600000005],
     [19.477341300000003, 44.819908600000005],
     [19.477360400000002, 44.8198165],
     [19.477382300000002, 44.8197246],
     [19.4774011, 44.819644100000005],
     [19.477457100000002, 44.819417800000004],
     [19.4776262, 44.818785600000005], [19.4777641, 44.8182659],
     [19.477828000000002, 44.8180258],
     [19.477899800000003, 44.8177407], [19.4779084, 44.8176913],
     [19.477914300000002, 44.8176483],
     [19.477918600000002, 44.8176068],
     [19.4779223, 44.817562200000005], [19.4779275, 44.8175169],
     [19.477929500000002, 44.817474600000004],
     [19.477931400000003, 44.8174293], [19.4779321, 44.8173855],
     [19.4779315, 44.8173382], [19.4779273, 44.8172913],
     [19.477921900000002, 44.8172447],
     [19.477915000000003, 44.8172086],
     [19.477907700000003, 44.817168200000005],
     [19.4778984, 44.8171246],
     [19.477886400000003, 44.817080700000005],
     [19.4778722, 44.8170384], [19.4778524, 44.816974900000005],
     [19.477827100000003, 44.8169071],
     [19.477793700000003, 44.8168206], [19.4777568, 44.8167254],
     [19.477722500000002, 44.8166389],
     [19.4776519, 44.816464100000005],
     [19.4775454, 44.816205000000004],
     [19.4774871, 44.816060300000004], [19.4773755, 44.8157864],
     [19.4773155, 44.815642700000005],
     [19.477258300000003, 44.815518000000004],
     [19.4772237, 44.8154489], [19.4771828, 44.8153778],
     [19.4771599, 44.815341100000005], [19.477138, 44.815310000000004],
     [19.4771222, 44.815287500000004], [19.4770976, 44.8152562],
     [19.477075300000003, 44.8152302],
     [19.4770289, 44.815180500000004],
     [19.4769249, 44.815085800000006],
     [19.4768754, 44.815043200000005], [19.4766437, 44.8148664],
     [19.4765422, 44.814789700000006],
     [19.476442600000002, 44.8147176],
     [19.4763923, 44.814679600000005],
     [19.4763272, 44.814630400000006], [19.4762483, 44.8145722],
     [19.4761439, 44.8144878],
     [19.476080500000002, 44.814431000000006],
     [19.4760424, 44.8143955], [19.476010600000002, 44.8143626],
     [19.4759697, 44.814317300000006],
     [19.475919100000002, 44.814258900000006],
     [19.4758695, 44.8141933], [19.475824300000003, 44.8141337],
     [19.475789900000002, 44.814085000000006],
     [19.475699900000002, 44.8139423], [19.4756588, 44.8138699],
     [19.4756326, 44.813819800000005],
     [19.4755931, 44.813735400000006],
     [19.4755718, 44.813681900000006],
     [19.4755472, 44.813613600000004],
     [19.475525400000002, 44.8135465],
     [19.475509000000002, 44.813482500000006],
     [19.4754988, 44.8134327], [19.4754761, 44.813316300000004],
     [19.4754687, 44.8132649], [19.4754614, 44.813208800000005],
     [19.4754569, 44.8131397],
     [19.475456700000002, 44.813036600000004],
     [19.4754575, 44.812997200000005], [19.4754609, 44.8128947],
     [19.4755052, 44.8121293], [19.4755757, 44.8109089],
     [19.4756252, 44.8100316], [19.4756344, 44.8098667]]}},
  {"type":"Feature",
   "properties":{},
   "geometry":
   {"type":"LineString",
    "coordinates":
    [[19.4756344, 44.8098667], [19.4756435, 44.809701700000005],
     [19.4756481, 44.809628800000006],
     [19.475651600000003, 44.809525400000005],
     [19.475651600000003, 44.809466500000006],
     [19.4756515, 44.8094191], [19.4756512, 44.8093863],
     [19.475649500000003, 44.8093573], [19.4756494, 44.8093401],
     [19.4756457, 44.8092807], [19.475642200000003, 44.8092416],
     [19.4756389, 44.809209100000004],
     [19.475635500000003, 44.8091784], [19.4756226, 44.8091025],
     [19.475605, 44.809019600000006], [19.4755979, 44.8089876],
     [19.4755769, 44.808913200000006], [19.47556, 44.8088618],
     [19.475546100000003, 44.8088235],
     [19.4755313, 44.808786000000005],
     [19.475510800000002, 44.808732500000005],
     [19.4754869, 44.8086767], [19.4754609, 44.8086192],
     [19.475436300000002, 44.8085673], [19.4753317, 44.8083527],
     [19.475264600000003, 44.8082137],
     [19.4750106, 44.807703700000005]]}},
  {"type":"Feature",
   "properties":{},
   "geometry":
   {"type":"LineString",
    "coordinates":
    [[19.4750106, 44.807703700000005],
     [19.474065500000002, 44.805806000000004],
     [19.4735778, 44.804821700000005],
     [19.4725927, 44.802844300000004], [19.4717922, 44.8012366],
     [19.4717719, 44.8011971], [19.471747, 44.8011503],
     [19.4717175, 44.8010954], [19.4716773, 44.8010241],
     [19.471658, 44.8009895], [19.4716241, 44.8009344],
     [19.4715962, 44.800889100000006], [19.4715573, 44.8008311],
     [19.4714917, 44.8007403], [19.4714688, 44.800710300000006],
     [19.4714299, 44.8006619],
     [19.470616800000002, 44.799750100000004],
     [19.470588600000003, 44.7994763]]}},
  {"type":"Feature",
   "properties":{},
   "geometry":
   {"type":"LineString",
    "coordinates":
    [[19.470588600000003, 44.7994763],
     [19.470560000000003, 44.799319000000004],
     [19.470475200000003, 44.799238900000006]]}},
  {"type":"Feature",
   "properties":{},
   "geometry":
   {"type":"LineString",
    "coordinates":
    [[19.470475200000003, 44.799238900000006],
     [19.4704346, 44.7991864], [19.4702904, 44.7983338],
     [19.4701768, 44.797946], [19.469893000000003, 44.7973451],
     [19.467518600000002, 44.792750700000006],
     [19.4669755, 44.7917094], [19.4669284, 44.7913897]]}},
  {"type":"Feature",
   "properties":{},
   "geometry":
   {"type":"LineString",
    "coordinates":
    [[19.4669284, 44.7913897], [19.466531, 44.7906897],
     [19.4663702, 44.7903053],
     [19.465573000000003, 44.788544300000005],
     [19.4650597, 44.7876411], [19.464775900000003, 44.7872852],
     [19.464589, 44.7867514], [19.4642936, 44.785977100000004],
     [19.463376200000003, 44.784204200000005],
     [19.4630028, 44.783308700000006],
     [19.462330100000003, 44.7819219],
     [19.461580100000003, 44.780560200000004],
     [19.4609878, 44.779452000000006], [19.4608977, 44.7792715],
     [19.459761, 44.7768669], [19.459257700000002, 44.775923000000006],
     [19.4586194, 44.7746142], [19.4579285, 44.773310800000004],
     [19.4575718, 44.7725671], [19.4573502, 44.772002],
     [19.4569747, 44.7715035],
     [19.456404000000003, 44.770264000000005],
     [19.456028500000002, 44.7693336],
     [19.4553714, 44.768211300000004],
     [19.4550522, 44.767518200000005],
     [19.454275000000003, 44.7659827],
     [19.4541961, 44.765742700000004], [19.4541173, 44.7656494],
     [19.4536367, 44.7646284], [19.4535465, 44.764489700000006],
     [19.4530734, 44.763506], [19.4520446, 44.7615944],
     [19.4518527, 44.7610825], [19.4514766, 44.7603869],
     [19.4509027, 44.7592609], [19.4503512, 44.7582242],
     [19.449732700000002, 44.7569442], [19.449375800000002, 44.756027],
     [19.448191400000002, 44.753695], [19.4472743, 44.751940100000006],
     [19.4469765, 44.7513294], [19.4457056, 44.7488346],
     [19.4452801, 44.748033], [19.4441516, 44.7457117],
     [19.4438953, 44.7450471], [19.4423277, 44.7421979],
     [19.4420833, 44.741685600000004],
     [19.4418399, 44.741041800000005],
     [19.441338700000003, 44.740012300000004],
     [19.4406177, 44.738686200000004],
     [19.4402443, 44.737776200000006],
     [19.4401349, 44.737366900000005], [19.4395522, 44.7361528],
     [19.438692800000002, 44.734520200000006],
     [19.437563, 44.732103300000006],
     [19.437383200000003, 44.731873400000005]]}},
  {"type":"Feature",
   "properties":{},
   "geometry":
   {"type":"LineString",
    "coordinates":
    [[19.4366697, 44.7321133],
     [19.437383200000003, 44.731873400000005]]}},
  {"type":"Feature",
   "properties":{},
   "geometry":
   {"type":"LineString",
    "coordinates":
    [[19.4366697, 44.7321133], [19.4356285, 44.729855400000005],
     [19.4336586, 44.7305209], [19.433233700000002, 44.7304843]]}},
  {"type":"Feature",
   "properties":{},
   "geometry":
   {"type":"LineString",
    "coordinates":
    [[19.433233700000002, 44.7304843], [19.4328597, 44.7304432],
     [19.4327107, 44.7288171],
     [19.432615300000002, 44.728046400000004],
     [19.4324723, 44.7275213], [19.4319835, 44.7263229],
     [19.4317928, 44.7261408], [19.4311729, 44.726102700000006],
     [19.430070200000003, 44.7259545]]}},
  {"type":"Feature",
   "properties":{},
   "geometry":
   {"type":"LineString",
    "coordinates":
    [[19.430070200000003, 44.7259545], [19.4301834, 44.7250524],
     [19.4302788, 44.7246035], [19.4305053, 44.724425700000005],
     [19.430587300000003, 44.723508900000006]]}},
  {"type":"Feature",
   "properties":{},
   "geometry":
   {"type":"LineString",
    "coordinates":
    [[19.430731700000003, 44.7209042],
     [19.430815300000003, 44.721062800000006],
     [19.4309596, 44.7212371], [19.431271600000002, 44.7219004],
     [19.4314289, 44.722325100000006],
     [19.431434000000003, 44.7223995], [19.4314289, 44.7224355],
     [19.4313901, 44.7224596], [19.431268600000003, 44.7224912],
     [19.4307945, 44.7225863], [19.4307348, 44.7226093],
     [19.4306838, 44.7226627], [19.4306543, 44.7227656],
     [19.430587300000003, 44.723508900000006]]}},
  {"type":"Feature",
   "properties":{},
   "geometry":
   {"type":"LineString",
    "coordinates":
    [[19.4328289, 44.7127002], [19.4327817, 44.7127891],
     [19.4327574, 44.7128523], [19.4327373, 44.712910900000004],
     [19.4327192, 44.7129679], [19.4327082, 44.7130098],
     [19.4326969, 44.713070900000005],
     [19.432805000000002, 44.7136933], [19.433059800000002, 44.71426],
     [19.432964600000002, 44.7154169],
     [19.4328894, 44.715748000000005],
     [19.432450600000003, 44.7167158],
     [19.4315645, 44.718408000000004],
     [19.431176800000003, 44.719384000000005],
     [19.4310771, 44.719502000000006], [19.4306673, 44.7197539],
     [19.4304679, 44.7198955], [19.4305011, 44.720226100000005],
     [19.4306562, 44.7207298], [19.430731700000003, 44.7209042]]}},
  {"type":"Feature",
   "properties":{},
   "geometry":
   {"type":"LineString",
    "coordinates":
    [[19.4328289, 44.7127002], [19.4322974, 44.712529700000005],
     [19.432288500000002, 44.712526800000006]]}},
  {"type":"Feature",
   "properties":{},
   "geometry":
   {"type":"LineString",
    "coordinates":
    [[19.432288500000002, 44.712526800000006],
     [19.4316116, 44.712309700000006],
     [19.431262800000002, 44.7121998], [19.4302369, 44.7118765],
     [19.429081200000002, 44.711510800000006],
     [19.4283027, 44.711256500000005], [19.4273646, 44.7109527]]}},
  {"type":"Feature",
   "properties":{},
   "geometry":
   {"type":"LineString",
    "coordinates":
    [[19.4273646, 44.7109527],
     [19.427184500000003, 44.710898300000004],
     [19.426706300000003, 44.710753700000005],
     [19.426394000000002, 44.710653900000004],
     [19.4260796, 44.7105534]]}},
  {"type":"Feature",
   "properties":{},
   "geometry":
   {"type":"LineString",
    "coordinates":
    [[19.4260796, 44.7105534], [19.425698, 44.710431500000006]]}},
  {"type":"Feature",
   "properties":{},
   "geometry":
   {"type":"LineString",
    "coordinates":
    [[19.425698, 44.710431500000006], [19.4256555, 44.7104178],
     [19.4252067, 44.7102744], [19.425068, 44.710230100000004],
     [19.424224000000002, 44.7099666],
     [19.4240008, 44.709896900000004]]}},
  {"type":"Feature",
   "properties":{},
   "geometry":
   {"type":"LineString",
    "coordinates":
    [[19.4240008, 44.709896900000004], [19.424055000000003, 44.709834],
     [19.4240913, 44.709780200000004], [19.424119700000002, 44.709736],
     [19.424148000000002, 44.709689000000004],
     [19.4243543, 44.7092863]]}},
  {"type":"Feature",
   "properties":{},
   "geometry":
   {"type":"LineString",
    "coordinates":
    [[19.4243543, 44.7092863], [19.425802100000002, 44.7066388],
     [19.426934300000003, 44.7043073], [19.4271546, 44.7038537],
     [19.4274758, 44.703192200000004], [19.4277887, 44.7019279],
     [19.428383800000002, 44.6997292],
     [19.4285485, 44.699088700000004],
     [19.4285529, 44.699071700000005]]}},
  {"type":"Feature",
   "properties":{},
   "geometry":
   {"type":"LineString",
    "coordinates":
    [[19.4285529, 44.699071700000005],
     [19.4285429, 44.698903400000006]]}},
  {"type":"Feature",
   "properties":{},
   "geometry":
   {"type":"LineString",
    "coordinates":
    [[19.4285429, 44.698903400000006], [19.4285164, 44.6987855],
     [19.428055200000003, 44.6980523],
     [19.427401800000002, 44.6971427],
     [19.4270864, 44.696327600000004],
     [19.4267626, 44.695834100000006], [19.4263611, 44.6955272],
     [19.426005800000002, 44.695269100000004],
     [19.425753, 44.695014500000006], [19.4255424, 44.6945935],
     [19.4254369, 44.6932142], [19.4255429, 44.692623600000005],
     [19.4258361, 44.692258800000005],
     [19.4263993, 44.691813100000005],
     [19.4266475, 44.691517700000006],
     [19.4269052, 44.690759400000005]]}},
  {"type":"Feature",
   "properties":{},
   "geometry":
   {"type":"LineString",
    "coordinates":
    [[19.4269052, 44.690759400000005],
     [19.4267197, 44.690689000000006], [19.4251253, 44.6890884],
     [19.4248099, 44.6885186],
     [19.424687300000002, 44.688197800000005],
     [19.424687300000002, 44.687886400000004],
     [19.4247705, 44.687606200000005], [19.4247574, 44.6872729],
     [19.4245647, 44.686460200000006], [19.42435, 44.685258100000006],
     [19.4212078, 44.685254], [19.4194961, 44.685105],
     [19.4177384, 44.6846255], [19.4164661, 44.6840515],
     [19.4095988, 44.680909], [19.4050309, 44.6788308],
     [19.4041827, 44.678562], [19.4022015, 44.678216000000006],
     [19.397069600000002, 44.6774743], [19.3956528, 44.6772525],
     [19.3944708, 44.677067400000006],
     [19.391612000000002, 44.6766884]]}},
  {"type":"Feature",
   "properties":{},
   "geometry":
   {"type":"LineString",
    "coordinates":
    [[19.391612000000002, 44.6766884],
     [19.3914952, 44.676487300000005]]}},
  {"type":"Feature",
   "properties":{},
   "geometry":
   {"type":"LineString",
    "coordinates":
    [[19.3914952, 44.676487300000005], [19.391455, 44.6764238],
     [19.391225300000002, 44.6760608], [19.3910349, 44.6757968],
     [19.390803700000003, 44.675553900000004],
     [19.3904916, 44.675294400000006], [19.3903187, 44.6751749],
     [19.3900553, 44.675005500000005], [19.3892481, 44.6745467],
     [19.3890512, 44.6744238], [19.3888928, 44.6742975],
     [19.388695900000002, 44.6741097],
     [19.388556700000002, 44.6739526], [19.388427, 44.673758],
     [19.3883358, 44.6735224], [19.3882686, 44.673262900000005],
     [19.388250000000003, 44.6730286],
     [19.3882136, 44.671996400000005], [19.3882116, 44.6716731],
     [19.388236900000003, 44.6715072],
     [19.3882893, 44.671241900000005],
     [19.3883943, 44.671028400000004],
     [19.388569200000003, 44.6707589], [19.3890955, 44.6700862],
     [19.389388200000003, 44.669712100000005],
     [19.389589400000002, 44.6693846],
     [19.3897555, 44.669038400000005],
     [19.389892500000002, 44.6686362],
     [19.389967300000002, 44.6682682],
     [19.3899961, 44.667834600000006],
     [19.3899577, 44.667435000000005],
     [19.3898328, 44.666919400000005],
     [19.389708000000002, 44.6665848], [19.3893527, 44.6659257],
     [19.387966600000002, 44.6638212], [19.3877719, 44.6636036]]}},
  {"type":"Feature",
   "properties":{},
   "geometry":
   {"type":"LineString",
    "coordinates":
    [[19.3877719, 44.6636036], [19.3878156, 44.6634772],
     [19.387839, 44.6633155], [19.387971200000003, 44.6629687],
     [19.388068, 44.6624599], [19.388121700000003, 44.6623699],
     [19.3881742, 44.6623201], [19.3882616, 44.66226],
     [19.388364600000003, 44.662220500000004],
     [19.3886688, 44.6621485], [19.3889904, 44.662073400000004],
     [19.389139, 44.6620299], [19.3895802, 44.6618444],
     [19.390079500000002, 44.661728200000006],
     [19.390261900000002, 44.661649700000005],
     [19.3903916, 44.661554100000004],
     [19.3915103, 44.660010500000006], [19.3916687, 44.6598124],
     [19.391808, 44.659682600000004], [19.3918848, 44.6596485],
     [19.3919952, 44.6596246],
     [19.392355300000002, 44.659583600000005],
     [19.392446500000002, 44.6595597],
     [19.3925282, 44.659494800000004],
     [19.3929651, 44.658951800000004], [19.3930371, 44.6588118],
     [19.3930659, 44.6586307],
     [19.393075500000002, 44.658200400000005],
     [19.3931091, 44.657944300000004],
     [19.393240600000002, 44.6573605], [19.3932147, 44.6573159],
     [19.3931907, 44.657247600000005],
     [19.3931763, 44.657141700000004], [19.3931955, 44.657029],
     [19.3932916, 44.6566841], [19.393286800000002, 44.6566362],
     [19.3931955, 44.6565918], [19.3921248, 44.6562196],
     [19.3914911, 44.655946300000004],
     [19.391169400000003, 44.6557619],
     [19.390982100000002, 44.655642400000005],
     [19.390727700000003, 44.6554238],
     [19.390540400000003, 44.6552394],
     [19.390491700000002, 44.6551659], [19.3904684, 44.6551027],
     [19.390478, 44.6550242], [19.3905356, 44.654938800000004],
     [19.3906701, 44.654839800000005], [19.3909629, 44.6546997],
     [19.3912848, 44.6545312], [19.391719300000002, 44.6543061],
     [19.3919448, 44.6541924]]}},
  {"type":"Feature",
   "properties":{},
   "geometry":
   {"type":"LineString",
    "coordinates":
    [[19.3919448, 44.6541924], [19.3918746, 44.654113200000005],
     [19.391797500000003, 44.654037200000005],
     [19.391714, 44.653964800000004], [19.391625700000002, 44.6538972],
     [19.3915317, 44.653833500000005],
     [19.391432400000003, 44.653774000000006],
     [19.390842300000003, 44.653466800000004],
     [19.3907774, 44.6534342], [19.390716400000002, 44.6533979],
     [19.390659900000003, 44.653358100000005],
     [19.3905906, 44.6532986], [19.3905312, 44.653234000000005],
     [19.390500900000003, 44.653193800000004],
     [19.3904749, 44.653152000000006], [19.3904493, 44.6530999],
     [19.3904305, 44.6530463], [19.390418500000003, 44.6529917],
     [19.3904105, 44.6528105], [19.3904314, 44.652679000000006],
     [19.3904697, 44.6525897], [19.390500300000003, 44.6525376],
     [19.3905365, 44.652494700000005]]}},
  {"type":"Feature",
   "properties":{},
   "geometry":
   {"type":"LineString",
    "coordinates":
    [[19.390894600000003, 44.6504883],
     [19.390877200000002, 44.6505074],
     [19.390865100000003, 44.6505446],
     [19.390865700000003, 44.6505906],
     [19.390869900000002, 44.6506678],
     [19.390825200000002, 44.6507647],
     [19.3907826, 44.650845000000004], [19.3906826, 44.6509556],
     [19.3906166, 44.6510131], [19.3905889, 44.6510692],
     [19.3905312, 44.6511829], [19.3902898, 44.651490100000004],
     [19.3900618, 44.651795400000005], [19.3899191, 44.6521005],
     [19.3899167, 44.6521516], [19.3899319, 44.652197300000005],
     [19.3899776, 44.652232100000006],
     [19.3901347, 44.652306700000004],
     [19.3905365, 44.652494700000005]]}},
  {"type":"Feature",
   "properties":{},
   "geometry":
   {"type":"LineString",
    "coordinates":
    [[19.3851982, 44.6490189], [19.385308900000002, 44.6490572],
     [19.385899000000002, 44.649118200000004], [19.386135, 44.6491392],
     [19.386322800000002, 44.6491774], [19.3864918, 44.649206],
     [19.386714400000002, 44.649227], [19.3871918, 44.6492261],
     [19.3873903, 44.6492518], [19.3876707, 44.6492957],
     [19.387894600000003, 44.6493568],
     [19.388227200000003, 44.6495399], [19.3884176, 44.6496468],
     [19.3886161, 44.6497327], [19.3888119, 44.649784200000006],
     [19.389120300000002, 44.64983], [19.389482400000002, 44.64983],
     [19.3897426, 44.649809000000005],
     [19.390029600000002, 44.6498414],
     [19.390313900000002, 44.649868100000006],
     [19.390480200000002, 44.6498853], [19.3905929, 44.6499292],
     [19.390692100000003, 44.6500361], [19.3907163, 44.6501639],
     [19.390740400000002, 44.650280300000006],
     [19.390783300000002, 44.6503719],
     [19.390894600000003, 44.6504883]]}},
  {"type":"Feature",
   "properties":{},
   "geometry":
   {"type":"LineString",
    "coordinates":
    [[19.3851982, 44.6490189], [19.3853376, 44.6487172],
     [19.3854778, 44.648306500000004], [19.3855292, 44.6479105],
     [19.385605, 44.6477543], [19.385661900000002, 44.6474045],
     [19.385781100000003, 44.647111300000006],
     [19.385958900000002, 44.6468359],
     [19.3862121, 44.646535300000004], [19.3865322, 44.6462882],
     [19.386984, 44.6459905], [19.3874464, 44.645765700000005],
     [19.3878188, 44.645663000000006],
     [19.388113800000003, 44.6455544],
     [19.3883669, 44.645375800000004],
     [19.388889900000002, 44.6450826],
     [19.389300000000002, 44.6448429], [19.3897477, 44.6446836],
     [19.390459, 44.644508], [19.3907937, 44.6444276],
     [19.391272800000003, 44.644350200000005],
     [19.3918523, 44.6442222], [19.3922728, 44.6441925],
     [19.392528000000002, 44.6441925],
     [19.392777000000002, 44.644167100000004],
     [19.393095000000002, 44.644048100000006],
     [19.3933816, 44.643957300000004],
     [19.3938071, 44.643906300000005],
     [19.3941075, 44.643778700000006],
     [19.394557300000002, 44.643576200000005],
     [19.394965300000003, 44.643403600000006],
     [19.3953147, 44.6432889], [19.395638100000003, 44.6431911]]}},
  {"type":"Feature",
   "properties":{},
   "geometry":
   {"type":"LineString",
    "coordinates":
    [[19.395638100000003, 44.6431911],
     [19.3959854, 44.643185700000004], [19.396368300000002, 44.643138],
     [19.396809700000002, 44.643023400000004],
     [19.3971403, 44.642941500000006],
     [19.397604700000002, 44.6428686],
     [19.3983327, 44.642831400000006],
     [19.398627700000002, 44.6428493], [19.3990838, 44.6429847],
     [19.3996277, 44.643330000000006], [19.400065, 44.6436769],
     [19.400542, 44.643940300000004], [19.401226100000002, 44.644494],
     [19.401615200000002, 44.6447486],
     [19.4019248, 44.644830400000004],
     [19.402216900000003, 44.644784800000004],
     [19.402529400000002, 44.644665200000006],
     [19.4029792, 44.644541700000005], [19.4033453, 44.644433],
     [19.4035148, 44.6443005], [19.403640300000003, 44.6440817],
     [19.4037554, 44.6438049], [19.403788900000002, 44.6434045],
     [19.4037596, 44.6430443]]}},
  {"type":"Feature",
   "properties":{},
   "geometry":
   {"type":"LineString",
    "coordinates":
    [[19.4037596, 44.6430443], [19.403837000000003, 44.6422018],
     [19.4038893, 44.6418058], [19.4041487, 44.6411449],
     [19.404351600000002, 44.6405018],
     [19.404527400000003, 44.6402398],
     [19.404824400000003, 44.640047800000005],
     [19.4052763, 44.6398498], [19.405623600000002, 44.6397799],
     [19.405924900000002, 44.6396608], [19.4063056, 44.6394047]]}},
  {"type":"Feature",
   "properties":{},
   "geometry":
   {"type":"LineString",
    "coordinates":
    [[19.4063056, 44.6394047], [19.4065274, 44.639230600000005],
     [19.406822400000003, 44.6388942],
     [19.4070609, 44.638758700000004], [19.4075044, 44.6385607],
     [19.4079981, 44.638456500000004], [19.4085044, 44.6382198],
     [19.4087889, 44.637972700000006],
     [19.409012800000003, 44.6378075], [19.4092471, 44.6377211],
     [19.4095337, 44.6377881], [19.409655, 44.637959300000006],
     [19.4096906, 44.638251100000005], [19.4097659, 44.6384595],
     [19.410050400000003, 44.6386188],
     [19.410307800000002, 44.638639600000005],
     [19.410571400000002, 44.6385726],
     [19.4106843, 44.638404400000006],
     [19.4107534, 44.638194500000004], [19.4109866, 44.6379206],
     [19.410995, 44.6376653], [19.411021100000003, 44.637483700000004],
     [19.4111142, 44.637348200000005],
     [19.4112712, 44.637197900000004], [19.411440600000002, 44.636982],
     [19.4115912, 44.636845], [19.4119448, 44.636714000000005],
     [19.4123088, 44.6367051], [19.4125745, 44.6366567],
     [19.412875800000002, 44.6364372], [19.4131749, 44.6361781],
     [19.4133277, 44.636006200000004],
     [19.4134731, 44.635728500000006],
     [19.413773300000003, 44.635273700000006],
     [19.413911300000002, 44.634937300000004],
     [19.4139595, 44.6347259], [19.413913400000002, 44.6345272],
     [19.413804600000002, 44.6343924], [19.4136718, 44.6343284],
     [19.413631000000002, 44.634250200000004],
     [19.4136697, 44.6341453], [19.4139249, 44.6339227],
     [19.4141289, 44.633838600000004],
     [19.414516000000003, 44.6336853],
     [19.4148716, 44.633447800000006],
     [19.415071400000002, 44.633334700000006],
     [19.4154218, 44.6332267], [19.415834, 44.6331195],
     [19.4161216, 44.633071900000004],
     [19.4164292, 44.633032500000006], [19.4167367, 44.6329372],
     [19.4170327, 44.632790500000006], [19.4172513, 44.632722],
     [19.417480400000002, 44.6327243], [19.4177053, 44.6327258],
     [19.4178643, 44.6327444], [19.4180505, 44.632810600000006],
     [19.418173900000003, 44.6328776],
     [19.418335000000003, 44.6330205], [19.4184449, 44.6331672],
     [19.4185442, 44.633220800000004], [19.4187513, 44.6332059],
     [19.4190045, 44.6331538], [19.419203200000002, 44.6331471],
     [19.4193716, 44.6331806], [19.4195296, 44.6332736],
     [19.4196886, 44.633453800000005], [19.4197932, 44.6335081],
     [19.419939600000003, 44.6335342],
     [19.420209500000002, 44.633573600000005],
     [19.420492000000003, 44.6336287],
     [19.420608100000003, 44.6337083],
     [19.420650900000002, 44.6338111],
     [19.420643600000002, 44.6339071],
     [19.4205641, 44.634038800000006],
     [19.4203131, 44.634207800000006], [19.420221, 44.634306800000005],
     [19.420202200000002, 44.634353700000005],
     [19.4202294, 44.6344207], [19.4203581, 44.634459400000004],
     [19.420505600000002, 44.6345011], [19.4206106, 44.6345764],
     [19.4206591, 44.634666700000004], [19.4207493, 44.6348003],
     [19.4207995, 44.6349492], [19.420899900000002, 44.6351025],
     [19.421006600000002, 44.635241], [19.4211405, 44.6353437],
     [19.4212053, 44.635372000000004],
     [19.421305800000003, 44.6353675], [19.4213706, 44.6353273],
     [19.4213832, 44.6352455], [19.4213476, 44.6351487],
     [19.421303700000003, 44.6349626],
     [19.421299700000002, 44.6348302],
     [19.421284800000002, 44.6345979],
     [19.421324600000002, 44.6344088],
     [19.421391500000002, 44.6342629],
     [19.421521300000002, 44.634121500000006],
     [19.421730500000002, 44.6339905], [19.4218811, 44.6338833],
     [19.4219815, 44.6337999], [19.4220903, 44.633719500000005],
     [19.4221635, 44.633689700000005],
     [19.422312100000003, 44.6337076],
     [19.4224752, 44.633743300000006],
     [19.422609100000003, 44.633759700000006], [19.4227388, 44.633718],
     [19.4228267, 44.6336183],
     [19.422874800000002, 44.633500700000006],
     [19.4228853, 44.633328000000006],
     [19.422925000000003, 44.633261000000005],
     [19.4230464, 44.633185100000006],
     [19.423159300000002, 44.633131500000005], [19.42322, 44.6330213],
     [19.423192800000002, 44.632866500000006],
     [19.4231342, 44.6326461], [19.4230506, 44.6324302],
     [19.4230485, 44.632291800000004], [19.4231175, 44.6321712],
     [19.4231363, 44.6320521], [19.423075700000002, 44.6319419],
     [19.4229501, 44.6318332],
     [19.422860200000002, 44.631767700000005],
     [19.422820400000003, 44.6316799],
     [19.422858100000003, 44.6315563],
     [19.422910400000003, 44.6314104], [19.4230234, 44.6313271],
     [19.423128000000002, 44.6313107], [19.4232514, 44.6313271],
     [19.423391600000002, 44.631339000000004],
     [19.4234669, 44.6313181], [19.4235401, 44.6312556],
     [19.423607, 44.630868500000005], [19.4237012, 44.630560300000006],
     [19.4238079, 44.6303429],
     [19.424023400000003, 44.629996000000006],
     [19.424257700000002, 44.6295926], [19.4242974, 44.6294571],
     [19.4242619, 44.629345400000005], [19.4241928, 44.6292114],
     [19.424213700000003, 44.6290923],
     [19.4242849, 44.628953900000006],
     [19.4242828, 44.628854100000005], [19.4241719, 44.6286337],
     [19.4240359, 44.6284104], [19.4239794, 44.6281886],
     [19.4239439, 44.6279042], [19.4239794, 44.627646600000006],
     [19.4240631, 44.6272163], [19.4242807, 44.626839600000004],
     [19.4244983, 44.626528400000005],
     [19.424680300000002, 44.626378100000004],
     [19.4248811, 44.626212800000005], [19.4252033, 44.6259492],
     [19.425423000000002, 44.6257601],
     [19.4254941, 44.625745300000005],
     [19.4255527, 44.625758700000006],
     [19.425596600000002, 44.6258137],
     [19.425613300000002, 44.625904600000005],
     [19.4254794, 44.6263081],
     [19.425440100000003, 44.626469400000005],
     [19.4254347, 44.6265438], [19.4254535, 44.6266211],
     [19.425508500000003, 44.6267061], [19.425542, 44.626771000000005],
     [19.425536700000002, 44.6268492], [19.4254937, 44.626918],
     [19.425344900000002, 44.6270249], [19.4252778, 44.6271069],
     [19.4252389, 44.627194700000004],
     [19.4252255, 44.627298800000005],
     [19.425265800000002, 44.6273933],
     [19.425361000000002, 44.6274925],
     [19.425501800000003, 44.6276157],
     [19.425582300000002, 44.627729200000005],
     [19.4256493, 44.6278352], [19.4257016, 44.627968800000005],
     [19.4257633, 44.6280518], [19.4258411, 44.6281072],
     [19.4259376, 44.628154900000006], [19.4260664, 44.6282179],
     [19.4261737, 44.628295200000004],
     [19.4262528, 44.628354400000006], [19.4263266, 44.628383],
     [19.426417800000003, 44.628399300000005],
     [19.4265264, 44.6283868], [19.4268107, 44.6283382],
     [19.4269609, 44.628332400000005],
     [19.4270843, 44.628357300000005], [19.4271862, 44.6284317],
     [19.4272372, 44.628516700000006], [19.4272855, 44.6286531],
     [19.4273539, 44.6287285],
     [19.427454400000002, 44.628787700000004],
     [19.427686400000002, 44.628873600000006],
     [19.427803100000002, 44.6288946],
     [19.4279453, 44.628893700000006], [19.4281076, 44.6288908],
     [19.428208100000003, 44.628909900000004],
     [19.428475000000002, 44.6289662],
     [19.4287379, 44.629029200000005], [19.429010100000003, 44.629075],
     [19.4291939, 44.6290817],
     [19.429576100000002, 44.629049200000004],
     [19.429758500000002, 44.629029200000005],
     [19.429942200000003, 44.6290196], [19.4300897, 44.6290034],
     [19.430209100000003, 44.628955700000006],
     [19.430268100000003, 44.6288908],
     [19.430290900000003, 44.6288144],
     [19.430270800000002, 44.6286951], [19.430205, 44.628494700000005],
     [19.4301447, 44.628372500000005],
     [19.430143400000002, 44.628290500000006],
     [19.430189000000002, 44.6282208], [19.4303083, 44.6281721],
     [19.4304384, 44.628151100000004], [19.430551, 44.628070900000004],
     [19.4306355, 44.627973600000004], [19.4306932, 44.6278676],
     [19.430775, 44.627813200000006], [19.4308716, 44.627798000000006],
     [19.4309896, 44.6278123], [19.431117, 44.6278505],
     [19.431350300000002, 44.627923900000006],
     [19.4314791, 44.627973600000004],
     [19.431562200000002, 44.628022300000005],
     [19.4316414, 44.628046100000006], [19.4317393, 44.6280518],
     [19.4318707, 44.628037500000005], [19.432092, 44.627985],
     [19.432350800000002, 44.6279029], [19.432448700000002, 44.627859],
     [19.432517100000002, 44.627816100000004],
     [19.4325909, 44.6277569], [19.4326861, 44.627693],
     [19.432844300000003, 44.627631900000004],
     [19.432983800000002, 44.627587000000005],
     [19.433211800000002, 44.6275479], [19.4333928, 44.6275202],
     [19.4335109, 44.627491600000006], [19.4336074, 44.6274486],
     [19.433639600000003, 44.6273904],
     [19.433628900000002, 44.6273484], [19.4335659, 44.6273007],
     [19.433446500000002, 44.6272778], [19.4333741, 44.6273016],
     [19.433245300000003, 44.6273665], [19.4330938, 44.6274238],
     [19.432879200000002, 44.627489700000005],
     [19.4325332, 44.627580300000005], [19.4323012, 44.6276481],
     [19.4321872, 44.6276767], [19.4320263, 44.627689200000006],
     [19.431908200000002, 44.6276844], [19.431805, 44.6276643],
     [19.4316803, 44.627625200000004], [19.4315193, 44.627588],
     [19.431425400000002, 44.6275679], [19.4312726, 44.6275202],
     [19.4311854, 44.6274706], [19.431121, 44.627399000000004],
     [19.4310768, 44.627316900000004],
     [19.4310486, 44.627223400000005], [19.4310338, 44.6271537],
     [19.4310164, 44.627105], [19.4309561, 44.6270554],
     [19.4308877, 44.627023900000005],
     [19.4307589, 44.627021000000006],
     [19.4306436, 44.627043900000004], [19.4305671, 44.6270802],
     [19.4305564, 44.6271556], [19.4305229, 44.6272444],
     [19.430443800000003, 44.6273312],
     [19.4303566, 44.627380900000006], [19.4302372, 44.6274047],
     [19.4301152, 44.6273933], [19.4300414, 44.6273646],
     [19.429942200000003, 44.627294000000006],
     [19.429833600000002, 44.6272224], [19.4297343, 44.6271928],
     [19.429615000000002, 44.627194700000004],
     [19.4295224, 44.627223400000005], [19.429400400000002, 44.627273],
     [19.429279700000002, 44.6273532], [19.4291965, 44.6273866],
     [19.429117400000003, 44.6273914], [19.4290115, 44.627358],
     [19.428914900000002, 44.627287300000006],
     [19.428842500000002, 44.627208100000004],
     [19.428794200000002, 44.6271136],
     [19.428780800000002, 44.627015300000004],
     [19.428798200000003, 44.6269141],
     [19.4288841, 44.626788100000006],
     [19.428973900000003, 44.6266765],
     [19.4290866, 44.626518000000004], [19.429163000000003, 44.626373],
     [19.429250200000002, 44.6260971],
     [19.429309200000002, 44.625888100000004],
     [19.429352100000003, 44.625725800000005],
     [19.4294741, 44.625508200000006],
     [19.429546600000002, 44.6253249],
     [19.429648500000003, 44.625157900000005],
     [19.429869800000002, 44.6249126],
     [19.430029400000002, 44.6247637], [19.430138, 44.6246883],
     [19.4302895, 44.6245823],
     [19.430473300000003, 44.624421000000005],
     [19.430577900000003, 44.624278800000006],
     [19.430678500000003, 44.6241586], [19.4307898, 44.6240364],
     [19.4308313, 44.623941900000005], [19.4308474, 44.6238292],
     [19.4308528, 44.623737600000005], [19.430885, 44.6236813],
     [19.430952, 44.623665100000004], [19.4310312, 44.623662200000005],
     [19.4311398, 44.623646], [19.4312229, 44.623620200000005],
     [19.4312806, 44.623571500000004], [19.4313088, 44.6235018],
     [19.431304700000002, 44.623398800000004],
     [19.4313101, 44.6232957], [19.4313423, 44.623233600000006],
     [19.4313986, 44.623189700000005],
     [19.431487100000002, 44.623169700000005], [19.4316253, 44.62312],
     [19.4317272, 44.623034100000005], [19.4317835, 44.622953],
     [19.4318439, 44.622843200000005], [19.4318452, 44.6227602],
     [19.431803600000002, 44.622694300000006], [19.4317084, 44.622639],
     [19.4316172, 44.622588400000005], [19.4315542, 44.6225273],
     [19.4315314, 44.622468100000006],
     [19.4315408, 44.622388900000004],
     [19.4315904, 44.622335400000004], [19.4317044, 44.6222791],
     [19.4319941, 44.6221875], [19.4321121, 44.622135],
     [19.4322087, 44.622075800000005],
     [19.432299800000003, 44.622007100000005], [19.4324085, 44.621966],
     [19.4325024, 44.621940200000004],
     [19.4326298, 44.621920200000005],
     [19.432710200000002, 44.6218887], [19.4327679, 44.6218438],
     [19.432798700000003, 44.6217866], [19.4328296, 44.6216997],
     [19.432894, 44.6214658], [19.4329436, 44.6213064],
     [19.4329691, 44.621169900000005],
     [19.432981100000003, 44.6210449]]}},
  {"type":"Feature",
   "properties":{},
   "geometry":
   {"type":"LineString",
    "coordinates":
    [[19.432981100000003, 44.6210449], [19.4330354, 44.6209422],
     [19.4330737, 44.6209046], [19.433127300000002, 44.620874],
     [19.433414300000003, 44.620734600000006],
     [19.433899800000003, 44.6205056],
     [19.434323600000003, 44.6203566],
     [19.4347393, 44.620238300000004],
     [19.435109500000003, 44.6201428], [19.435206, 44.620091300000006],
     [19.435426, 44.619908], [19.4357291, 44.619654100000005],
     [19.4359329, 44.6194861], [19.436364700000002, 44.6192799],
     [19.4365874, 44.6191711], [19.436692, 44.619165300000006],
     [19.4367671, 44.6192111], [19.436869, 44.619327600000005],
     [19.436968200000003, 44.619467], [19.436987000000002, 44.6196083],
     [19.4369441, 44.619801100000004], [19.4370192, 44.6200015],
     [19.437257900000002, 44.620047400000004],
     [19.4374913, 44.6200283], [19.4377836, 44.6199729],
     [19.4380384, 44.619866], [19.4383844, 44.6197304],
     [19.4385561, 44.619669300000005],
     [19.438786800000003, 44.6196445], [19.4389504, 44.6197018],
     [19.4391006, 44.6198488], [19.4393232, 44.620148500000006],
     [19.4396075, 44.6205743], [19.4398597, 44.6209294],
     [19.4400206, 44.621101200000005], [19.4401118, 44.6211852],
     [19.4402781, 44.621236700000004],
     [19.4405195, 44.621248200000004], [19.4407448, 44.6212005],
     [19.4410506, 44.621105], [19.4412866, 44.6210267],
     [19.441659400000002, 44.6209981],
     [19.441890100000002, 44.621045800000005],
     [19.442051000000003, 44.6211661], [19.4421556, 44.621336],
     [19.442297800000002, 44.6214372],
     [19.4424399, 44.621456300000006],
     [19.442701500000002, 44.6214238],
     [19.4429093, 44.621407600000005],
     [19.443149400000003, 44.621454400000005],
     [19.4435195, 44.621538400000006], [19.4436898, 44.6215556],
     [19.443828, 44.6215145], [19.444001, 44.6213799],
     [19.4441257, 44.621245300000005],
     [19.4442424, 44.621172800000004], [19.4444382, 44.6211251],
     [19.4446367, 44.621103100000006],
     [19.4448392, 44.621107900000005], [19.4450082, 44.6211375],
     [19.445229400000002, 44.621216700000005],
     [19.4454038, 44.6213045], [19.4455634, 44.6213904],
     [19.4456868, 44.6214353], [19.445816800000003, 44.6214639],
     [19.4460073, 44.621474400000004],
     [19.446220500000003, 44.621467700000004],
     [19.4464364, 44.6214735],
     [19.446555800000002, 44.621487800000004],
     [19.446735500000003, 44.6215422], [19.4469487, 44.621631],
     [19.447125800000002, 44.621687300000005],
     [19.447282700000002, 44.621687300000005],
     [19.4474436, 44.6216577], [19.4475589, 44.6216023],
     [19.4477078, 44.621487800000004],
     [19.447840600000003, 44.6213217], [19.4479559, 44.6210869],
     [19.4480551, 44.620896], [19.4481812, 44.620665],
     [19.4482389, 44.6204845], [19.4482402, 44.620328],
     [19.448196000000003, 44.6201342],
     [19.4480793, 44.619687500000005],
     [19.4480028, 44.619323800000004],
     [19.447925100000003, 44.6189954],
     [19.447879500000003, 44.6188179],
     [19.447886200000003, 44.6186957],
     [19.4479948, 44.618642200000004], [19.4481302, 44.6186212],
     [19.4483488, 44.618642200000004], [19.4485661, 44.6186279],
     [19.4486586, 44.618602100000004],
     [19.448952300000002, 44.618483700000006],
     [19.449437800000002, 44.618206900000004],
     [19.4495478, 44.618138200000004],
     [19.449676500000002, 44.6180007],
     [19.449724800000002, 44.6178499],
     [19.449797200000003, 44.6176132], [19.4498858, 44.617342],
     [19.4499877, 44.617132000000005],
     [19.450086900000002, 44.616969700000006], [19.4502411, 44.616902],
     [19.450400700000003, 44.616860900000006],
     [19.4506596, 44.616770200000005],
     [19.450937200000002, 44.6166385],
     [19.451135700000002, 44.616542100000004],
     [19.451378400000003, 44.6164647],
     [19.451513900000002, 44.6164208],
     [19.451583600000003, 44.6163807],
     [19.451645300000003, 44.616297700000004],
     [19.4516962, 44.616162100000004], [19.4517405, 44.6160657],
     [19.4518236, 44.6159321],
     [19.451971200000003, 44.615784100000006],
     [19.452176400000003, 44.615655200000006],
     [19.4523681, 44.6155483], [19.4526685, 44.615422300000006],
     [19.4527705, 44.615364], [19.4529663, 44.615239],
     [19.4531165, 44.615176000000005],
     [19.4532989, 44.615132100000004],
     [19.4534263, 44.615109100000005], [19.453551, 44.615113],
     [19.453670300000002, 44.615133], [19.453907700000002, 44.6152056],
     [19.4541733, 44.6152839], [19.4543396, 44.615360200000005],
     [19.4544804, 44.615444200000006],
     [19.454674800000003, 44.615582700000004],
     [19.4550021, 44.615813700000004], [19.455228700000003, 44.615996],
     [19.45534, 44.6160791], [19.455440600000003, 44.6161192],
     [19.4555452, 44.6161297],
     [19.455652500000003, 44.616115300000004],
     [19.455775900000003, 44.6160724],
     [19.4558939, 44.616004600000004],
     [19.4560602, 44.615889100000004], [19.4562439, 44.6157192],
     [19.4563968, 44.615579800000006], [19.4565631, 44.6154662],
     [19.4567227, 44.6153994], [19.4568488, 44.615400300000005],
     [19.4569695, 44.6154261], [19.4570607, 44.6154719],
     [19.4572162, 44.615524400000005],
     [19.457357000000002, 44.615524400000005],
     [19.4575086, 44.6154853], [19.4576722, 44.6154213],
     [19.4578197, 44.615400300000005],
     [19.457967200000002, 44.6154194],
     [19.4581175, 44.615457600000006], [19.4583213, 44.6155149],
     [19.4585842, 44.6155206], [19.459024000000003, 44.6155053],
     [19.4593379, 44.6154996], [19.4598689, 44.615413700000005],
     [19.460123600000003, 44.615315800000005]]}},
  {"type":"Feature",
   "properties":{},
   "geometry":
   {"type":"LineString",
    "coordinates":
    [[19.460123600000003, 44.615315800000005],
     [19.460271300000002, 44.615259], [19.4608533, 44.614965000000005],
     [19.4613763, 44.614671], [19.4617572, 44.6144151],
     [19.4618484, 44.6143445], [19.4619101, 44.6142624],
     [19.4618806, 44.614077200000004],
     [19.4618806, 44.613956900000005], [19.4619235, 44.6138671],
     [19.462022700000002, 44.6137698],
     [19.4623178, 44.613576900000005],
     [19.4625297, 44.613450900000004], [19.4626987, 44.6134223],
     [19.462814, 44.613466200000005], [19.4629535, 44.6136075],
     [19.4629857, 44.6137717], [19.4631037, 44.614092400000004],
     [19.4631627, 44.6143025], [19.4632727, 44.614502900000005],
     [19.4634711, 44.6147149], [19.4636991, 44.6149593],
     [19.463841300000002, 44.615247600000004],
     [19.464023700000002, 44.6153679]]}},
  {"type":"Feature",
   "properties":{},
   "geometry":
   {"type":"LineString",
    "coordinates":
    [[19.464023700000002, 44.6153679],
     [19.4641685, 44.615427000000004], [19.4645923, 44.6155149],
     [19.4649329, 44.6156523], [19.4652065, 44.615724900000004],
     [19.4661346, 44.615740200000005], [19.4663304, 44.6157917],
     [19.4665369, 44.6158185], [19.466730000000002, 44.615786],
     [19.4668561, 44.6156829], [19.4669285, 44.615408],
     [19.4669956, 44.6153125], [19.4671109, 44.6152438],
     [19.4673094, 44.6152189], [19.4676098, 44.6152266],
     [19.467832400000002, 44.615209400000005],
     [19.4679182, 44.6151865],
     [19.468076500000002, 44.615089100000006],
     [19.468154300000002, 44.6149077],
     [19.4682526, 44.614721700000004], [19.4683099, 44.6146156],
     [19.4683555, 44.6143865], [19.4684037, 44.614079100000005],
     [19.468468100000003, 44.6139626],
     [19.4688436, 44.613657100000005],
     [19.468972400000002, 44.6135521], [19.469027, 44.613540400000005],
     [19.4691601, 44.613512], [19.469423000000003, 44.613575000000004],
     [19.4694867, 44.6135995], [19.4696214, 44.6136514],
     [19.4698172, 44.6137583], [19.4700345, 44.613876700000006],
     [19.4701901, 44.6138977], [19.4703698, 44.6138538],
     [19.4706863, 44.6137564], [19.470769400000002, 44.6136953],
     [19.470962500000002, 44.613439400000004],
     [19.4713005, 44.6130824],
     [19.471493600000002, 44.612968800000004],
     [19.471692100000002, 44.6128981],
     [19.471976400000003, 44.6128924],
     [19.472377400000003, 44.6128809],
     [19.4725839, 44.612883800000006],
     [19.472738200000002, 44.6128361],
     [19.4729595, 44.612717700000005],
     [19.4731405, 44.612586900000004], [19.473347, 44.612461800000005],
     [19.4735844, 44.6123368], [19.473756100000003, 44.6122098],
     [19.4739559, 44.612009300000004], [19.4741557, 44.6118413],
     [19.4742684, 44.611780200000005], [19.474385, 44.6117506],
     [19.4744816, 44.6117525], [19.4745943, 44.611766800000005],
     [19.4747552, 44.611806900000005], [19.4750985, 44.6118776],
     [19.4753748, 44.6118947],
     [19.475656400000002, 44.611848900000005],
     [19.475892400000003, 44.611700000000006],
     [19.475999700000003, 44.611518600000004],
     [19.476120400000003, 44.611320000000006],
     [19.476289400000002, 44.6111042], [19.476512, 44.6109171],
     [19.477051200000002, 44.6107567],
     [19.477365000000002, 44.6107014],
     [19.477622500000003, 44.610663200000005],
     [19.477880000000003, 44.6105601], [19.478057, 44.6104818],
     [19.478287700000003, 44.6104646], [19.4785183, 44.6105219],
     [19.4787812, 44.610581100000005],
     [19.4790226, 44.610556200000005], [19.4793418, 44.6104665],
     [19.479725300000002, 44.6103176], [19.4799238, 44.6102641],
     [19.480178600000002, 44.610245000000006],
     [19.4805166, 44.6102526],
     [19.481130800000003, 44.610321400000004],
     [19.481372200000003, 44.6103195],
     [19.4815143, 44.610285100000006],
     [19.481643100000003, 44.6102373], [19.4819891, 44.6100178],
     [19.4822144, 44.609847800000004],
     [19.482345900000002, 44.6098115],
     [19.482555100000003, 44.6098287], [19.4826033, 44.6098459],
     [19.482842100000003, 44.609983400000004],
     [19.4830647, 44.610120900000005], [19.483298, 44.6101705],
     [19.4835448, 44.610199200000004],
     [19.4837245, 44.610107500000005],
     [19.4838479, 44.609945200000006],
     [19.4839713, 44.609765700000004],
     [19.484126800000002, 44.6095709],
     [19.4843763, 44.609412400000004],
     [19.4856208, 44.608885400000005],
     [19.486092300000003, 44.6088253],
     [19.4863779, 44.608932800000005],
     [19.4866396, 44.608821400000004], [19.4869649, 44.6086341],
     [19.4873428, 44.6086296], [19.4877922, 44.608490800000006],
     [19.488204500000002, 44.6081492],
     [19.488694600000002, 44.6079421],
     [19.489185000000003, 44.6078485], [19.4897621, 44.6078696],
     [19.490061100000002, 44.6078616],
     [19.4906814, 44.607519700000005], [19.4909477, 44.6073387],
     [19.491149200000002, 44.607243600000004],
     [19.4912688, 44.6072086], [19.4921848, 44.6072348],
     [19.4926262, 44.6072398], [19.493001, 44.607156100000005],
     [19.493129200000002, 44.6069903], [19.4930774, 44.6068696],
     [19.492929, 44.6068452], [19.4926348, 44.606857600000005],
     [19.492065800000002, 44.6066555],
     [19.491804700000003, 44.606526300000006],
     [19.4917103, 44.606436800000004], [19.4916562, 44.6062402],
     [19.4919605, 44.605931000000005],
     [19.4921386, 44.605581900000004], [19.492144, 44.6054291],
     [19.491894600000002, 44.605189900000006], [19.4913093, 44.60515],
     [19.4908672, 44.605070100000006],
     [19.490756400000002, 44.604858400000005],
     [19.490813900000003, 44.6045968],
     [19.491569900000002, 44.6038274],
     [19.491657800000002, 44.603543800000004],
     [19.4914874, 44.6033446], [19.4913731, 44.603175300000004],
     [19.491344400000003, 44.6029245],
     [19.4914205, 44.602883600000006]]}},
  {"type":"Feature",
   "properties":{},
   "geometry":
   {"type":"LineString",
    "coordinates":
    [[19.4940135, 44.6027976], [19.4937694, 44.602763200000005],
     [19.4934824, 44.602746], [19.493342900000002, 44.602747900000004],
     [19.4932491, 44.6028406], [19.493137700000002, 44.603022],
     [19.4929902, 44.603228200000004], [19.4928762, 44.603382],
     [19.4927971, 44.6035319], [19.4926831, 44.6035109],
     [19.4925691, 44.6034116], [19.4924095, 44.603230100000005],
     [19.492283500000003, 44.603114600000005],
     [19.492140000000003, 44.603032500000005],
     [19.491836900000003, 44.6030038],
     [19.4914205, 44.602883600000006]]}}]}
