{"type":"FeatureCollection",
 "properties":{},
 "features":
 [{"type":"Feature",
   "properties":{},
   "geometry":
   {"type":"LineString",
    "coordinates":
    [[20.244645600000002, 44.1410903],
     [20.244425800000002, 44.1410039], [20.2442327, 44.1409317],
     [20.2439538, 44.1408336], [20.2435735, 44.1407079],
     [20.243475, 44.1406738], [20.2433476, 44.140619900000004],
     [20.2432322, 44.140567000000004], [20.2431454, 44.1405231]]}},
  {"type":"Feature",
   "properties":{},
   "geometry":
   {"type":"LineString",
    "coordinates":
    [[20.2431454, 44.1405231], [20.2430622, 44.140474700000006],
     [20.242615400000002, 44.1402177], [20.2423013, 44.1400376],
     [20.2421352, 44.1399453], [20.241984600000002, 44.1398682],
     [20.241775800000003, 44.139766200000004],
     [20.241639000000003, 44.1397029],
     [20.241436200000003, 44.1396199], [20.2411335, 44.1395071],
     [20.2409618, 44.1394438], [20.2408524, 44.139395300000004],
     [20.240748500000002, 44.1393399], [20.2406796, 44.13929],
     [20.2406177, 44.139238000000006],
     [20.2405702, 44.139191700000005],
     [20.240519300000003, 44.1391271], [20.2404803, 44.1390704],
     [20.2404535, 44.139023200000004],
     [20.2404163, 44.138942300000004], [20.2403945, 44.1388933],
     [20.2403711, 44.1388167], [20.2403623, 44.1387749],
     [20.2403607, 44.1387208], [20.2403623, 44.1386854],
     [20.240377000000002, 44.138644], [20.2403972, 44.1386065],
     [20.240426600000003, 44.1385741]]}},
  {"type":"Feature",
   "properties":{},
   "geometry":
   {"type":"LineString",
    "coordinates":
    [[20.235597000000002, 44.138750900000005],
     [20.2358192, 44.138754500000005], [20.2362551, 44.1387602],
     [20.236842900000003, 44.138774600000005],
     [20.2372668, 44.1387717], [20.2378666, 44.138754500000005],
     [20.238844, 44.1387767], [20.2391998, 44.138781400000006],
     [20.2394061, 44.1387817],
     [20.239544000000002, 44.138779400000004], [20.2396126, 44.138773],
     [20.2396838, 44.1387651], [20.2397628, 44.138752800000006],
     [20.240058700000002, 44.138679], [20.2402483, 44.1386344],
     [20.2403234, 44.1386113], [20.240426600000003, 44.1385741]]}},
  {"type":"Feature",
   "properties":{},
   "geometry":
   {"type":"LineString",
    "coordinates":
    [[20.235597000000002, 44.138750900000005],
     [20.235147400000002, 44.1387],
     [20.234727600000003, 44.138611000000004],
     [20.234407700000002, 44.138499100000004], [20.2341157, 44.13837],
     [20.233733, 44.1382567], [20.2335563, 44.1382394],
     [20.2329073, 44.13821], [20.232493100000003, 44.1382029],
     [20.232008200000003, 44.1382354],
     [20.231729700000002, 44.1382313],
     [20.231353600000002, 44.138214100000006],
     [20.2310793, 44.1381603],
     [20.230814900000002, 44.138098400000004],
     [20.2305421, 44.1380731]]}},
  {"type":"Feature",
   "properties":{},
   "geometry":
   {"type":"LineString",
    "coordinates":
    [[20.2253745, 44.1360803], [20.2255372, 44.136093800000005],
     [20.2257122, 44.1362133], [20.2258558, 44.1362911],
     [20.2265528, 44.1365792], [20.2267799, 44.136813000000004],
     [20.2275697, 44.1372027], [20.228705100000003, 44.1375357],
     [20.2297417, 44.137897], [20.2305421, 44.1380731]]}},
  {"type":"Feature",
   "properties":{},
   "geometry":
   {"type":"LineString",
    "coordinates":
    [[20.2248391, 44.1362584], [20.2250082, 44.1362285],
     [20.2251559, 44.1361903], [20.2253745, 44.1360803]]}},
  {"type":"Feature",
   "properties":{},
   "geometry":
   {"type":"LineString",
    "coordinates":
    [[20.224389600000002, 44.1362042],
     [20.2245774, 44.136250100000005],
     [20.224712800000002, 44.1362697], [20.2248391, 44.1362584]]}},
  {"type":"Feature",
   "properties":{},
   "geometry":
   {"type":"LineString",
    "coordinates":
    [[20.2177259, 44.1399788], [20.2184376, 44.139420300000005],
     [20.2193064, 44.1392007], [20.219898800000003, 44.1390236],
     [20.2207478, 44.138258400000005], [20.2212414, 44.1376562],
     [20.221893, 44.1372098], [20.2228128, 44.1368522],
     [20.223828, 44.136395], [20.224124200000002, 44.1362108],
     [20.2242529, 44.1361931], [20.224389600000002, 44.1362042]]}},
  {"type":"Feature",
   "properties":{},
   "geometry":
   {"type":"LineString",
    "coordinates":
    [[20.2177259, 44.1399788],
     [20.217634200000003, 44.139981500000005], [20.2173614, 44.140016],
     [20.2169382, 44.1402366],
     [20.216601700000002, 44.140396900000006],
     [20.2163642, 44.1405511],
     [20.216115300000002, 44.140679000000006],
     [20.215812800000002, 44.1407784], [20.2155413, 44.1409062],
     [20.2153621, 44.1410044]]}},
  {"type":"Feature",
   "properties":{},
   "geometry":
   {"type":"LineString",
    "coordinates":
    [[20.2153621, 44.1410044], [20.215135200000002, 44.1409332],
     [20.214899600000003, 44.140817600000005],
     [20.2145756, 44.1407198], [20.2139875, 44.1405412],
     [20.213427600000003, 44.1403667],
     [20.212890400000003, 44.140171900000006],
     [20.2123701, 44.1399528], [20.211940300000002, 44.1397417],
     [20.2115727, 44.139599700000005], [20.2112164, 44.1394455],
     [20.2108884, 44.1393805], [20.2104247, 44.1394089],
     [20.210006200000002, 44.1394171],
     [20.209666900000002, 44.1395307],
     [20.2091862, 44.139684900000006],
     [20.208818700000002, 44.139786400000006],
     [20.2084002, 44.139847200000006],
     [20.208134400000002, 44.139863500000004],
     [20.2078007, 44.139912200000005], [20.207518, 44.1399284],
     [20.207212600000002, 44.1398716],
     [20.206771500000002, 44.1398554], [20.2064039, 44.1398716],
     [20.2059967, 44.139960900000005], [20.2056009, 44.1400786],
     [20.205278500000002, 44.1401394],
     [20.204882700000002, 44.1401881]]}},
  {"type":"Feature",
   "properties":{},
   "geometry":
   {"type":"LineString",
    "coordinates":
    [[20.204882700000002, 44.1401881], [20.2044472, 44.1402206],
     [20.2040401, 44.1402815], [20.203536800000002, 44.1403951],
     [20.203135200000002, 44.140488500000004],
     [20.2029712, 44.140533100000006], [20.2028214, 44.1406366],
     [20.2026857, 44.1407279],
     [20.202476400000002, 44.140760400000005],
     [20.202168200000003, 44.140766500000005],
     [20.2017978, 44.1408314], [20.201472600000002, 44.140943],
     [20.2010513, 44.1410526], [20.2006583, 44.1410871],
     [20.200166300000003, 44.1410891],
     [20.1998864, 44.141056600000006], [20.199663, 44.140995800000006],
     [20.1994134, 44.1408459], [20.1990565, 44.1407826],
     [20.1986086, 44.140581700000006],
     [20.1981448, 44.140357900000005], [20.1977249, 44.1401685],
     [20.197413, 44.1400279], [20.197193000000002, 44.1399447],
     [20.196825200000003, 44.1398844], [20.1966092, 44.1398844],
     [20.1964133, 44.139927500000006],
     [20.196149400000003, 44.140082400000004],
     [20.1958814, 44.140202900000006], [20.1956095, 44.1402603],
     [20.195293600000003, 44.1403005],
     [20.195001700000002, 44.140317700000004],
     [20.1946298, 44.140317700000004], [20.1943179, 44.1403608],
     [20.194014000000003, 44.140349300000004],
     [20.1937861, 44.140349300000004],
     [20.193648900000003, 44.140367000000005],
     [20.1934302, 44.1403952],
     [20.192970300000002, 44.140481300000005],
     [20.192678400000002, 44.140524400000004],
     [20.1923365, 44.1405909], [20.1922482, 44.1405764],
     [20.1921611, 44.140554], [20.1920526, 44.140543900000004]]}},
  {"type":"Feature",
   "properties":{},
   "geometry":
   {"type":"LineString",
    "coordinates":
    [[20.1920526, 44.140543900000004], [20.1920787, 44.140489],
     [20.1917113, 44.140122000000005], [20.1915772, 44.1397738],
     [20.1914963, 44.1395404], [20.1913468, 44.139365000000005],
     [20.1913668, 44.139169900000006],
     [20.1913988, 44.138963200000006],
     [20.1913267, 44.138749600000004]]}},
  {"type":"Feature",
   "properties":{},
   "geometry":
   {"type":"LineString",
    "coordinates":
    [[20.1913267, 44.138749600000004],
     [20.1913068, 44.138690600000004], [20.1912269, 44.138593]]}},
  {"type":"Feature",
   "properties":{},
   "geometry":
   {"type":"LineString",
    "coordinates":
    [[20.1912269, 44.138593], [20.1914252, 44.1384078],
     [20.1916307, 44.1382023], [20.1918867, 44.137900200000004],
     [20.1921326, 44.1376076], [20.1923852, 44.1373441],
     [20.192557, 44.1371532], [20.192664800000003, 44.1370178],
     [20.1927625, 44.1369356], [20.1928568, 44.1369138],
     [20.1930185, 44.136882400000005]]}},
  {"type":"Feature",
   "properties":{},
   "geometry":
   {"type":"LineString",
    "coordinates":
    [[20.192411500000002, 44.1360247],
     [20.192496000000002, 44.1361238],
     [20.192643500000003, 44.1362432], [20.1927857, 44.1363683],
     [20.1929252, 44.1365204], [20.193096800000003, 44.136657],
     [20.193121, 44.1367745], [20.1930185, 44.136882400000005]]}},
  {"type":"Feature",
   "properties":{},
   "geometry":
   {"type":"LineString",
    "coordinates":
    [[20.192411500000002, 44.1360247],
     [20.1923114, 44.135957100000006],
     [20.192292700000003, 44.1358358], [20.1923275, 44.1356953],
     [20.1923222, 44.1355432], [20.192201500000003, 44.1354604],
     [20.1919627, 44.135383600000004]]}},
  {"type":"Feature",
   "properties":{},
   "geometry":
   {"type":"LineString",
    "coordinates":
    [[20.1919627, 44.135383600000004], [20.1918082, 44.1352543],
     [20.191767000000002, 44.1351566],
     [20.191641200000003, 44.135076700000006],
     [20.191063200000002, 44.134872900000005],
     [20.190786300000003, 44.1347523],
     [20.190718200000003, 44.1346611], [20.1904776, 44.1345764],
     [20.1902143, 44.1344591], [20.189928400000003, 44.1342865],
     [20.189533400000002, 44.1340975],
     [20.189202100000003, 44.1339802],
     [20.1887663, 44.133862900000004],
     [20.188416800000002, 44.133765200000006],
     [20.1881762, 44.1336609], [20.1878947, 44.133628300000005],
     [20.187527000000003, 44.133592500000006],
     [20.187018600000002, 44.1335143],
     [20.1863877, 44.133371000000004], [20.1859201, 44.1332667],
     [20.1856432, 44.133155900000006],
     [20.185329300000003, 44.1328611]]}},
  {"type":"Feature",
   "properties":{},
   "geometry":
   {"type":"LineString",
    "coordinates":
    [[20.1840905, 44.132458500000006], [20.1845304, 44.132638],
     [20.184996100000003, 44.132717500000005],
     [20.185329300000003, 44.1328611]]}},
  {"type":"Feature",
   "properties":{},
   "geometry":
   {"type":"LineString",
    "coordinates":
    [[20.1833251, 44.130063500000006],
     [20.1834308, 44.130121800000005], [20.1835284, 44.1301568],
     [20.1836463, 44.1301773], [20.183768200000003, 44.1301393],
     [20.1840203, 44.1300722], [20.1841951, 44.129993400000004],
     [20.1843293, 44.129938], [20.1846952, 44.129832900000004],
     [20.185065100000003, 44.1297074], [20.1852887, 44.1295966],
     [20.185431, 44.129479800000006], [20.1855489, 44.1294594],
     [20.185624500000003, 44.129509000000006],
     [20.1855936, 44.1296112], [20.185496, 44.1297629],
     [20.1854066, 44.1299642],
     [20.185292800000003, 44.130107200000005],
     [20.185227700000002, 44.130241500000004],
     [20.1852115, 44.1303903], [20.1851667, 44.1305216],
     [20.185085400000002, 44.1307288], [20.1849431, 44.1308747],
     [20.1848496, 44.131003], [20.184707300000003, 44.1311781],
     [20.1845529, 44.1313065], [20.184374000000002, 44.131467],
     [20.1840975, 44.131691700000005], [20.183971500000002, 44.131858],
     [20.183898300000003, 44.1319864],
     [20.183894300000002, 44.132100200000004],
     [20.1839471, 44.1322519], [20.1840905, 44.132458500000006]]}},
  {"type":"Feature",
   "properties":{},
   "geometry":
   {"type":"LineString",
    "coordinates":
    [[20.180469900000002, 44.129503400000004],
     [20.180698800000002, 44.1294332],
     [20.180975200000002, 44.1293894],
     [20.1812395, 44.129363100000006],
     [20.1814143, 44.129307700000005],
     [20.181605400000002, 44.129293100000005],
     [20.1818412, 44.129322300000005],
     [20.1820363, 44.129322300000005], [20.1822559, 44.1292814],
     [20.1824835, 44.1292814], [20.1827234, 44.129336900000006],
     [20.182861600000003, 44.129409800000005],
     [20.1829673, 44.129538200000006],
     [20.183036400000002, 44.129599500000005],
     [20.1831584, 44.1296666], [20.183219400000002, 44.1297804],
     [20.1832804, 44.129891300000004], [20.1832885, 44.1299672],
     [20.1833251, 44.130063500000006]]}},
  {"type":"Feature",
   "properties":{},
   "geometry":
   {"type":"LineString",
    "coordinates":
    [[20.176245700000003, 44.1279855],
     [20.176573100000002, 44.1284884], [20.1771534, 44.1288075],
     [20.1786585, 44.1291991], [20.180183800000002, 44.1294285],
     [20.180469900000002, 44.129503400000004]]}},
  {"type":"Feature",
   "properties":{},
   "geometry":
   {"type":"LineString",
    "coordinates":
    [[20.175692400000003, 44.1258678], [20.1757452, 44.1259883],
     [20.1757747, 44.126150100000004], [20.1757318, 44.1263079],
     [20.1755977, 44.126512000000005],
     [20.1755226, 44.126951000000005],
     [20.175586900000003, 44.1272898],
     [20.1758981, 44.127505500000005],
     [20.175908500000002, 44.1275198],
     [20.176245700000003, 44.1279855]]}},
  {"type":"Feature",
   "properties":{},
   "geometry":
   {"type":"LineString",
    "coordinates":
    [[20.1817448, 44.1210808], [20.1816777, 44.121224000000005],
     [20.1815573, 44.121333400000005], [20.1813901, 44.1214534],
     [20.1812401, 44.121495800000005], [20.181041, 44.121607000000004],
     [20.1808812, 44.1217411], [20.1808541, 44.121861100000004],
     [20.180918000000002, 44.1219935],
     [20.180947500000002, 44.122125800000006],
     [20.1809525, 44.1221894], [20.1808935, 44.1223023],
     [20.1808443, 44.1224311], [20.1807656, 44.122547600000004],
     [20.180689400000002, 44.1226235],
     [20.180632900000003, 44.122743500000006],
     [20.1806009, 44.122923500000006], [20.1805714, 44.1230471],
     [20.1804829, 44.12313], [20.180309700000002, 44.123187300000005],
     [20.1800976, 44.1232148],
     [20.179909900000002, 44.123254700000004],
     [20.1796282, 44.1233221], [20.1793327, 44.123444400000004],
     [20.1790685, 44.1235567], [20.178912, 44.123699],
     [20.1787451, 44.1238213], [20.178550400000002, 44.1239361],
     [20.178286200000002, 44.124115800000006],
     [20.178088000000002, 44.1242181], [20.1777403, 44.1243204],
     [20.1775178, 44.124425300000006], [20.177257, 44.124585],
     [20.1770484, 44.124662400000005],
     [20.1768363, 44.124779700000005],
     [20.1766451, 44.124857000000006],
     [20.1765164, 44.124974300000005], [20.1764434, 44.1250517],
     [20.1762696, 44.1252189], [20.1761479, 44.1253587],
     [20.1760227, 44.1255159], [20.175890600000002, 44.1257206],
     [20.175692400000003, 44.1258678]]}},
  {"type":"Feature",
   "properties":{},
   "geometry":
   {"type":"LineString",
    "coordinates":
    [[20.1811019, 44.120326600000006],
     [20.181199600000003, 44.120404300000004],
     [20.1814377, 44.1207645], [20.181556500000003, 44.1209496],
     [20.1817448, 44.1210808]]}},
  {"type":"Feature",
   "properties":{},
   "geometry":
   {"type":"LineString",
    "coordinates":
    [[20.1811019, 44.120326600000006],
     [20.180996500000003, 44.1201287], [20.1808497, 44.1199122],
     [20.1808045, 44.1197237], [20.1807476, 44.1196095],
     [20.180734400000002, 44.1195042], [20.1806603, 44.1194341],
     [20.1805306, 44.1193639], [20.180397000000003, 44.1193359],
     [20.1803008, 44.119264900000005],
     [20.180248600000002, 44.1190541],
     [20.180243400000002, 44.118899400000004],
     [20.1802998, 44.1186894], [20.1804032, 44.1185259],
     [20.180570300000003, 44.118406], [20.1808546, 44.1183393],
     [20.1811504, 44.118198500000005]]}},
  {"type":"Feature",
   "properties":{},
   "geometry":
   {"type":"LineString",
    "coordinates":
    [[20.181337600000003, 44.1146523], [20.1813554, 44.1147675],
     [20.1813673, 44.114915], [20.1813515, 44.115026900000004],
     [20.181249100000002, 44.115155800000004],
     [20.181190400000002, 44.1152876],
     [20.181196800000002, 44.115481800000005],
     [20.1811475, 44.1156536],
     [20.181007700000002, 44.115864800000004], [20.18099, 44.1160032],
     [20.181032300000002, 44.116216900000005],
     [20.181119000000002, 44.116331200000005],
     [20.181337900000003, 44.1164487], [20.1814424, 44.1165741],
     [20.181479900000003, 44.116718500000005],
     [20.181438500000002, 44.1168585],
     [20.1813198, 44.117015200000004],
     [20.181157000000002, 44.1176274],
     [20.181229300000002, 44.117820800000004],
     [20.181236700000003, 44.1179908],
     [20.1811504, 44.118198500000005]]}},
  {"type":"Feature",
   "properties":{},
   "geometry":
   {"type":"LineString",
    "coordinates":
    [[20.1835598, 44.1125096], [20.1834552, 44.1125799],
     [20.1833245, 44.112661900000006], [20.1830542, 44.1128244],
     [20.1827484, 44.1130189], [20.1825151, 44.1131797],
     [20.1823078, 44.1133266], [20.1821141, 44.113457000000004],
     [20.181951, 44.1135729], [20.181825800000002, 44.113674700000004],
     [20.1817399, 44.1137546], [20.1816742, 44.113824900000004],
     [20.1816134, 44.1139043], [20.1815803, 44.11395],
     [20.1815508, 44.114006800000006], [20.181528, 44.114069400000005],
     [20.1815025, 44.1141474], [20.1814798, 44.114237],
     [20.1814663, 44.1143015], [20.1814502, 44.1143804],
     [20.181428800000003, 44.114465200000005],
     [20.181412700000003, 44.1145171], [20.181389900000003, 44.114572],
     [20.181367100000003, 44.1146134],
     [20.181337600000003, 44.1146523]]}},
  {"type":"Feature",
   "properties":{},
   "geometry":
   {"type":"LineString",
    "coordinates":
    [[20.1894955, 44.104880200000004], [20.189703, 44.1049659],
     [20.189812, 44.1050064], [20.1899596, 44.1050574],
     [20.190314, 44.1051786], [20.1903927, 44.1052095],
     [20.1904276, 44.105231700000004], [20.1904454, 44.1052601],
     [20.190446400000003, 44.1052924],
     [20.190436700000003, 44.1053257], [20.1904115, 44.1053559],
     [20.190371300000002, 44.105382600000006],
     [20.1903203, 44.1054108], [20.190253300000002, 44.1054387],
     [20.190175500000002, 44.105460900000004],
     [20.1900842, 44.1054814], [20.1900172, 44.1054917],
     [20.189905900000003, 44.1055013], [20.189741, 44.1055167],
     [20.189660800000002, 44.105531400000004],
     [20.1895934, 44.1055514], [20.189517000000002, 44.1055774],
     [20.1894436, 44.105607500000005],
     [20.189348000000003, 44.1056535],
     [20.1892743, 44.105685300000005],
     [20.189207200000002, 44.105710300000005],
     [20.1891053, 44.1057353], [20.1890007, 44.1057585],
     [20.188808, 44.105786900000005], [20.1885648, 44.105830700000006],
     [20.1883337, 44.1058742], [20.1882081, 44.1059068],
     [20.1881142, 44.1059318], [20.1880056, 44.1059713],
     [20.1878664, 44.1060263], [20.1877186, 44.1060974],
     [20.1875873, 44.106158300000004],
     [20.1870006, 44.106425800000004], [20.1868173, 44.1065154],
     [20.186680600000003, 44.1065837], [20.1865987, 44.1066348],
     [20.186534400000003, 44.106681], [20.1864604, 44.1067413],
     [20.1863989, 44.106790800000006],
     [20.1863359, 44.106848500000005],
     [20.186227300000002, 44.106968900000005],
     [20.1861345, 44.107075900000005],
     [20.186093200000002, 44.1071143], [20.1860529, 44.1071423],
     [20.185985900000002, 44.1071827],
     [20.185905400000003, 44.1072222], [20.1858209, 44.1072636],
     [20.185745800000003, 44.107297300000006],
     [20.1855835, 44.1073637], [20.1855125, 44.1073984],
     [20.185457500000002, 44.1074369], [20.1854073, 44.1074768],
     [20.185367600000003, 44.107514900000005],
     [20.185327700000002, 44.1075603], [20.1852871, 44.107616],
     [20.1852483, 44.1076825], [20.185224100000003, 44.1077347],
     [20.185190600000002, 44.1078077],
     [20.185169700000003, 44.1078713], [20.185158, 44.1079256],
     [20.185155700000003, 44.1079704],
     [20.185161100000002, 44.108026200000005],
     [20.1851664, 44.108072500000006],
     [20.185184200000002, 44.1081422],
     [20.185222800000002, 44.108234200000005],
     [20.1852604, 44.108308900000004],
     [20.185383700000003, 44.1085848],
     [20.185454800000002, 44.1087696], [20.1854736, 44.1088274],
     [20.1854881, 44.1088864], [20.185495, 44.1089642],
     [20.1855017, 44.109053700000004],
     [20.1855017, 44.109109600000004],
     [20.1854964, 44.109171200000006],
     [20.185484300000002, 44.109227000000004],
     [20.1854668, 44.109291600000006],
     [20.185438700000002, 44.109354100000004],
     [20.185418600000002, 44.109395600000006],
     [20.1853944, 44.109448500000006],
     [20.1853555, 44.109514000000004],
     [20.185317400000002, 44.1095696],
     [20.185275100000002, 44.109619900000006],
     [20.1852322, 44.1096632], [20.1851638, 44.109723900000006],
     [20.1850251, 44.109839300000004],
     [20.1848888, 44.109953100000006],
     [20.184777500000003, 44.1100465],
     [20.1846836, 44.110133100000006],
     [20.184647400000003, 44.1101784], [20.1846283, 44.1102117],
     [20.1846099, 44.1102506], [20.184596600000003, 44.1102937],
     [20.1845857, 44.1103315], [20.184577700000002, 44.1103941],
     [20.184570400000002, 44.110516800000006],
     [20.1845629, 44.110656000000006],
     [20.184561600000002, 44.1107889],
     [20.184558900000003, 44.110903500000006],
     [20.184556200000003, 44.110966100000006],
     [20.1845509, 44.1110027], [20.1845439, 44.111040200000005],
     [20.1845241, 44.111107600000004],
     [20.184506600000002, 44.111162500000006],
     [20.184470400000002, 44.111269400000005],
     [20.1843971, 44.111479200000005], [20.184367100000003, 44.111566],
     [20.184337600000003, 44.1116334],
     [20.184288000000002, 44.1117373], [20.1842505, 44.1118134],
     [20.1842156, 44.111870200000006],
     [20.184175200000002, 44.1119302],
     [20.184128400000002, 44.1119896],
     [20.184082800000002, 44.1120378],
     [20.184007700000002, 44.1121187],
     [20.183919200000002, 44.1122043], [20.1837811, 44.1123276],
     [20.183693, 44.112405100000004],
     [20.183629500000002, 44.112455700000005],
     [20.1835598, 44.1125096]]}},
  {"type":"Feature",
   "properties":{},
   "geometry":
   {"type":"LineString",
    "coordinates":
    [[20.1924046, 44.102454800000004], [20.1923561, 44.102595],
     [20.1923347, 44.1027105], [20.1921201, 44.1029416],
     [20.1919377, 44.1031497], [20.1917124, 44.1032768],
     [20.1911062, 44.1034039], [20.190781700000002, 44.1035021],
     [20.190277400000003, 44.103889300000006],
     [20.189931400000003, 44.1041242],
     [20.189797300000002, 44.104232100000004],
     [20.189526400000002, 44.1046635],
     [20.1894955, 44.104880200000004]]}},
  {"type":"Feature",
   "properties":{},
   "geometry":
   {"type":"LineString",
    "coordinates":
    [[20.194860900000002, 44.1011693],
     [20.194649400000003, 44.101086800000004],
     [20.1941183, 44.1012525], [20.193761600000002, 44.1014277],
     [20.1924046, 44.102454800000004]]}},
  {"type":"Feature",
   "properties":{},
   "geometry":
   {"type":"LineString",
    "coordinates":
    [[20.196820000000002, 44.102283500000006],
     [20.1966658, 44.1022101], [20.196475500000002, 44.1021853],
     [20.196259400000002, 44.102164800000004],
     [20.196022900000003, 44.1020916], [20.1958191, 44.1019598],
     [20.1955908, 44.10179], [20.1954277, 44.1016026],
     [20.195240100000003, 44.101435800000004],
     [20.1950444, 44.1012835], [20.194860900000002, 44.1011693]]}},
  {"type":"Feature",
   "properties":{},
   "geometry":
   {"type":"LineString",
    "coordinates":
    [[20.196820000000002, 44.102283500000006],
     [20.197130700000002, 44.102378300000005],
     [20.1973989, 44.1024363],
     [20.197560600000003, 44.102518800000006],
     [20.197909600000003, 44.1025555],
     [20.198220300000003, 44.102607500000005],
     [20.198433100000003, 44.1026594], [20.198726800000003, 44.102797],
     [20.1989665, 44.102911600000006],
     [20.1991702, 44.103065400000006],
     [20.199216200000002, 44.1031026],
     [20.1993695, 44.103298200000005], [20.1994972, 44.1034969],
     [20.1994985, 44.1036785], [20.199583, 44.103779800000005]]}},
  {"type":"Feature",
   "properties":{},
   "geometry":
   {"type":"LineString",
    "coordinates":
    [[20.199583, 44.103779800000005], [20.1996796, 44.1034833],
     [20.1998411, 44.103264100000004], [20.199990800000002, 44.103152],
     [20.200628000000002, 44.1030322],
     [20.200732600000002, 44.102993700000006]]}},
  {"type":"Feature",
   "properties":{},
   "geometry":
   {"type":"LineString",
    "coordinates":
    [[20.200732600000002, 44.102993700000006],
     [20.2009821, 44.1029879], [20.2014059, 44.1029744],
     [20.2017358, 44.1029782], [20.201945000000002, 44.1029744],
     [20.202181, 44.102907], [20.2023768, 44.1028511],
     [20.2026317, 44.1028261],
     [20.202942500000002, 44.102787500000005]]}},
  {"type":"Feature",
   "properties":{},
   "geometry":
   {"type":"LineString",
    "coordinates":
    [[20.202942500000002, 44.102787500000005],
     [20.203138600000003, 44.102922400000004],
     [20.2033589, 44.102954600000004],
     [20.203813500000003, 44.1031612],
     [20.204113900000003, 44.103277500000004],
     [20.2042898, 44.1034408],
     [20.204309600000002, 44.103651600000006],
     [20.204259500000003, 44.1037693],
     [20.204346700000002, 44.103837600000006]]}},
  {"type":"Feature",
   "properties":{},
   "geometry":
   {"type":"LineString",
    "coordinates":
    [[20.204346700000002, 44.103837600000006],
     [20.2046126, 44.1036334], [20.204935000000003, 44.1032432],
     [20.2052629, 44.102922400000004]]}},
  {"type":"Feature",
   "properties":{},
   "geometry":
   {"type":"LineString",
    "coordinates":
    [[20.2052629, 44.102922400000004], [20.2054346, 44.1027506],
     [20.2055429, 44.1025556], [20.2057596, 44.102282100000004],
     [20.2058831, 44.102023300000006],
     [20.2058916, 44.101891900000005], [20.2055687, 44.101534],
     [20.2055303, 44.1014446], [20.2055426, 44.1013548],
     [20.2058326, 44.1011261], [20.2060627, 44.101010900000006],
     [20.2061564, 44.100981000000004]]}},
  {"type":"Feature",
   "properties":{},
   "geometry":
   {"type":"LineString",
    "coordinates":
    [[20.2061564, 44.100981000000004],
     [20.2065527, 44.101136800000006],
     [20.2068748, 44.101288700000005],
     [20.207023200000002, 44.1013293], [20.2072068, 44.1013207],
     [20.2075679, 44.101284], [20.207995500000003, 44.1011821],
     [20.2083502, 44.1011389], [20.2085286, 44.1011048]]}},
  {"type":"Feature",
   "properties":{},
   "geometry":
   {"type":"LineString",
    "coordinates":
    [[20.2107244, 44.110607900000005], [20.2104766, 44.1103237],
     [20.2103737, 44.1102537], [20.2102523, 44.1100185],
     [20.2098888, 44.1098134], [20.2095388, 44.1097395],
     [20.2094042, 44.109647800000005],
     [20.209278400000002, 44.1094481],
     [20.209027600000002, 44.1092749],
     [20.2089068, 44.109062800000004],
     [20.2087715, 44.108915100000004],
     [20.208714800000003, 44.1087348],
     [20.208781700000003, 44.1085085], [20.208866, 44.1084077],
     [20.2089095, 44.108321600000004],
     [20.208887400000002, 44.107882100000005],
     [20.2089767, 44.107570900000006], [20.2089402, 44.1070781],
     [20.2090743, 44.1067455], [20.2090904, 44.106416200000005],
     [20.2092031, 44.105817200000004], [20.2092782, 44.1056034],
     [20.2093399, 44.105048700000005],
     [20.2094257, 44.104690500000004],
     [20.209431000000002, 44.1041685],
     [20.2094686, 44.103829600000005],
     [20.209482400000002, 44.1037418], [20.2094874, 44.1037101],
     [20.209355900000002, 44.1034771],
     [20.2093774, 44.103188200000005],
     [20.209522200000002, 44.1026104], [20.209533, 44.1024447],
     [20.2091253, 44.1022637], [20.2089778, 44.1021808],
     [20.2089187, 44.102040200000005], [20.2089509, 44.1018476],
     [20.2091762, 44.1015163], [20.2091789, 44.1014008],
     [20.2090341, 44.1012448], [20.2085286, 44.1011048]]}},
  {"type":"Feature",
   "properties":{},
   "geometry":
   {"type":"LineString",
    "coordinates":
    [[20.2107244, 44.110607900000005],
     [20.2109977, 44.110670500000005],
     [20.211388900000003, 44.110685600000004],
     [20.2119198, 44.110657200000006], [20.212073, 44.1107493],
     [20.2122379, 44.110830500000006],
     [20.2123727, 44.110925900000005], [20.2125275, 44.1109683],
     [20.2127793, 44.1108088], [20.213098300000002, 44.1106489],
     [20.2132606, 44.1105977], [20.2133749, 44.110498],
     [20.213476500000002, 44.1102555], [20.2136137, 44.1101541],
     [20.2138928, 44.110022300000004],
     [20.214211600000002, 44.109927600000006],
     [20.2144881, 44.1097863], [20.214759100000002, 44.109822]]}},
  {"type":"Feature",
   "properties":{},
   "geometry":
   {"type":"LineString",
    "coordinates":
    [[20.214759100000002, 44.109822], [20.214722400000003, 44.1096899],
     [20.2147806, 44.1095483], [20.214912, 44.1094257],
     [20.214963100000002, 44.1093338],
     [20.215063500000003, 44.109177100000004], [20.215323, 44.1089124],
     [20.215617400000003, 44.1086108],
     [20.215881600000003, 44.1084133], [20.216078, 44.1081993],
     [20.2162741, 44.1080709], [20.2168421, 44.107535600000006]]}},
  {"type":"Feature",
   "properties":{},
   "geometry":
   {"type":"LineString",
    "coordinates":
    [[20.2168421, 44.107535600000006], [20.2171607, 44.1073381],
     [20.2176741, 44.107151], [20.218154900000002, 44.1069079],
     [20.218469600000002, 44.106808900000004],
     [20.2188932, 44.1067703], [20.2194895, 44.106776],
     [20.219842200000002, 44.1068256],
     [20.220132500000002, 44.1069783], [20.220306, 44.107098900000004],
     [20.2203865, 44.107114800000005], [20.2204407, 44.1070799],
     [20.2204897, 44.1069973], [20.220619000000003, 44.1069101],
     [20.221085300000002, 44.106825], [20.2211958, 44.1068701],
     [20.2213216, 44.107026600000005], [20.2214432, 44.1071059]]}},
  {"type":"Feature",
   "properties":{},
   "geometry":
   {"type":"LineString",
    "coordinates":
    [[20.223383300000002, 44.1068003], [20.2233033, 44.1067879],
     [20.223007000000003, 44.106795500000004],
     [20.2225672, 44.1068725], [20.2221596, 44.106945700000004],
     [20.221827, 44.1070459], [20.2215481, 44.1071152],
     [20.2214432, 44.1071059]]}},
  {"type":"Feature",
   "properties":{},
   "geometry":
   {"type":"LineString",
    "coordinates":
    [[20.223383300000002, 44.1068003], [20.2234881, 44.1067012],
     [20.2235666, 44.1066756]]}},
  {"type":"Feature",
   "properties":{},
   "geometry":
   {"type":"LineString",
    "coordinates":
    [[20.2235666, 44.1066756],
     [20.223716500000002, 44.106604000000004],
     [20.2238238, 44.1065077], [20.2240866, 44.1064152],
     [20.224376300000003, 44.1064518],
     [20.224757200000003, 44.1064537],
     [20.224851100000002, 44.1062476],
     [20.224987900000002, 44.106031900000005],
     [20.2253821, 44.105837400000006]]}},
  {"type":"Feature",
   "properties":{},
   "geometry":
   {"type":"LineString",
    "coordinates":
    [[20.2235666, 44.1066756],
     [20.223716500000002, 44.106604000000004],
     [20.2238238, 44.1065077], [20.2240866, 44.1064152],
     [20.224376300000003, 44.1064518],
     [20.224757200000003, 44.1064537],
     [20.224851100000002, 44.1062476],
     [20.224987900000002, 44.106031900000005],
     [20.2253821, 44.105837400000006]]}},
  {"type":"Feature",
   "properties":{},
   "geometry":
   {"type":"LineString",
    "coordinates":
    [[20.223383300000002, 44.1068003], [20.2234881, 44.1067012],
     [20.2235666, 44.1066756]]}},
  {"type":"Feature",
   "properties":{},
   "geometry":
   {"type":"LineString",
    "coordinates":
    [[20.229078700000002, 44.106337200000006],
     [20.228944600000002, 44.1063526],
     [20.228585300000002, 44.1065259],
     [20.2281723, 44.106714600000004],
     [20.227777800000002, 44.1069357], [20.2274728, 44.1071182],
     [20.2271049, 44.1072846], [20.2268957, 44.1073347],
     [20.2266222, 44.107338600000006], [20.2262413, 44.1073232],
     [20.225938300000003, 44.1073077],
     [20.225726400000003, 44.1072712], [20.2256031, 44.1072654],
     [20.225474300000002, 44.1073405], [20.2253295, 44.1074849],
     [20.2251766, 44.1076101], [20.225064, 44.107662100000006],
     [20.2248924, 44.1076524], [20.2247449, 44.1075639],
     [20.2245813, 44.1074368], [20.2244204, 44.107315500000006],
     [20.2242594, 44.107198000000004],
     [20.224133400000003, 44.1070786],
     [20.223989900000003, 44.1069948],
     [20.223826300000002, 44.106950600000005],
     [20.2236735, 44.1068918], [20.2235166, 44.106830200000005],
     [20.223383300000002, 44.1068003]]}},
  {"type":"Feature",
   "properties":{},
   "geometry":
   {"type":"LineString",
    "coordinates":
    [[20.229078700000002, 44.106337200000006],
     [20.2291434, 44.1061306], [20.2293513, 44.105906600000004],
     [20.229643300000003, 44.1056827],
     [20.230035100000002, 44.105398400000006], [20.230371, 44.1051773],
     [20.2307229, 44.1049706], [20.2311428, 44.1047724],
     [20.231654600000002, 44.1045427],
     [20.232118500000002, 44.1042785],
     [20.232434400000002, 44.1041235],
     [20.2325784, 44.103994300000004], [20.2327143, 44.1038737],
     [20.2330302, 44.10371], [20.233262200000002, 44.103609500000005],
     [20.2334581, 44.1035033], [20.2335421, 44.103379800000006],
     [20.2335661, 44.1032018], [20.233626100000002, 44.1030639]]}},
  {"type":"Feature",
   "properties":{},
   "geometry":
   {"type":"LineString",
    "coordinates":
    [[20.233626100000002, 44.1030639], [20.2339939, 44.1030122],
     [20.2344218, 44.102929], [20.234805700000003, 44.102831300000005],
     [20.2351056, 44.1027165], [20.2354455, 44.1025356],
     [20.2357494, 44.102397700000004], [20.2359893, 44.1023518],
     [20.2362173, 44.1023949], [20.2364372, 44.102469500000005],
     [20.2367651, 44.102449400000005], [20.237081, 44.102397700000004],
     [20.2374009, 44.1023288], [20.2378088, 44.1022082],
     [20.238068700000003, 44.1022053], [20.2382646, 44.1022915],
     [20.238424600000002, 44.1024035], [20.2384776, 44.1024193]]}},
  {"type":"Feature",
   "properties":{},
   "geometry":
   {"type":"LineString",
    "coordinates":
    [[20.2384776, 44.1024193], [20.2385206, 44.1024322],
     [20.2388605, 44.1024006], [20.239132400000003, 44.1022972],
     [20.239580200000002, 44.102130700000004],
     [20.2399141, 44.1020258],
     [20.240256000000002, 44.102119200000004],
     [20.2407119, 44.1021565],
     [20.241243700000002, 44.102170900000004],
     [20.241447700000002, 44.102170900000004]]}},
  {"type":"Feature",
   "properties":{},
   "geometry":
   {"type":"LineString",
    "coordinates":
    [[20.241447700000002, 44.102170900000004],
     [20.2417027, 44.1021749],
     [20.242274000000002, 44.102099700000004],
     [20.2424372, 44.1020498]]}},
  {"type":"Feature",
   "properties":{},
   "geometry":
   {"type":"LineString",
    "coordinates":
    [[20.2474569, 44.102231800000006],
     [20.247238900000003, 44.1022191], [20.2469974, 44.1021725],
     [20.246632100000003, 44.102071], [20.2464671, 44.1020668],
     [20.246260900000003, 44.1020922], [20.2457955, 44.1022656],
     [20.245530300000002, 44.1022698], [20.2453065, 44.1022698],
     [20.2449765, 44.1022656], [20.2447114, 44.102329100000006],
     [20.2445759, 44.102329100000006],
     [20.244287200000002, 44.102320600000006],
     [20.2441163, 44.1023714], [20.243833600000002, 44.1023883],
     [20.2435566, 44.1024052], [20.2433269, 44.1024095],
     [20.2431324, 44.1023798], [20.2428791, 44.1023079],
     [20.2427318, 44.102244500000005], [20.2424372, 44.1020498]]}},
  {"type":"Feature",
   "properties":{},
   "geometry":
   {"type":"LineString",
    "coordinates":
    [[20.2474569, 44.102231800000006],
     [20.247744400000002, 44.102303400000004],
     [20.248252700000002, 44.102393], [20.2486496, 44.102457],
     [20.2488964, 44.1024994], [20.2492102, 44.1024801],
     [20.2495213, 44.1023549], [20.2501946, 44.1023896],
     [20.2506211, 44.1024474], [20.250892, 44.102599600000005],
     [20.251165500000003, 44.102751700000006],
     [20.251382800000002, 44.102744], [20.2514177, 44.1026053],
     [20.251605400000003, 44.102459], [20.25193, 44.1023106],
     [20.252343, 44.1023742], [20.252512000000003, 44.1023049],
     [20.252777000000002, 44.102117500000006]]}},
  {"type":"Feature",
   "properties":{},
   "geometry":
   {"type":"LineString",
    "coordinates":
    [[20.257978700000002, 44.1033392],
     [20.257702400000003, 44.1034164],
     [20.257561000000003, 44.103450200000005],
     [20.257343000000002, 44.103441800000006], [20.2571486, 44.103391],
     [20.256907100000003, 44.103255600000004],
     [20.256812800000002, 44.1031752],
     [20.256659600000003, 44.103061000000004],
     [20.2565123, 44.102862200000004], [20.2563532, 44.1027141],
     [20.2562177, 44.102659100000004], [20.2559998, 44.1026083],
     [20.2558466, 44.102549100000005],
     [20.255646300000002, 44.1024222], [20.2555638, 44.1023798],
     [20.255245600000002, 44.102341800000005],
     [20.2549275, 44.1022952], [20.254255800000003, 44.1023037],
     [20.2538375, 44.102329100000006],
     [20.253584200000002, 44.102324800000005],
     [20.2533721, 44.102346000000004],
     [20.2531836, 44.102350200000004],
     [20.2530186, 44.102320600000006],
     [20.252841800000002, 44.1021937],
     [20.252777000000002, 44.102117500000006]]}},
  {"type":"Feature",
   "properties":{},
   "geometry":
   {"type":"LineString",
    "coordinates":
    [[20.257978700000002, 44.1033392], [20.2582808, 44.1032303],
     [20.2588429, 44.103075600000004],
     [20.259988800000002, 44.1028511], [20.2605666, 44.1028457],
     [20.2625783, 44.1029998], [20.2637943, 44.1028577],
     [20.263975000000002, 44.1028718], [20.2643248, 44.1030778],
     [20.2644266, 44.103185800000006], [20.2650377, 44.1040335],
     [20.2651818, 44.1040524], [20.2653818, 44.1039903]]}},
  {"type":"Feature",
   "properties":{},
   "geometry":
   {"type":"LineString",
    "coordinates":
    [[20.2653818, 44.1039903], [20.265464, 44.104252900000006],
     [20.2655019, 44.104387900000006]]}},
  {"type":"Feature",
   "properties":{},
   "geometry":
   {"type":"LineString",
    "coordinates":
    [[20.264317700000003, 44.1063179], [20.2643738, 44.1062987],
     [20.2644749, 44.106132200000005],
     [20.2646087, 44.105914500000004],
     [20.264752100000003, 44.1057056], [20.264950600000002, 44.105479],
     [20.2650963, 44.105336], [20.265233000000002, 44.105099],
     [20.265346, 44.104879100000005], [20.2654114, 44.1046507],
     [20.2655019, 44.104387900000006]]}},
  {"type":"Feature",
   "properties":{},
   "geometry":
   {"type":"LineString",
    "coordinates":
    [[20.264211200000002, 44.1063543],
     [20.264317700000003, 44.1063179]]}},
  {"type":"Feature",
   "properties":{},
   "geometry":
   {"type":"LineString",
    "coordinates":
    [[20.261936000000002, 44.111543000000005],
     [20.262212400000003, 44.1113537], [20.2624235, 44.1112662],
     [20.262587, 44.111138100000005],
     [20.262771400000002, 44.110811500000004],
     [20.2628933, 44.110593800000004],
     [20.2629795, 44.110519100000005], [20.2630568, 44.110154],
     [20.2632292, 44.109445300000004], [20.2632084, 44.1093023],
     [20.2630568, 44.109135800000004],
     [20.262890300000002, 44.1089885], [20.2628606, 44.1088199],
     [20.262928900000002, 44.1086576],
     [20.2629676, 44.108572300000006],
     [20.2630151, 44.108384400000006],
     [20.263024100000003, 44.108153800000004],
     [20.263059700000003, 44.1080386],
     [20.263146000000003, 44.1079468],
     [20.263211400000003, 44.1078379],
     [20.2632738, 44.107615900000006],
     [20.263386800000003, 44.107411000000006], [20.2635414, 44.107221],
     [20.263779200000002, 44.106809000000005],
     [20.2639368, 44.1064759], [20.264061700000003, 44.1064055],
     [20.264211200000002, 44.1063543]]}},
  {"type":"Feature",
   "properties":{},
   "geometry":
   {"type":"LineString",
    "coordinates":
    [[20.245856200000002, 44.1253741],
     [20.245911600000003, 44.124818100000006],
     [20.2458864, 44.1245646], [20.2460966, 44.1242929],
     [20.2460798, 44.123930800000004],
     [20.246290000000002, 44.1231823], [20.2464666, 44.1227054],
     [20.2468115, 44.122355400000004], [20.2471444, 44.1220694],
     [20.247554700000002, 44.121766300000004],
     [20.2480423, 44.121578500000005],
     [20.2487201, 44.121540100000004], [20.2493802, 44.1216255],
     [20.2499688, 44.1217151], [20.2503791, 44.1218218],
     [20.2507002, 44.12192], [20.2510748, 44.122005400000006],
     [20.2515207, 44.121988300000005],
     [20.2518478, 44.122009600000005], [20.252044, 44.122163300000004],
     [20.252157, 44.122355400000004], [20.252335300000002, 44.1223639],
     [20.2525137, 44.12227], [20.252674300000002, 44.122142000000004],
     [20.252900200000003, 44.122184600000004],
     [20.2531083, 44.1222871], [20.2533759, 44.122368200000004],
     [20.253584, 44.122385300000005], [20.25403, 44.122410900000006],
     [20.2544046, 44.1225432], [20.2546959, 44.122620000000005],
     [20.254749500000003, 44.1228591],
     [20.2547138, 44.123021300000005], [20.2547138, 44.1231877],
     [20.2547673, 44.123294400000006], [20.2548803, 44.123303],
     [20.254951600000002, 44.1231835],
     [20.2551419, 44.123046900000006],
     [20.255367800000002, 44.1229359],
     [20.2556711, 44.122812100000004], [20.2559089, 44.1226542],
     [20.256057600000002, 44.1225347],
     [20.256166500000003, 44.1224794],
     [20.2563557, 44.122521600000006], [20.2564986, 44.1226001],
     [20.256734100000003, 44.122699700000005],
     [20.2568266, 44.122787200000005],
     [20.2570242, 44.122799300000004], [20.2571251, 44.1227269],
     [20.257129300000003, 44.1226092],
     [20.257129300000003, 44.1224975],
     [20.2572428, 44.122467300000004],
     [20.257402600000002, 44.122440100000006],
     [20.2575161, 44.122361700000006],
     [20.257520300000003, 44.1222591],
     [20.2575329, 44.122114200000006],
     [20.2576381, 44.122032700000005], [20.257802, 44.121960200000004],
     [20.257991200000003, 44.121869700000005],
     [20.258125800000002, 44.121718800000004],
     [20.2582729, 44.1215467], [20.2584495, 44.1213958],
     [20.2586976, 44.121278100000005], [20.2588742, 44.1211725],
     [20.2589499, 44.1210487], [20.259033900000002, 44.1209159],
     [20.2591727, 44.120759], [20.2592652, 44.120617100000004],
     [20.2592946, 44.1204571], [20.2592442, 44.120267000000005],
     [20.2591769, 44.120107000000004],
     [20.2592274, 44.119925900000005],
     [20.2591769, 44.119747800000006],
     [20.258987700000002, 44.119506400000006],
     [20.258832100000003, 44.1193162],
     [20.2587018, 44.119180400000005],
     [20.258323400000002, 44.1184771], [20.258050100000002, 44.118139],
     [20.2580056, 44.117977], [20.258076900000002, 44.117893800000004],
     [20.258210700000003, 44.117836100000005],
     [20.2584872, 44.117718700000005],
     [20.258698300000002, 44.117592800000004],
     [20.2587994, 44.1174904], [20.2589659, 44.117234200000006],
     [20.2591948, 44.1170059], [20.259388, 44.116754],
     [20.2595753, 44.116450900000004], [20.2597032, 44.1162311],
     [20.2597032, 44.1160646], [20.2597805, 44.1158426],
     [20.2598667, 44.115622800000004], [20.2601075, 44.1150358],
     [20.2601313, 44.1149611],
     [20.260101600000002, 44.114850100000005],
     [20.2601462, 44.1146985], [20.2602383, 44.114540600000005],
     [20.2603067, 44.114344200000005], [20.2604435, 44.1141799],
     [20.2605535, 44.113996300000004], [20.2605356, 44.1137401],
     [20.2605505, 44.113507500000004],
     [20.260589200000002, 44.113323900000005], [20.2607883, 44.113183],
     [20.2611302, 44.1130912], [20.261487000000002, 44.1129909],
     [20.2616951, 44.1128458], [20.261814, 44.112734800000005],
     [20.2618408, 44.1126622], [20.2617546, 44.1125768],
     [20.2616386, 44.112521300000004],
     [20.261582100000002, 44.1124317],
     [20.261558400000002, 44.112333500000005],
     [20.261570300000002, 44.112115800000005], [20.2616476, 44.111913],
     [20.2617903, 44.1116952],
     [20.261936000000002, 44.111543000000005]]}},
  {"type":"Feature",
   "properties":{},
   "geometry":
   {"type":"LineString",
    "coordinates":
    [[20.2462503, 44.128693600000005],
     [20.2461439, 44.128567200000006], [20.2458396, 44.1284793],
     [20.245784200000003, 44.1283915], [20.2457956, 44.12827],
     [20.2459472, 44.1280038], [20.246423800000002, 44.1275281],
     [20.246451500000003, 44.1274415], [20.2462977, 44.1266152],
     [20.2463279, 44.126144800000006], [20.2462927, 44.1260374],
     [20.2460902, 44.1258094], [20.245951100000003, 44.1254422],
     [20.245856200000002, 44.1253741]]}},
  {"type":"Feature",
   "properties":{},
   "geometry":
   {"type":"LineString",
    "coordinates":
    [[20.2462503, 44.128693600000005], [20.2462383, 44.1287393],
     [20.246173900000002, 44.1290743],
     [20.2461525, 44.129363100000006], [20.2462544, 44.1297058],
     [20.2465763, 44.1302256], [20.2469572, 44.1306299],
     [20.247405800000003, 44.1309478]]}},
  {"type":"Feature",
   "properties":{},
   "geometry":
   {"type":"LineString",
    "coordinates":
    [[20.247405800000003, 44.1309478],
     [20.2479207, 44.131117200000006]]}},
  {"type":"Feature",
   "properties":{},
   "geometry":
   {"type":"LineString",
    "coordinates":
    [[20.2479207, 44.131117200000006], [20.2484538, 44.1314385],
     [20.2488186, 44.1316618], [20.2492102, 44.131681],
     [20.2494248, 44.1320622], [20.25019, 44.1324267]]}},
  {"type":"Feature",
   "properties":{},
   "geometry":
   {"type":"LineString",
    "coordinates":
    [[20.248033300000003, 44.1354829],
     [20.2481118, 44.135397000000005], [20.2481799, 44.1353233],
     [20.2482796, 44.1351886], [20.248457300000002, 44.1349044],
     [20.2485456, 44.134761700000006], [20.24865, 44.134629700000005],
     [20.248754100000003, 44.134492900000005],
     [20.248841000000002, 44.1343709],
     [20.2489323, 44.134250900000005], [20.2489896, 44.1341693],
     [20.2490485, 44.1340512], [20.2491266, 44.133880100000006],
     [20.2491863, 44.1337513],
     [20.249235600000002, 44.133639900000006],
     [20.2492899, 44.1335228], [20.2493462, 44.133418400000004],
     [20.249414400000003, 44.1333113],
     [20.249491300000003, 44.1332128], [20.2495987, 44.133099],
     [20.249714400000002, 44.1329794],
     [20.2498395, 44.132846300000004],
     [20.2499502, 44.132730300000006], [20.250125800000003, 44.132508],
     [20.25019, 44.1324267]]}},
  {"type":"Feature",
   "properties":{},
   "geometry":
   {"type":"LineString",
    "coordinates":
    [[20.2521956, 44.136441700000006],
     [20.2520093, 44.136410700000006],
     [20.251585000000002, 44.1363751], [20.2508257, 44.136313],
     [20.2504069, 44.1362721],
     [20.250000800000002, 44.136200300000006],
     [20.2493482, 44.136047700000006],
     [20.249089700000003, 44.135953400000005],
     [20.2484538, 44.1356814], [20.248033300000003, 44.1354829]]}},
  {"type":"Feature",
   "properties":{},
   "geometry":
   {"type":"LineString",
    "coordinates":
    [[20.2553907, 44.136965200000006],
     [20.2553263, 44.136919000000006], [20.2549631, 44.1367777],
     [20.254534, 44.1366773], [20.2541461, 44.136665300000004],
     [20.2537416, 44.136665300000004],
     [20.253436400000002, 44.1366476], [20.2531076, 44.1366122],
     [20.2521956, 44.136441700000006]]}},
  {"type":"Feature",
   "properties":{},
   "geometry":
   {"type":"LineString",
    "coordinates":
    [[20.260130800000002, 44.135706600000006],
     [20.2599713, 44.135751000000006], [20.2593442, 44.1358514],
     [20.258783100000002, 44.1359939], [20.258222, 44.1362722],
     [20.257842200000002, 44.136461700000005],
     [20.2572805, 44.136665300000004], [20.2569506, 44.1367069],
     [20.2565467, 44.13674], [20.256290800000002, 44.136811200000004],
     [20.255878300000003, 44.136911700000006],
     [20.2553907, 44.136965200000006]]}},
  {"type":"Feature",
   "properties":{},
   "geometry":
   {"type":"LineString",
    "coordinates":
    [[20.260130800000002, 44.135706600000006],
     [20.2604529, 44.135754500000004],
     [20.261005700000002, 44.1358881],
     [20.261175400000003, 44.135986300000006],
     [20.261268400000002, 44.1359902]]}},
  {"type":"Feature",
   "properties":{},
   "geometry":
   {"type":"LineString",
    "coordinates":
    [[20.261268400000002, 44.1359902],
     [20.261786400000002, 44.1361846]]}},
  {"type":"Feature",
   "properties":{},
   "geometry":
   {"type":"LineString",
    "coordinates":
    [[20.261786400000002, 44.1361846], [20.261833900000003, 44.136263],
     [20.2618909, 44.136290300000006],
     [20.262133300000002, 44.136283500000005],
     [20.2623091, 44.1362767], [20.2625514, 44.1363653],
     [20.2630409, 44.1364472], [20.263364000000003, 44.1364165],
     [20.263596800000002, 44.1363756], [20.2638772, 44.1363483],
     [20.264148000000002, 44.1364165],
     [20.264328600000002, 44.1365052],
     [20.264418900000003, 44.1365938],
     [20.264442600000002, 44.1367678]]}},
  {"type":"Feature",
   "properties":{},
   "geometry":
   {"type":"LineString",
    "coordinates":
    [[20.264442600000002, 44.1367678], [20.2647456, 44.1368498],
     [20.2653035, 44.137076900000004],
     [20.2654268, 44.137273300000004], [20.2653249, 44.1377237],
     [20.2651264, 44.138378200000005],
     [20.264649000000002, 44.138774700000006],
     [20.2642789, 44.1389441], [20.2641984, 44.139306000000005],
     [20.263817500000002, 44.139471500000006],
     [20.2635976, 44.1398103], [20.2643959, 44.1401568]]}},
  {"type":"Feature",
   "properties":{},
   "geometry":
   {"type":"LineString",
    "coordinates":
    [[20.2644601, 44.140742], [20.2643959, 44.1401568]]}},
  {"type":"Feature",
   "properties":{},
   "geometry":
   {"type":"LineString",
    "coordinates":
    [[20.2644601, 44.140742], [20.2640837, 44.1406459],
     [20.2635097, 44.140534300000006], [20.2630196, 44.1401946],
     [20.2629094, 44.1401752], [20.2625543, 44.1400863],
     [20.2617255, 44.139855700000005], [20.2611826, 44.1397429],
     [20.2606381, 44.1395477],
     [20.260293700000002, 44.139310200000004],
     [20.2598458, 44.1388382], [20.2596661, 44.138599500000005],
     [20.2591028, 44.138293100000006], [20.2588469, 44.1382041],
     [20.2584033, 44.138091700000004],
     [20.257999400000003, 44.138001200000005],
     [20.2575284, 44.1379023], [20.257115900000002, 44.137689],
     [20.2567108, 44.1374757], [20.256133600000002, 44.1372671],
     [20.2555972, 44.1371131], [20.2553907, 44.136965200000006]]}},
  {"type":"Feature",
   "properties":{},
   "geometry":
   {"type":"LineString",
    "coordinates":
    [[20.2553907, 44.136965200000006],
     [20.2553263, 44.136919000000006], [20.2549631, 44.1367777],
     [20.254534, 44.1366773], [20.2541461, 44.136665300000004],
     [20.2537416, 44.136665300000004],
     [20.253436400000002, 44.1366476], [20.2531076, 44.1366122],
     [20.2521956, 44.136441700000006]]}},
  {"type":"Feature",
   "properties":{},
   "geometry":
   {"type":"LineString",
    "coordinates":
    [[20.2521956, 44.136441700000006],
     [20.252156300000003, 44.136542000000006],
     [20.2521282, 44.1366594],
     [20.252087900000003, 44.136749800000004], [20.251974, 44.1368827],
     [20.251920300000002, 44.136929800000004],
     [20.2516964, 44.1370203], [20.2514724, 44.1370742],
     [20.2511975, 44.137176200000006],
     [20.2510374, 44.137269800000006], [20.250944, 44.137365300000006],
     [20.250911300000002, 44.1374726], [20.2508927, 44.1377424],
     [20.250874, 44.1379066], [20.250815600000003, 44.138044],
     [20.2506451, 44.1383054],
     [20.250540100000002, 44.138452900000004],
     [20.250491, 44.138570200000004], [20.2504163, 44.1388333],
     [20.2503743, 44.1389204],
     [20.250178100000003, 44.139153400000005],
     [20.250129100000002, 44.1392405],
     [20.250101100000002, 44.1393561], [20.2500988, 44.1394935],
     [20.2501198, 44.139584]]}},
  {"type":"Feature",
   "properties":{},
   "geometry":
   {"type":"LineString",
    "coordinates":
    [[20.2501198, 44.139584], [20.250087100000002, 44.1396594],
     [20.250003, 44.1397248], [20.2499049, 44.1397533],
     [20.2497882, 44.139765000000004], [20.2496785, 44.1397482],
     [20.249557000000003, 44.1397047],
     [20.2493912, 44.139614200000004],
     [20.249085400000002, 44.139428200000005],
     [20.2489032, 44.1393477],
     [20.248709400000003, 44.139297500000005],
     [20.248499300000002, 44.139270700000004],
     [20.248307800000003, 44.139242200000005],
     [20.2481794, 44.139200300000006], [20.2479365, 44.1390997],
     [20.2477591, 44.1390545], [20.2475723, 44.1390344]]}},
  {"type":"Feature",
   "properties":{},
   "geometry":
   {"type":"LineString",
    "coordinates":
    [[20.2475723, 44.1390344], [20.247380800000002, 44.139031],
     [20.247196300000002, 44.139062900000006],
     [20.246993200000002, 44.1391433], [20.246776, 44.1392924],
     [20.246584600000002, 44.1394717], [20.2462227, 44.1397616],
     [20.2460312, 44.139895700000004], [20.2450598, 44.1404386],
     [20.244901000000002, 44.140560900000004],
     [20.244609200000003, 44.1408676],
     [20.2445601, 44.140953100000004],
     [20.2445601, 44.141013400000006],
     [20.244645600000002, 44.1410903]]}},
  {"type":"Feature",
   "properties":{},
   "geometry":
   {"type":"LineString",
    "coordinates":
    [[20.2445519, 44.1426718], [20.2446045, 44.1426129],
     [20.2446471, 44.142564], [20.2446887, 44.1425235],
     [20.244735600000002, 44.142488900000004],
     [20.244844200000003, 44.1424238],
     [20.245005000000003, 44.1423216], [20.245061500000002, 44.142282],
     [20.2451085, 44.142246400000005],
     [20.2451286, 44.142221400000004],
     [20.245155200000003, 44.1421829], [20.2451849, 44.1421155],
     [20.2452037, 44.1420693], [20.2452131, 44.142036600000004],
     [20.245218400000002, 44.142003800000005],
     [20.245216300000003, 44.1419719], [20.2451978, 44.1418881],
     [20.245154000000003, 44.141735700000005],
     [20.245125400000003, 44.141650500000004], [20.245083, 44.1415352],
     [20.245049400000003, 44.1414582], [20.2450186, 44.1413919],
     [20.2449985, 44.1413571], [20.2449663, 44.141310000000004],
     [20.2449368, 44.1412763], [20.2448872, 44.1412301],
     [20.2448148, 44.141181], [20.244739900000003, 44.1411353],
     [20.244645600000002, 44.1410903]]}},
  {"type":"Feature",
   "properties":{},
   "geometry":
   {"type":"LineString",
    "coordinates":
    [[20.243590700000002, 44.144394500000004],
     [20.2436456, 44.1443523], [20.243711100000002, 44.1443056],
     [20.243897, 44.1441767], [20.2440181, 44.1440999],
     [20.2441171, 44.1440343], [20.2441767, 44.143983500000004],
     [20.244226, 44.143932500000005],
     [20.244284800000003, 44.143860100000005],
     [20.2443266, 44.143796800000004], [20.24437, 44.1437303],
     [20.2444084, 44.1436572], [20.2444339, 44.143602400000006],
     [20.2444613, 44.143527500000005],
     [20.2444725, 44.143486700000004], [20.2444749, 44.1434453],
     [20.2444701, 44.1433801],
     [20.244436800000003, 44.143149300000005],
     [20.244432500000002, 44.143075], [20.2444339, 44.142977800000004],
     [20.2444412, 44.142935200000004], [20.2444513, 44.1428796],
     [20.2444636, 44.142839800000004], [20.2445005, 44.1427622],
     [20.2445519, 44.1426718]]}},
  {"type":"Feature",
   "properties":{},
   "geometry":
   {"type":"LineString",
    "coordinates":
    [[20.243593, 44.1448881], [20.243553600000002, 44.1448334],
     [20.2435125, 44.144769700000005],
     [20.2434884, 44.144714900000004],
     [20.2434771, 44.144670700000006], [20.2434736, 44.1446321],
     [20.2434763, 44.144584], [20.2434887, 44.144533700000004],
     [20.2435139, 44.144485800000005],
     [20.243544500000002, 44.144445000000005],
     [20.243590700000002, 44.144394500000004]]}},
  {"type":"Feature",
   "properties":{},
   "geometry":
   {"type":"LineString",
    "coordinates":
    [[20.243593, 44.1448881], [20.2435067, 44.145133900000005],
     [20.243420800000003, 44.1454303],
     [20.243420800000003, 44.1455958], [20.2435657, 44.145746],
     [20.2436493, 44.1458504]]}},
  {"type":"Feature",
   "properties":{},
   "geometry":
   {"type":"LineString",
    "coordinates":
    [[20.2443916, 44.1460529], [20.2442794, 44.1461054],
     [20.2442126, 44.146125700000006],
     [20.2441442, 44.146140100000004],
     [20.244070200000003, 44.146143900000006],
     [20.2440034, 44.1461411], [20.2439222, 44.1461285],
     [20.243854000000002, 44.146106], [20.2438183, 44.146093900000004],
     [20.2437848, 44.1460747],
     [20.243731200000003, 44.146033100000004],
     [20.2436896, 44.145991900000006],
     [20.2436654, 44.145943800000005],
     [20.2436523, 44.145897000000005], [20.2436493, 44.1458504]]}},
  {"type":"Feature",
   "properties":{},
   "geometry":
   {"type":"LineString",
    "coordinates":
    [[20.2443916, 44.1460529], [20.244531300000002, 44.1461732],
     [20.2449121, 44.146385], [20.2450677, 44.1466506],
     [20.245346700000002, 44.1469085], [20.2456524, 44.1470393],
     [20.245866200000002, 44.147058300000005]]}},
  {"type":"Feature",
   "properties":{},
   "geometry":
   {"type":"LineString",
    "coordinates":
    [[20.246211600000002, 44.147240000000004],
     [20.245866200000002, 44.147058300000005]]}},
  {"type":"Feature",
   "properties":{},
   "geometry":
   {"type":"LineString",
    "coordinates":
    [[20.246211600000002, 44.147240000000004],
     [20.2465794, 44.1471747], [20.2468693, 44.1470867],
     [20.247239500000003, 44.1470944], [20.2476096, 44.1472099],
     [20.2479395, 44.1473254], [20.2481863, 44.147404300000005],
     [20.2483043, 44.1475025], [20.2481997, 44.147579500000006],
     [20.2482131, 44.147681500000004],
     [20.2482265, 44.147752700000005], [20.248315, 44.1478066],
     [20.2483445, 44.147904700000005], [20.2483982, 44.1480529],
     [20.248476, 44.148124100000004], [20.2484813, 44.1481742],
     [20.2485135, 44.1482357],
     [20.248569800000002, 44.148285800000004],
     [20.2485779, 44.1483512], [20.2485082, 44.148414700000004],
     [20.2484438, 44.1485071], [20.2484331, 44.1485879],
     [20.248403500000002, 44.1486418], [20.2485618, 44.1487823],
     [20.248677100000002, 44.1488497], [20.248712, 44.1489363],
     [20.2487898, 44.1489671],
     [20.248856800000002, 44.149046000000006],
     [20.2489534, 44.149124900000004],
     [20.249023100000002, 44.149151800000006],
     [20.249130400000002, 44.149198000000005],
     [20.2492404, 44.1492288], [20.2490768, 44.149209600000006],
     [20.2490205, 44.149217300000004], [20.2487335, 44.1491653],
     [20.2486423, 44.149128700000006], [20.2483767, 44.1490479],
     [20.2482748, 44.1489459], [20.2482024, 44.148972900000004]]}},
  {"type":"Feature",
   "properties":{},
   "geometry":
   {"type":"LineString",
    "coordinates":
    [[20.246211600000002, 44.147240000000004],
     [20.2465794, 44.1471747], [20.2468693, 44.1470867],
     [20.247239500000003, 44.1470944], [20.2476096, 44.1472099],
     [20.2479395, 44.1473254], [20.2481863, 44.147404300000005],
     [20.2483043, 44.1475025], [20.2481997, 44.147579500000006],
     [20.2482131, 44.147681500000004],
     [20.2482265, 44.147752700000005], [20.248315, 44.1478066],
     [20.2483445, 44.147904700000005], [20.2483982, 44.1480529],
     [20.248476, 44.148124100000004], [20.2484813, 44.1481742],
     [20.2485135, 44.1482357],
     [20.248569800000002, 44.148285800000004],
     [20.2485779, 44.1483512], [20.2485082, 44.148414700000004],
     [20.2484438, 44.1485071], [20.2484331, 44.1485879],
     [20.248403500000002, 44.1486418], [20.2485618, 44.1487823],
     [20.248677100000002, 44.1488497], [20.248712, 44.1489363],
     [20.2487898, 44.1489671],
     [20.248856800000002, 44.149046000000006],
     [20.2489534, 44.149124900000004],
     [20.249023100000002, 44.149151800000006],
     [20.249130400000002, 44.149198000000005],
     [20.2492404, 44.1492288], [20.2490768, 44.149209600000006],
     [20.2490205, 44.149217300000004], [20.2487335, 44.1491653],
     [20.2486423, 44.149128700000006], [20.2483767, 44.1490479],
     [20.2482748, 44.1489459], [20.2482024, 44.148972900000004]]}},
  {"type":"Feature",
   "properties":{},
   "geometry":
   {"type":"LineString",
    "coordinates":
    [[20.246211600000002, 44.147240000000004],
     [20.245866200000002, 44.147058300000005]]}},
  {"type":"Feature",
   "properties":{},
   "geometry":
   {"type":"LineString",
    "coordinates":
    [[20.2441946, 44.1488122], [20.244466900000003, 44.1488023],
     [20.2447351, 44.148682900000004], [20.2449443, 44.1485867],
     [20.245014100000002, 44.1483712], [20.2450999, 44.1481287],
     [20.2450945, 44.14784], [20.245046300000002, 44.1475359],
     [20.245057000000003, 44.147343400000004],
     [20.245062400000002, 44.147181800000006],
     [20.245298400000003, 44.147124000000005],
     [20.2455344, 44.1471163],
     [20.245866200000002, 44.147058300000005]]}},
  {"type":"Feature",
   "properties":{},
   "geometry":
   {"type":"LineString",
    "coordinates":
    [[20.242821300000003, 44.1468684],
     [20.243009100000002, 44.147037700000006],
     [20.2432881, 44.1474381],
     [20.243534800000003, 44.147838400000005],
     [20.243776200000003, 44.148181], [20.243899600000002, 44.1486352],
     [20.2441946, 44.1488122]]}},
  {"type":"Feature",
   "properties":{},
   "geometry":
   {"type":"LineString",
    "coordinates":
    [[20.2241478, 44.143684900000004], [20.2245233, 44.1434155],
     [20.225349400000002, 44.1430151],
     [20.225864400000003, 44.142268300000005],
     [20.2264974, 44.1415523], [20.227999500000003, 44.1417756],
     [20.229190300000003, 44.142199000000005],
     [20.230402700000003, 44.1421913],
     [20.231615100000003, 44.142406900000005],
     [20.232371500000003, 44.1425301], [20.2331064, 44.14253],
     [20.2340237, 44.142175900000005],
     [20.2347372, 44.142291400000005], [20.2348016, 44.1428226],
     [20.2349196, 44.143269100000005],
     [20.235123400000003, 44.143731100000004],
     [20.235198500000003, 44.1440314],
     [20.235531100000003, 44.144385500000006],
     [20.2361641, 44.1446011], [20.2370009, 44.1448936],
     [20.2382992, 44.145417200000004], [20.2385674, 44.1457713],
     [20.2381382, 44.1459484], [20.237473, 44.1460177],
     [20.237237, 44.1461793], [20.2377305, 44.1464103],
     [20.238503, 44.146625900000004], [20.238985800000002, 44.146903],
     [20.239103800000002, 44.1472263], [20.2393077, 44.1474034],
     [20.2396832, 44.1470878], [20.2401713, 44.1467144],
     [20.2406273, 44.1463872], [20.2411101, 44.1460677],
     [20.2414802, 44.1459484], [20.2417646, 44.146056200000004],
     [20.2421615, 44.1463795], [20.2426014, 44.1467375],
     [20.242821300000003, 44.1468684]]}},
  {"type":"Feature",
   "properties":{},
   "geometry":
   {"type":"LineString",
    "coordinates":
    [[20.2209478, 44.142513300000005],
     [20.221358300000002, 44.142999700000004],
     [20.2218304, 44.143638700000004],
     [20.222163000000002, 44.144270000000006],
     [20.2229677, 44.1446473], [20.2231339, 44.1445511],
     [20.2231393, 44.144185400000005], [20.2229837, 44.1437773],
     [20.2231205, 44.1433192], [20.2237253, 44.1434289],
     [20.2241478, 44.143684900000004]]}},
  {"type":"Feature",
   "properties":{},
   "geometry":
   {"type":"LineString",
    "coordinates":
    [[20.2209478, 44.142513300000005], [20.220897, 44.142453100000004],
     [20.220758, 44.1421203], [20.220695000000003, 44.1420077],
     [20.220583100000002, 44.141896800000005],
     [20.2206078, 44.1416872], [20.2206695, 44.141570800000004],
     [20.220636000000002, 44.1415063],
     [20.2204553, 44.141381200000005], [20.22007, 44.1414659],
     [20.2197758, 44.141490700000006],
     [20.219330600000003, 44.1415099], [20.2187673, 44.1414483],
     [20.218268400000003, 44.1415869],
     [20.218075300000002, 44.1418448],
     [20.217906900000003, 44.1419772]]}},
  {"type":"Feature",
   "properties":{},
   "geometry":
   {"type":"LineString",
    "coordinates":
    [[20.218177400000002, 44.153558800000006],
     [20.218036100000003, 44.153485100000005],
     [20.217850300000002, 44.153252800000004],
     [20.217788300000002, 44.1531004],
     [20.217758200000002, 44.1529049],
     [20.2177848, 44.152824900000006],
     [20.217868000000003, 44.1527766],
     [20.218103300000003, 44.152737300000005],
     [20.2183493, 44.152677600000004], [20.2184785, 44.1526103],
     [20.2184944, 44.152565900000006], [20.2184218, 44.1524948],
     [20.2176875, 44.152188800000005],
     [20.217553000000002, 44.152101200000004],
     [20.2174751, 44.152005900000006], [20.2174716, 44.1519044],
     [20.2175353, 44.151816800000006],
     [20.2176715, 44.151730400000005], [20.2180608, 44.1514879],
     [20.2183546, 44.151270800000006],
     [20.218473200000002, 44.1511159], [20.2186448, 44.1509559],
     [20.2190306, 44.150634700000005],
     [20.2191881, 44.150446800000005],
     [20.2193137, 44.150189000000005], [20.2194252, 44.1498373],
     [20.2194553, 44.149571900000005],
     [20.219478300000002, 44.149027200000006],
     [20.219508400000002, 44.1488202], [20.2196216, 44.148353],
     [20.2197862, 44.148116800000004], [20.2199986, 44.1478209],
     [20.2203118, 44.1474349], [20.2204091, 44.1471822],
     [20.2204374, 44.146913100000006], [20.2204233, 44.146715],
     [20.2204604, 44.146612100000006],
     [20.220541800000003, 44.146549900000004],
     [20.2206692, 44.146527000000006],
     [20.220879800000002, 44.146568900000005],
     [20.221276200000002, 44.146739100000005],
     [20.2216779, 44.1468877], [20.2220796, 44.146981600000004],
     [20.2222937, 44.1469931], [20.2223981, 44.1469715],
     [20.222412300000002, 44.146943500000006],
     [20.2223061, 44.146897800000005],
     [20.2220531, 44.146751800000004],
     [20.2218425, 44.146556200000006], [20.2216655, 44.146348],
     [20.2215646, 44.146122000000005],
     [20.221511600000003, 44.145878200000006],
     [20.2214779, 44.1456242], [20.2214072, 44.145432500000005],
     [20.221276200000002, 44.145243300000004],
     [20.2210585, 44.145073100000005], [20.2207613, 44.1449398],
     [20.2205064, 44.1448814], [20.2202516, 44.1448623],
     [20.220000300000002, 44.1448687], [20.219857, 44.144922],
     [20.2196588, 44.145087100000005], [20.219496000000003, 44.145176],
     [20.2193226, 44.145201400000005], [20.219204, 44.145181],
     [20.219034100000002, 44.145088300000005],
     [20.218774, 44.144927100000004], [20.2185829, 44.144758200000005],
     [20.2185032, 44.144600700000005],
     [20.2184962, 44.144496600000004], [20.2185139, 44.1443366],
     [20.2185935, 44.144195700000004],
     [20.2188625, 44.143869300000006],
     [20.218943900000003, 44.143723300000005],
     [20.218956300000002, 44.143582300000006],
     [20.218915600000003, 44.1434122], [20.218774, 44.143193700000005],
     [20.2185634, 44.1430007], [20.2182679, 44.1427798],
     [20.218115700000002, 44.1426705],
     [20.2180378, 44.142547400000005], [20.2180024, 44.1424242],
     [20.2179688, 44.1422286], [20.2179547, 44.142061000000005],
     [20.217906900000003, 44.1419772]]}},
  {"type":"Feature",
   "properties":{},
   "geometry":
   {"type":"LineString",
    "coordinates":
    [[20.213681400000002, 44.153639600000005],
     [20.2138691, 44.153685200000005], [20.213890900000003, 44.153699],
     [20.213974500000003, 44.153755600000004], [20.2141768, 44.153731],
     [20.214523, 44.1535711], [20.2148453, 44.1535072],
     [20.2154829, 44.1536917], [20.216017700000002, 44.1537286],
     [20.217347800000002, 44.153770400000006],
     [20.2177729, 44.153649900000005],
     [20.217995700000003, 44.1535736],
     [20.218177400000002, 44.153558800000006]]}},
  {"type":"Feature",
   "properties":{},
   "geometry":
   {"type":"LineString",
    "coordinates":
    [[20.2035114, 44.1553729], [20.2035476, 44.155021700000006],
     [20.203585200000003, 44.154811], [20.203667000000003, 44.1547081],
     [20.2037944, 44.154676300000006], [20.2041283, 44.1547841],
     [20.2043134, 44.154805200000006],
     [20.204455600000003, 44.1547533], [20.204536, 44.154634],
     [20.2045695, 44.1545618], [20.2046956, 44.1545397],
     [20.2048512, 44.1545666], [20.2048928, 44.1546686],
     [20.205029500000002, 44.1550169],
     [20.2050832, 44.155315200000004], [20.2050993, 44.1554191],
     [20.205166300000002, 44.1555076],
     [20.205394300000002, 44.1555327],
     [20.205724200000002, 44.1555192], [20.2060193, 44.1555404],
     [20.2061001, 44.1556937], [20.206040700000003, 44.1559425],
     [20.205815400000002, 44.15616], [20.205735, 44.156508300000006],
     [20.205709300000002, 44.156894], [20.205784700000002, 44.1570612],
     [20.2060247, 44.157085800000004],
     [20.206079600000002, 44.156825100000006],
     [20.206216700000002, 44.1566333],
     [20.206751500000003, 44.1565693], [20.2081844, 44.1560725],
     [20.208897500000003, 44.155880700000004],
     [20.2094597, 44.1556445], [20.210255, 44.1552068],
     [20.2103064, 44.1551084], [20.210210500000002, 44.1547296],
     [20.210186500000002, 44.1546238],
     [20.2103167, 44.154520500000004],
     [20.211194300000002, 44.1544886],
     [20.211749700000002, 44.1544049],
     [20.212298200000003, 44.1542844], [20.212737, 44.1541221],
     [20.2131484, 44.1538515], [20.2134466, 44.153701500000004],
     [20.213681400000002, 44.153639600000005]]}},
  {"type":"Feature",
   "properties":{},
   "geometry":
   {"type":"LineString",
    "coordinates":
    [[20.2029482, 44.154768700000005],
     [20.2030929, 44.154951000000004],
     [20.2033148, 44.155101300000005], [20.2035114, 44.1553729]]}},
  {"type":"Feature",
   "properties":{},
   "geometry":
   {"type":"LineString",
    "coordinates":
    [[20.196189, 44.155376800000006], [20.1964049, 44.155568300000006],
     [20.1965511, 44.1556549], [20.1967308, 44.155708700000005],
     [20.1972759, 44.155751200000005], [20.197830500000002, 44.155707],
     [20.1981386, 44.155623000000006],
     [20.1985515, 44.155472700000004], [20.198761, 44.1552516],
     [20.199056300000002, 44.1550073],
     [20.1993084, 44.154745600000005],
     [20.199480100000002, 44.1545628], [20.199578000000002, 44.154276],
     [20.199645, 44.1540903], [20.1997429, 44.153897900000004],
     [20.1998448, 44.153777600000005], [20.1999669, 44.153742],
     [20.200067500000003, 44.153759300000004],
     [20.2001828, 44.1538507], [20.200301500000002, 44.1539828],
     [20.2005422, 44.154175], [20.2009164, 44.154362600000006],
     [20.2013375, 44.1545926],
     [20.201892700000002, 44.154706100000006],
     [20.2025177, 44.1547658], [20.2029482, 44.154768700000005]]}},
  {"type":"Feature",
   "properties":{},
   "geometry":
   {"type":"LineString",
    "coordinates":
    [[20.1913138, 44.152526], [20.191312200000002, 44.152709300000005],
     [20.191526800000002, 44.1529326],
     [20.191693100000002, 44.1531443], [20.191843300000002, 44.153329],
     [20.1921222, 44.1534368],
     [20.192524600000002, 44.153629200000005],
     [20.1927445, 44.1537986], [20.192991300000003, 44.1539487],
     [20.1932005, 44.154037200000005], [20.1933936, 44.1542296],
     [20.1935974, 44.154318200000006], [20.1938281, 44.154322],
     [20.193973, 44.1542912], [20.19407, 44.1542703],
     [20.1942135, 44.1542818], [20.1944348, 44.1543213],
     [20.194693700000002, 44.154335700000004],
     [20.194906900000003, 44.1543713],
     [20.1950906, 44.154459800000005], [20.1952904, 44.1545714],
     [20.1955533, 44.1547263], [20.195666000000003, 44.1548274],
     [20.1957317, 44.154920700000005],
     [20.1957786, 44.155017900000004], [20.1958926, 44.1551228],
     [20.1960562, 44.1552103], [20.1961742, 44.155298800000004],
     [20.196189, 44.155376800000006]]}},
  {"type":"Feature",
   "properties":{},
   "geometry":
   {"type":"LineString",
    "coordinates":
    [[20.1913138, 44.152526], [20.1913246, 44.152348700000005],
     [20.19131, 44.1521495], [20.1912843, 44.1520098],
     [20.1912349, 44.1518801], [20.191192, 44.1518378],
     [20.1911303, 44.151795400000005],
     [20.191081200000003, 44.1517544], [20.1910364, 44.1517069],
     [20.190820000000002, 44.151321], [20.1905302, 44.150908300000005],
     [20.1903739, 44.1507158], [20.1902693, 44.1505426]]}},
  {"type":"Feature",
   "properties":{},
   "geometry":
   {"type":"LineString",
    "coordinates":
    [[20.1902693, 44.1505426], [20.190162100000002, 44.1503944],
     [20.190052100000003, 44.1502539],
     [20.1898482, 44.150073000000006],
     [20.1896363, 44.149944100000006],
     [20.189462000000002, 44.1498921],
     [20.1893037, 44.149768900000005],
     [20.189207200000002, 44.149628400000005],
     [20.189102600000002, 44.149570700000005],
     [20.1890141, 44.149549500000006],
     [20.188704100000002, 44.1495988]]}},
  {"type":"Feature",
   "properties":{},
   "geometry":
   {"type":"LineString",
    "coordinates":
    [[20.188704100000002, 44.1495988], [20.188333, 44.1496439]]}},
  {"type":"Feature",
   "properties":{},
   "geometry":
   {"type":"LineString",
    "coordinates":
    [[20.188333, 44.1496439], [20.1881182, 44.149671500000004]]}},
  {"type":"Feature",
   "properties":{},
   "geometry":
   {"type":"LineString",
    "coordinates":
    [[20.1881182, 44.149671500000004],
     [20.1878661, 44.149732400000005], [20.1876515, 44.1497651],
     [20.1875496, 44.1497843], [20.1874772, 44.1498074],
     [20.1874208, 44.1498421], [20.1873806, 44.149882500000004],
     [20.1873726, 44.149928700000004],
     [20.1873779, 44.150021100000004], [20.1873565, 44.1502251],
     [20.187342, 44.150406800000006],
     [20.1873028, 44.150559900000005]]}},
  {"type":"Feature",
   "properties":{},
   "geometry":
   {"type":"LineString",
    "coordinates":
    [[20.1873028, 44.150559900000005], [20.187276, 44.150665800000006],
     [20.187284000000002, 44.1507735], [20.1873136, 44.1508678],
     [20.1873726, 44.150956400000005], [20.1874208, 44.151043],
     [20.1874879, 44.1511508], [20.1875013, 44.151212400000006],
     [20.187497500000003, 44.1512735], [20.1874718, 44.1513259],
     [20.1874289, 44.151364400000006],
     [20.187359100000002, 44.1513949],
     [20.187225100000003, 44.1514278],
     [20.1871665, 44.151437900000005],
     [20.1868978, 44.151458600000005], [20.1867771, 44.1514759],
     [20.186677900000003, 44.1515222],
     [20.1866021, 44.151564400000005], [20.1864955, 44.1516492],
     [20.1864072, 44.151770400000004],
     [20.1863426, 44.151887800000004],
     [20.186305100000002, 44.151959000000005],
     [20.1862461, 44.152064900000006], [20.1862199, 44.1521716],
     [20.1862219, 44.152342000000004],
     [20.186200300000003, 44.1524803],
     [20.186168300000002, 44.152567100000006],
     [20.186133400000003, 44.152632600000004],
     [20.1860885, 44.1526762],
     [20.186002000000002, 44.152715300000004],
     [20.1859027, 44.1527692], [20.1857498, 44.152830800000004],
     [20.185698900000002, 44.152900100000004],
     [20.185669400000002, 44.152971300000004],
     [20.185677400000003, 44.1530733],
     [20.185682800000002, 44.153181100000005],
     [20.185631800000003, 44.153229200000006], [20.1855245, 44.153258],
     [20.185385, 44.1533023], [20.185318000000002, 44.1533735],
     [20.1852214, 44.1535274], [20.1851732, 44.153602500000005],
     [20.1851074, 44.153658400000005],
     [20.185014900000002, 44.153694900000005],
     [20.184904900000003, 44.1537276],
     [20.184759500000002, 44.153764300000006],
     [20.1846743, 44.1537844],
     [20.184588400000003, 44.153798800000004],
     [20.184493200000002, 44.1538094], [20.1843675, 44.1538182],
     [20.1840023, 44.153843300000005], [20.1836886, 44.1538489],
     [20.1835644, 44.153860300000005],
     [20.1835035, 44.153868100000004],
     [20.1834606, 44.153881600000005],
     [20.183420400000003, 44.153902800000004],
     [20.1833895, 44.153930700000004], [20.1833734, 44.1539614],
     [20.1833385, 44.1540182], [20.183301, 44.154089400000004],
     [20.183242, 44.154233700000006], [20.1831964, 44.1543569],
     [20.183183, 44.154428100000004], [20.1831722, 44.1545262],
     [20.1832017, 44.1546013], [20.1832366, 44.1546474],
     [20.183254, 44.1546965], [20.1832634, 44.1547379],
     [20.183273200000002, 44.154790000000006],
     [20.183278100000003, 44.1548572], [20.1832661, 44.1549168],
     [20.183254, 44.154948600000004], [20.1832245, 44.1549842],
     [20.183183800000002, 44.155017300000004],
     [20.183130600000002, 44.155047700000004],
     [20.183085000000002, 44.155070800000004],
     [20.1829925, 44.1550919], [20.1829141, 44.155101],
     [20.1827511, 44.155095800000005],
     [20.1826224, 44.155093900000004],
     [20.182481600000003, 44.1551016], [20.1823547, 44.155102],
     [20.1821959, 44.1551035], [20.182123500000003, 44.1551093],
     [20.182041700000003, 44.1551199],
     [20.181937100000003, 44.1551391], [20.1818323, 44.1551595],
     [20.181693000000003, 44.1551872], [20.181583, 44.155199700000004],
     [20.181484400000002, 44.1552221], [20.181394, 44.1552324],
     [20.1813363, 44.155243000000006],
     [20.181274000000002, 44.1552645],
     [20.181235700000002, 44.1552853], [20.1811982, 44.1553142],
     [20.181164600000002, 44.155353700000006],
     [20.181135100000002, 44.1554037],
     [20.181102900000003, 44.1554797],
     [20.181073400000002, 44.1555644],
     [20.181041200000003, 44.1556404], [20.1810084, 44.1557012],
     [20.180950600000003, 44.1557821], [20.1808441, 44.1558982]]}},
  {"type":"Feature",
   "properties":{},
   "geometry":
   {"type":"LineString",
    "coordinates":
    [[20.1808441, 44.1558982], [20.1807796, 44.1559655],
     [20.180726, 44.156007], [20.1806643, 44.1560465],
     [20.180606700000002, 44.156075300000005],
     [20.1805664, 44.1560907],
     [20.180422200000002, 44.156136800000006],
     [20.180157400000002, 44.156202300000004],
     [20.1798909, 44.1562719],
     [20.179804700000002, 44.156294200000005],
     [20.1797113, 44.1563184], [20.1796344, 44.1563351],
     [20.1795258, 44.156351400000005], [20.1794265, 44.156364],
     [20.1792991, 44.1563438], [20.1791677, 44.156340900000004],
     [20.1790798, 44.1563336], [20.1789969, 44.156323],
     [20.1787962, 44.1562889], [20.1786983, 44.156268700000005],
     [20.1786166, 44.1562458], [20.1784784, 44.156195600000004],
     [20.1783644, 44.1561475], [20.178232, 44.1560895],
     [20.1781417, 44.1560484]]}},
  {"type":"Feature",
   "properties":{},
   "geometry":
   {"type":"LineString",
    "coordinates":
    [[20.1781417, 44.1560484], [20.1780666, 44.1560186],
     [20.177972800000003, 44.155983000000006],
     [20.177813200000003, 44.1559274], [20.1774698, 44.1558155],
     [20.177350800000003, 44.155775000000006],
     [20.177232500000002, 44.155729900000004], [20.177152, 44.1556924],
     [20.1770943, 44.1556626], [20.1770166, 44.1556164],
     [20.176871600000002, 44.155520200000005],
     [20.1766599, 44.1553873],
     [20.176309800000002, 44.155171800000005],
     [20.1761982, 44.1550881],
     [20.176049600000002, 44.154973600000005], [20.1759624, 44.154913],
     [20.1758761, 44.1548596], [20.175616400000003, 44.154735],
     [20.1753548, 44.1546135], [20.1751283, 44.154512700000005],
     [20.1748882, 44.1544107],
     [20.174794300000002, 44.154365500000004],
     [20.1747613, 44.1543411], [20.174748700000002, 44.1543251],
     [20.174750900000003, 44.1543044], [20.1747568, 44.1542905]]}},
  {"type":"Feature",
   "properties":{},
   "geometry":
   {"type":"LineString",
    "coordinates":
    [[20.1747568, 44.1542905], [20.1747836, 44.154276],
     [20.174817100000002, 44.154271200000004],
     [20.174864200000002, 44.1542727], [20.1749566, 44.1542905],
     [20.1751295, 44.154316200000004], [20.1753308, 44.1543482],
     [20.175477800000003, 44.1543648], [20.175591, 44.1543809],
     [20.1756701, 44.1543867], [20.1758096, 44.154393400000004],
     [20.1758431, 44.1543982], [20.175915500000002, 44.1544175],
     [20.1762158, 44.1545198], [20.1766277, 44.1546735],
     [20.177026400000003, 44.154850700000004],
     [20.1772981, 44.154968200000006],
     [20.177424300000002, 44.155015000000006],
     [20.177526200000003, 44.1550487], [20.1776348, 44.1550804],
     [20.1777394, 44.1551016], [20.1778145, 44.1551131],
     [20.1779042, 44.1551245], [20.1784065, 44.1552032],
     [20.1787862, 44.155218700000006],
     [20.1790746, 44.155187100000006],
     [20.1793611, 44.155137100000005], [20.1796511, 44.1550178],
     [20.1800579, 44.1547849]]}},
  {"type":"Feature",
   "properties":{},
   "geometry":
   {"type":"LineString",
    "coordinates":
    [[20.1800579, 44.1547849],
     [20.180350100000002, 44.154520000000005], [20.180596, 44.1543569],
     [20.1814046, 44.1538546], [20.1816219, 44.1537276],
     [20.181726700000002, 44.153657100000004],
     [20.181793600000002, 44.153602500000005],
     [20.1818633, 44.1535274], [20.182134700000002, 44.1531936],
     [20.182747600000003, 44.152433], [20.1829955, 44.1520923],
     [20.1831642, 44.1517628], [20.1832818, 44.1514499],
     [20.183390000000003, 44.151134000000006]]}},
  {"type":"Feature",
   "properties":{},
   "geometry":
   {"type":"LineString",
    "coordinates":
    [[20.183390000000003, 44.151134000000006],
     [20.183456, 44.150811700000006], [20.1834804, 44.1504117],
     [20.183465700000003, 44.150040000000004], [20.183419, 44.1496766],
     [20.183376000000003, 44.149160200000004],
     [20.183365300000002, 44.148952900000005],
     [20.1833722, 44.1487592], [20.183410000000002, 44.1485841]]}},
  {"type":"Feature",
   "properties":{},
   "geometry":
   {"type":"LineString",
    "coordinates":
    [[20.183410000000002, 44.1485841], [20.1835048, 44.1483794],
     [20.1836497, 44.1481061], [20.1837667, 44.147944900000006],
     [20.1839137, 44.147793300000004],
     [20.1840413, 44.147682700000004],
     [20.184210800000002, 44.147541600000004]]}},
  {"type":"Feature",
   "properties":{},
   "geometry":
   {"type":"LineString",
    "coordinates":
    [[20.184210800000002, 44.147541600000004],
     [20.1842827, 44.1473151], [20.184513300000003, 44.1470379],
     [20.184770800000003, 44.1467954], [20.1849478, 44.146526],
     [20.1850659, 44.1463759], [20.185357800000002, 44.1461963]]}},
  {"type":"Feature",
   "properties":{},
   "geometry":
   {"type":"LineString",
    "coordinates":
    [[20.185357800000002, 44.1461963], [20.185592, 44.145912200000005],
     [20.1857642, 44.1454997], [20.1860003, 44.144853000000005],
     [20.1868371, 44.144545], [20.188317700000002, 44.144052300000006],
     [20.188932, 44.1438714], [20.1890044, 44.143805900000004],
     [20.1888542, 44.143113], [20.1890366, 44.1427588],
     [20.189390600000003, 44.142389300000005],
     [20.189576300000002, 44.1420587], [20.1896172, 44.1417281],
     [20.189693700000003, 44.1413249], [20.189830500000003, 44.141219],
     [20.190206, 44.141018800000005],
     [20.190363100000003, 44.1409784]]}},
  {"type":"Feature",
   "properties":{},
   "geometry":
   {"type":"LineString",
    "coordinates":
    [[20.1913267, 44.138749600000004],
     [20.191166600000003, 44.138878000000005],
     [20.190986900000002, 44.139057], [20.1908742, 44.139261100000006],
     [20.190761600000002, 44.139547900000004],
     [20.1907187, 44.1397962], [20.1906328, 44.1400464],
     [20.190557700000003, 44.1403101],
     [20.190458500000002, 44.140666200000005],
     [20.190363100000003, 44.1409784]]}}]}
